<?xml version="1.0" encoding="UTF-8"?>
<kml xmlns="http://www.opengis.net/kml/2.2" xmlns:gx="http://www.google.com/kml/ext/2.2">
    <Document id="1">
        <Style id="4">
            <LineStyle id="5">
                <color>ffffff00</color>
                <colorMode>normal</colorMode>
                <width>4</width>
            </LineStyle>
        </Style>
        <name>Log 20251125_143548</name>
        <Placemark id="3">
            <name>Flight Path</name>
            <styleUrl>#4</styleUrl>
            <LineString id="2">
                <extrude>1</extrude>
                <altitudeMode>absolute</altitudeMode>
                <coordinates>106.64386749267578,-6.142455101013184,11.679890632629395 106.64386749267578,-6.142455101013184,11.680173873901367 106.64386749267578,-6.142455101013184,11.679621696472168 106.64386749267578,-6.142455101013184,11.680124282836914 106.64386749267578,-6.142455101013184,11.679803848266602 106.64386749267578,-6.142455101013184,11.679996490478516 106.64386749267578,-6.142455101013184,11.67961311340332 106.64386749267578,-6.142455101013184,11.679909706115723 106.64386749267578,-6.142455101013184,11.680032730102539 106.64386749267578,-6.142455101013184,11.679931640625 106.64386749267578,-6.142455101013184,11.67989444732666 106.64386749267578,-6.142455101013184,11.67995548248291 106.64386749267578,-6.142455101013184,11.679741859436035 106.64386749267578,-6.142455101013184,11.680084228515625 106.64386749267578,-6.142455101013184,11.679935455322266 106.64386749267578,-6.142455101013184,11.679479598999023 106.64386749267578,-6.142455101013184,11.679774284362793 106.64386749267578,-6.142455101013184,11.679722785949707 106.64386749267578,-6.142455101013184,11.6799955368042 106.64386749267578,-6.142455101013184,11.680182456970215 106.64386749267578,-6.142455101013184,11.679744720458984 106.64386749267578,-6.142455101013184,11.679924011230469 106.64386749267578,-6.142455101013184,11.679924011230469 106.64386749267578,-6.142455101013184,11.679935455322266 106.64386749267578,-6.142455101013184,11.680119514465332 106.64386749267578,-6.142455101013184,11.679986953735352 106.64386749267578,-6.142455101013184,11.679915428161621 106.64386749267578,-6.142455101013184,11.679573059082031 106.64386749267578,-6.142455101013184,11.679924964904785 106.64386749267578,-6.142455101013184,11.679882049560547 106.64386749267578,-6.142455101013184,11.6801118850708 106.64386749267578,-6.142455101013184,11.680020332336426 106.64386749267578,-6.142455101013184,11.679349899291992 106.64386749267578,-6.142455101013184,11.67973804473877 106.64386749267578,-6.142455101013184,11.679755210876465 106.64386749267578,-6.142455101013184,11.679780006408691 106.64386749267578,-6.142455101013184,11.679823875427246 106.64386749267578,-6.142455101013184,11.679634094238281 106.64386749267578,-6.142455101013184,11.680044174194336 106.64386749267578,-6.142455101013184,11.68012809753418 106.64386749267578,-6.142455101013184,11.679673194885254 106.64386749267578,-6.142455101013184,11.680038452148438 106.64386749267578,-6.142455101013184,11.68000316619873 106.64386749267578,-6.142455101013184,11.68010425567627 106.64386749267578,-6.142455101013184,11.679969787597656 106.64386749267578,-6.142455101013184,11.679986000061035 106.64386749267578,-6.142455101013184,11.680106163024902 106.64386749267578,-6.142455101013184,11.67970085144043 106.64386749267578,-6.142455101013184,11.6798734664917 106.64386749267578,-6.142455101013184,11.680212020874023 106.64386749267578,-6.142455101013184,11.680157661437988 106.64386749267578,-6.142455101013184,11.680011749267578 106.64386749267578,-6.142455101013184,11.679948806762695 106.64386749267578,-6.142455101013184,11.679887771606445 106.64386749267578,-6.142455101013184,11.680143356323242 106.64386749267578,-6.142455101013184,11.679652214050293 106.64386749267578,-6.142455101013184,11.679832458496094 106.64386749267578,-6.142455101013184,11.679994583129883</coordinates>
            </LineString>
        </Placemark>
    </Document>
</kml>
