<?xml version="1.0" encoding="UTF-8"?>
<kml xmlns="http://www.opengis.net/kml/2.2" xmlns:gx="http://www.google.com/kml/ext/2.2">
    <Document id="1">
        <Style id="4">
            <LineStyle id="5">
                <color>ffffff00</color>
                <colorMode>normal</colorMode>
                <width>4</width>
            </LineStyle>
        </Style>
        <name>Log 20251127_161653</name>
        <Placemark id="3">
            <name>Flight Path</name>
            <styleUrl>#4</styleUrl>
            <LineString id="2">
                <extrude>1</extrude>
                <altitudeMode>absolute</altitudeMode>
                <coordinates>106.64386749267578,-6.1424560546875,11.865532875061035 106.64386749267578,-6.1424560546875,11.865532875061035 106.64386749267578,-6.1424560546875,11.865533828735352 106.64386749267578,-6.1424560546875,11.865533828735352 106.64386749267578,-6.1424560546875,11.865533828735352 106.64386749267578,-6.1424560546875,11.865534782409668 106.64386749267578,-6.1424560546875,11.865534782409668 106.64386749267578,-6.1424560546875,11.865535736083984 106.64386749267578,-6.1424560546875,11.865535736083984 106.64386749267578,-6.1424560546875,11.865535736083984 106.64386749267578,-6.1424560546875,11.8655366897583 106.64386749267578,-6.1424560546875,11.8655366897583 106.64386749267578,-6.1424560546875,11.8655366897583 106.64386749267578,-6.1424560546875,11.865537643432617 106.64386749267578,-6.1424560546875,11.865537643432617 106.64386749267578,-6.1424560546875,11.865537643432617</coordinates>
            </LineString>
        </Placemark>
    </Document>
</kml>
