<?xml version="1.0" encoding="UTF-8"?>
<kml xmlns="http://www.opengis.net/kml/2.2" xmlns:gx="http://www.google.com/kml/ext/2.2">
    <Document id="1">
        <Style id="4">
            <LineStyle id="5">
                <color>ffffff00</color>
                <colorMode>normal</colorMode>
                <width>4</width>
            </LineStyle>
        </Style>
        <name>Log 20251125_142703</name>
        <Placemark id="3">
            <name>Flight Path</name>
            <styleUrl>#4</styleUrl>
            <LineString id="2">
                <extrude>1</extrude>
                <altitudeMode>absolute</altitudeMode>
                <coordinates>106.64386749267578,-6.142455577850342,11.679861068725586 106.64386749267578,-6.142455577850342,11.679937362670898 106.64386749267578,-6.142455577850342,11.680229187011719 106.64386749267578,-6.142455577850342,11.680224418640137 106.64386749267578,-6.142455577850342,11.68031120300293 106.64386749267578,-6.142455577850342,11.68006706237793 106.64386749267578,-6.142455577850342,11.680242538452148 106.64386749267578,-6.142455577850342,11.680089950561523 106.64386749267578,-6.142455577850342,11.680331230163574 106.64386749267578,-6.142455577850342,11.67989444732666 106.64386749267578,-6.142455577850342,11.680037498474121 106.64386749267578,-6.142455577850342,11.680083274841309 106.64386749267578,-6.142455577850342,11.680075645446777 106.64386749267578,-6.142455577850342,11.680103302001953 106.64386749267578,-6.142455577850342,11.67962646484375 106.64386749267578,-6.142455577850342,11.679815292358398 106.64386749267578,-6.142455577850342,11.680171966552734 106.64386749267578,-6.142455577850342,11.680007934570312 106.64386749267578,-6.142455577850342,11.680063247680664 106.64386749267578,-6.142455577850342,11.680047035217285 106.64386749267578,-6.142455577850342,11.680046081542969 106.64386749267578,-6.142455577850342,11.680327415466309 106.64386749267578,-6.142455577850342,11.68017292022705 106.64386749267578,-6.142455577850342,11.680085182189941 106.64386749267578,-6.142455577850342,11.680216789245605 106.64386749267578,-6.142455577850342,11.68034553527832 106.64386749267578,-6.142455577850342,11.679916381835938 106.64386749267578,-6.142455577850342,11.680113792419434 106.64386749267578,-6.142455577850342,11.680072784423828 106.64386749267578,-6.142455577850342,11.68033504486084 106.64386749267578,-6.142455577850342,11.680243492126465 106.64386749267578,-6.142455577850342,11.67991828918457 106.64386749267578,-6.142455577850342,11.679957389831543 106.64386749267578,-6.142455577850342,11.67995834350586 106.64386749267578,-6.142455577850342,11.680008888244629 106.64386749267578,-6.142455577850342,11.680193901062012 106.64386749267578,-6.142455577850342,11.680107116699219 106.64386749267578,-6.142455577850342,11.680201530456543 106.64386749267578,-6.142455577850342,11.67996883392334 106.64386749267578,-6.142455577850342,11.68015193939209 106.64386749267578,-6.142455577850342,11.680266380310059 106.64386749267578,-6.142455577850342,11.680161476135254 106.64386749267578,-6.142455577850342,11.68014907836914 106.64386749267578,-6.142455577850342,11.680206298828125 106.64386749267578,-6.142455577850342,11.680292129516602 106.64386749267578,-6.142455577850342,11.680203437805176 106.64386749267578,-6.142455577850342,11.679985046386719 106.64386749267578,-6.142455577850342,11.680144309997559 106.64386749267578,-6.142455577850342,11.680208206176758 106.64386749267578,-6.142455577850342,11.680087089538574 106.64386749267578,-6.142455577850342,11.680121421813965 106.64386749267578,-6.142455577850342,11.67985725402832 106.64386749267578,-6.142455577850342,11.680253028869629 106.64386749267578,-6.142455577850342,11.67981243133545 106.64386749267578,-6.142455577850342,11.679961204528809 106.64386749267578,-6.142455577850342,11.68039321899414 106.64386749267578,-6.142455577850342,11.68011474609375 106.64386749267578,-6.142455577850342,11.67977523803711 106.64386749267578,-6.142455577850342,11.680017471313477 106.64386749267578,-6.142455577850342,11.68027400970459 106.64386749267578,-6.142455577850342,11.680158615112305</coordinates>
            </LineString>
        </Placemark>
    </Document>
</kml>
