<?xml version="1.0" encoding="UTF-8"?>
<kml xmlns="http://www.opengis.net/kml/2.2" xmlns:gx="http://www.google.com/kml/ext/2.2">
    <Document id="1">
        <Style id="4">
            <LineStyle id="5">
                <color>ffffff00</color>
                <colorMode>normal</colorMode>
                <width>4</width>
            </LineStyle>
        </Style>
        <name>Log 20251125_150707</name>
        <Placemark id="3">
            <name>Flight Path</name>
            <styleUrl>#4</styleUrl>
            <LineString id="2">
                <extrude>1</extrude>
                <altitudeMode>absolute</altitudeMode>
                <coordinates>106.82929229736328,-6.279032230377197,26.785003662109375 106.82929229736328,-6.279032230377197,26.785037994384766 106.82929229736328,-6.279032230377197,26.784944534301758 106.82929229736328,-6.279032230377197,26.787382125854492 106.82929229736328,-6.279031276702881,26.796669006347656 106.82929229736328,-6.279027462005615,26.817758560180664 106.82929229736328,-6.279013633728027,26.917255401611328 106.82929992675781,-6.278991222381592,27.07050323486328 106.82930755615234,-6.278963088989258,27.2530460357666 106.82931518554688,-6.278927803039551,27.490699768066406 106.82933044433594,-6.2788848876953125,27.80094337463379 106.82935333251953,-6.27883768081665,28.136625289916992 106.82938385009766,-6.27878475189209,28.519649505615234 106.82941436767578,-6.278727054595947,28.958629608154297 106.8294448852539,-6.278663635253906,29.418560028076172 106.82948303222656,-6.278591632843018,29.96503448486328 106.82952117919922,-6.278513431549072,30.517929077148438 106.82955932617188,-6.278430938720703,31.115381240844727 106.82959747314453,-6.278345108032227,31.373640060424805 106.82963562011719,-6.278246879577637,30.733070373535156 106.82969665527344,-6.27809476852417,29.91459083557129 106.82974243164062,-6.277976989746094,29.945226669311523 106.82979583740234,-6.277830123901367,30.201913833618164 106.8298568725586,-6.277637004852295,30.538185119628906 106.82989501953125,-6.277497291564941,30.740676879882812 106.82994079589844,-6.277347564697266,30.927330017089844 106.82997131347656,-6.277198791503906,31.099708557128906 106.83000946044922,-6.277042388916016,31.24047088623047 106.83004760742188,-6.276880741119385,31.383798599243164 106.830078125,-6.276716232299805,31.52916717529297 106.83011627197266,-6.276499271392822,31.641048431396484 106.83014678955078,-6.276318550109863,31.7348575592041 106.83016967773438,-6.276130676269531,31.862714767456055 106.8302001953125,-6.2758941650390625,32.61433029174805 106.83021545410156,-6.275698661804199,33.249568939208984 106.83023834228516,-6.275486946105957,33.69144821166992 106.83024597167969,-6.275277137756348,33.9373779296875 106.83026123046875,-6.275057792663574,34.430362701416016 106.83026885986328,-6.274841785430908,35.41952896118164 106.83028411865234,-6.274614334106445,36.6122932434082 106.8302993774414,-6.274383544921875,37.76606750488281 106.83032989501953,-6.2741546630859375,38.60740280151367 106.83035278320312,-6.273924350738525,39.0756950378418 106.83038330078125,-6.2736921310424805,39.57297134399414 106.83040618896484,-6.273448467254639,40.418636322021484 106.8304443359375,-6.273151874542236,41.765567779541016 106.83048248291016,-6.272899627685547,43.12275695800781 106.83052062988281,-6.272652626037598,44.72528076171875 106.83055114746094,-6.272404193878174,46.616641998291016 106.83060455322266,-6.272092819213867,49.44725036621094 106.83065032958984,-6.271780014038086,52.71159362792969 106.83069610595703,-6.271538734436035,55.67073440551758 106.83074951171875,-6.271224021911621,59.73474884033203 106.83080291748047,-6.2709736824035645,63.130428314208984 106.83086395263672,-6.270668029785156,67.46609497070312 106.83092498779297,-6.270364284515381,71.9638900756836 106.83099365234375,-6.270064830780029,76.44754791259766 106.83104705810547,-6.269824028015137,80.02721405029297 106.83111572265625,-6.269528865814209,84.3720474243164 106.83118438720703,-6.2692389488220215,88.53535461425781 106.83124542236328,-6.2689995765686035,91.92761993408203 106.83131408691406,-6.268710136413574,95.97511291503906 106.83137512207031,-6.268465518951416,99.26399993896484 106.83145141601562,-6.268176555633545,103.019287109375 106.8315200805664,-6.267938613891602,105.91095733642578 106.83159637451172,-6.267683982849121,108.84477233886719 106.8316879272461,-6.267392635345459,112.07860565185547 106.8317642211914,-6.267148494720459,114.71268463134766 106.83184814453125,-6.266903400421143,117.27330017089844 106.83195495605469,-6.266598701477051,120.27336120605469 106.83204650878906,-6.266353130340576,122.59748840332031 106.83213806152344,-6.266111850738525,124.8117446899414 106.8322525024414,-6.265801906585693,127.54253387451172 106.8323745727539,-6.265497207641602,130.20372009277344 106.83250427246094,-6.265171051025391,132.97979736328125 106.83262634277344,-6.264869213104248,135.5801544189453 106.83274841308594,-6.2645769119262695,138.21286010742188 106.83284759521484,-6.264332294464111,140.543212890625 106.83295440673828,-6.26408052444458,142.97451782226562 106.83306884765625,-6.263826370239258,145.42422485351562 106.83318328857422,-6.263571262359619,147.9073486328125 106.83332824707031,-6.2632622718811035,150.95387268066406 106.83344268798828,-6.263012409210205,153.40530395507812 106.83356475830078,-6.262757301330566,155.94264221191406 106.83368682861328,-6.262500286102295,158.53744506835938 106.83382415771484,-6.26223087310791,161.34019470214844 106.833984375,-6.261919021606445,164.76168823242188 106.83414459228516,-6.2616167068481445,168.2495880126953 106.83431243896484,-6.261322975158691,171.9958038330078 106.83448028564453,-6.261036396026611,176.3523712158203 106.83465576171875,-6.260758876800537,181.16165161132812 106.8348159790039,-6.260526657104492,185.47315979003906 106.8349838256836,-6.260293483734131,189.7160186767578 106.83515167236328,-6.260068416595459,193.57350158691406 106.83537292480469,-6.25978422164917,197.9400177001953 106.83557891845703,-6.259521961212158,201.65589904785156 106.83575439453125,-6.259313583374023,204.4102325439453 106.8359375,-6.259098529815674,207.05255126953125 106.83617401123047,-6.258830547332764,210.11825561523438 106.8364028930664,-6.25857400894165,212.94650268554688 106.83663940429688,-6.2583231925964355,215.68235778808594 106.83684539794922,-6.258114337921143,217.90431213378906 106.83704376220703,-6.257911205291748,220.12232971191406 106.8372573852539,-6.2576985359191895,222.2614288330078 106.83747100830078,-6.257490634918213,224.24136352539062 106.83767700195312,-6.257284641265869,226.0998077392578 106.837890625,-6.257076740264893,227.8463134765625 106.83810424804688,-6.256862640380859,229.58396911621094 106.83830261230469,-6.256651401519775,231.34620666503906 106.83856201171875,-6.256381511688232,233.66632080078125 106.83880615234375,-6.25610876083374,236.09640502929688 106.83904266357422,-6.255825519561768,238.66390991210938 106.8392333984375,-6.255582332611084,240.88548278808594 106.83942413330078,-6.255320072174072,243.26687622070312 106.839599609375,-6.255069255828857,245.64541625976562 106.83976745605469,-6.254815101623535,248.22499084472656 106.83997344970703,-6.2545166015625,251.50338745117188 106.84014129638672,-6.254264831542969,254.29998779296875 106.8403091430664,-6.254011631011963,257.1546630859375 106.84051513671875,-6.2537007331848145,260.7239990234375 106.8407211303711,-6.253398895263672,264.0592956542969 106.84089660644531,-6.253145694732666,265.7957458496094 106.84107971191406,-6.252884864807129,267.09136962890625 106.84126281738281,-6.252627849578857,268.6728515625 106.84149169921875,-6.252316474914551,273.0469970703125 106.8416976928711,-6.252091407775879,277.8711242675781 106.84192657470703,-6.251903057098389,282.0184020996094 106.8421859741211,-6.25175142288208,283.7116394042969 106.84251403808594,-6.251614093780518,282.07696533203125 106.84281158447266,-6.25152587890625,278.7594909667969 106.84312438964844,-6.251457691192627,274.56976318359375 106.843505859375,-6.251403331756592,269.7322082519531 106.84384155273438,-6.251372814178467,266.6340026855469 106.84416961669922,-6.251351833343506,264.82745361328125 106.84452056884766,-6.251335620880127,264.35919189453125 106.84485626220703,-6.251323223114014,265.18548583984375 106.84519958496094,-6.251312255859375,266.6650695800781 106.84553527832031,-6.251302242279053,268.1618957519531 106.84588623046875,-6.251293659210205,270.01837158203125 106.84622192382812,-6.251286029815674,272.2345886230469 106.84657287597656,-6.251279830932617,274.7945861816406 106.84691619873047,-6.251275062561035,277.32525634765625 106.84735107421875,-6.251270771026611,280.6327819824219 106.84769439697266,-6.2512688636779785,283.33758544921875 106.84803771972656,-6.25126838684082,286.4185485839844 106.84847259521484,-6.251269817352295,291.3063049316406 106.84880828857422,-6.251276016235352,294.7176513671875 106.84921264648438,-6.2512993812561035,296.675048828125 106.84954833984375,-6.251331329345703,296.795654296875 106.84989166259766,-6.251375675201416,296.2942199707031 106.85030364990234,-6.251447677612305,296.0017395019531 106.85064697265625,-6.251517295837402,296.01434326171875 106.85105895996094,-6.25161075592041,295.9974670410156 106.85138702392578,-6.251694202423096,296.11798095703125 106.85173034667969,-6.251787185668945,296.4068908691406 106.85208892822266,-6.251892566680908,296.193603515625 106.85243225097656,-6.251999855041504,295.72857666015625 106.85283660888672,-6.252133369445801,295.6356201171875 106.85316467285156,-6.2522478103637695,296.1849365234375 106.85350036621094,-6.252368927001953,297.5218200683594 106.8539047241211,-6.252527236938477,300.20233154296875 106.8542251586914,-6.252667427062988,302.8798522949219 106.85453796386719,-6.252818584442139,305.15924072265625 106.8548583984375,-6.252988815307617,306.38555908203125 106.85517120361328,-6.253169059753418,305.2799377441406 106.85550689697266,-6.253379821777344,300.9813232421875 106.85586547851562,-6.253627777099609,293.292236328125 106.85616302490234,-6.253845691680908,285.49114990234375 106.85652923583984,-6.25412654876709,275.704345703125 106.85684967041016,-6.25437068939209,268.34747314453125 106.8571548461914,-6.254619598388672,262.49884033203125 106.85751342773438,-6.254931926727295,256.2679443359375 106.85787963867188,-6.255258083343506,250.75291442871094 106.85822296142578,-6.25559139251709,245.52853393554688 106.85858154296875,-6.255949974060059,240.77423095703125 106.85885620117188,-6.256242275238037,237.49093627929688 106.85920715332031,-6.256618022918701,233.52879333496094 106.8594741821289,-6.256923198699951,230.30072021484375 106.85975646972656,-6.257240295410156,227.10293579101562 106.86009216308594,-6.257636070251465,223.63265991210938 106.86042022705078,-6.258023738861084,220.30311584472656 106.8606948852539,-6.2583465576171875,217.75592041015625 106.86096954345703,-6.258672714233398,215.21653747558594 106.86124420166016,-6.258996486663818,212.31687927246094 106.86153411865234,-6.25933313369751,207.97181701660156 106.86181640625,-6.25966215133667,201.76683044433594 106.86210632324219,-6.25999116897583,195.2026824951172 106.86248779296875,-6.260396480560303,188.27737426757812 106.86278533935547,-6.260708332061768,182.8515625 106.86316680908203,-6.261086463928223,177.04078674316406 106.86347961425781,-6.26138973236084,173.20606994628906 106.8638687133789,-6.2617669105529785,169.1505126953125 106.86419677734375,-6.262079238891602,166.33213806152344 106.86458587646484,-6.262453079223633,163.624755859375 106.86497497558594,-6.262825965881348,161.1652374267578 106.86531066894531,-6.263144016265869,159.03338623046875 106.86563110351562,-6.263454437255859,156.9774932861328 106.86601257324219,-6.263823509216309,154.58045959472656 106.8663330078125,-6.264135837554932,152.7037353515625 106.86664581298828,-6.264449596405029,150.9390106201172 106.8669662475586,-6.264764308929443,149.26602172851562 106.86734771728516,-6.265152931213379,147.3319854736328 106.86772155761719,-6.265532493591309,145.6149139404297 106.86802673339844,-6.265849590301514,144.44068908691406 106.86834716796875,-6.266176223754883,143.2635040283203 106.86865997314453,-6.266493320465088,141.6161346435547 106.86902618408203,-6.266872882843018,138.51736450195312 106.86941528320312,-6.267261505126953,134.8187713623047 106.86972045898438,-6.2675676345825195,131.45590209960938 106.87004089355469,-6.267885684967041,127.49177551269531 106.87035369873047,-6.2681989669799805,123.38560485839844 106.87068176269531,-6.268507957458496,120.42788696289062 106.87101745605469,-6.268805503845215,119.03642272949219 106.87144470214844,-6.269148349761963,118.92668151855469 106.87178039550781,-6.269410610198975,117.20811462402344 106.87213897705078,-6.269661903381348,115.66483306884766 106.87250518798828,-6.269888401031494,115.0604019165039 106.87288665771484,-6.270103931427002,114.83330535888672 106.87327575683594,-6.2703046798706055,113.76508331298828 106.87364959716797,-6.270498275756836,111.45028686523438 106.87411499023438,-6.2707200050354,107.98225402832031 106.87450408935547,-6.270890235900879,104.9988784790039 106.87489318847656,-6.271050930023193,101.72595977783203 106.87528228759766,-6.271199703216553,97.92264556884766 106.87568664550781,-6.2713470458984375,93.26139068603516 106.8760757446289,-6.271482467651367,87.76407623291016 106.87648010253906,-6.271618366241455,79.85652923583984 106.87688446044922,-6.27174186706543,72.14103698730469 106.8772964477539,-6.271836280822754,67.26180267333984 106.87772369384766,-6.271895885467529,65.25381469726562 106.8781509399414,-6.271911144256592,64.7381820678711 106.8785629272461,-6.271876811981201,64.41625213623047 106.87905883789062,-6.271789073944092,62.12867736816406 106.87945556640625,-6.271722793579102,55.3033447265625 106.87984466552734,-6.271627902984619,48.32176208496094 106.88032531738281,-6.271472454071045,42.202877044677734 106.88079833984375,-6.271315574645996,36.85498046875 106.8812484741211,-6.271162509918213,31.729961395263672 106.88162231445312,-6.271032810211182,29.682048797607422 106.88198852539062,-6.270896911621094,29.457651138305664 106.88240814208984,-6.270726203918457,29.978511810302734 106.88274383544922,-6.270579814910889,30.313331604003906 106.88314056396484,-6.270388126373291,29.973718643188477 106.88352966308594,-6.270200729370117,29.74857521057129 106.88385772705078,-6.2700347900390625,28.1884765625 106.88417053222656,-6.269878387451172,26.99237632751465 106.88448333740234,-6.269726753234863,26.682979583740234 106.8848648071289,-6.269547939300537,26.974258422851562 106.88520812988281,-6.269384384155273,26.899961471557617 106.88550567626953,-6.269240379333496,26.374679565429688 106.8858642578125,-6.269059181213379,26.462696075439453 106.88619995117188,-6.268886089324951,26.758028030395508 106.886474609375,-6.268749713897705,26.599809646606445 106.88676452636719,-6.268614768981934,25.790637969970703 106.8871078491211,-6.268453121185303,25.39554786682129 106.88743591308594,-6.268301486968994,25.681652069091797 106.8877182006836,-6.268173694610596,25.64767837524414 106.88798522949219,-6.2680463790893555,25.352630615234375 106.88831329345703,-6.267894744873047,25.44721031188965 106.88856506347656,-6.267772197723389,25.347776412963867 106.88882446289062,-6.267648220062256,25.391462326049805 106.88907623291016,-6.2675251960754395,25.413028717041016 106.88932037353516,-6.267404079437256,25.362306594848633 106.88956451416016,-6.267284393310547,25.363882064819336 106.88980865478516,-6.267163276672363,25.370939254760742 106.89004516601562,-6.267052173614502,25.398479461669922 106.89027404785156,-6.266942977905273,25.5341854095459 106.89051055908203,-6.2668328285217285,25.447561264038086 106.89073181152344,-6.266727924346924,25.383073806762695 106.89096069335938,-6.266623497009277,25.31217384338379 106.89122009277344,-6.266503810882568,25.234012603759766 106.89143371582031,-6.266406536102295,25.199121475219727 106.89169311523438,-6.266285419464111,25.353492736816406 106.89190673828125,-6.266188621520996,25.47805404663086 106.8921127319336,-6.266092300415039,25.61594581604004 106.89232635498047,-6.265994548797607,25.745454788208008 106.892578125,-6.265881061553955,25.892480850219727 106.89277648925781,-6.2657904624938965,26.00247573852539 106.89298248291016,-6.265700817108154,26.13382911682129 106.89321899414062,-6.265593528747559,26.263744354248047 106.8934555053711,-6.265487194061279,26.40218162536621 106.89368438720703,-6.265383720397949,26.579267501831055 106.89387512207031,-6.265300273895264,26.680051803588867 106.89409637451172,-6.265198230743408,26.829954147338867 106.894287109375,-6.265106678009033,26.987031936645508 106.89450073242188,-6.265000820159912,27.026689529418945 106.89468383789062,-6.264909267425537,27.151023864746094 106.8948974609375,-6.264805316925049,27.22234344482422 106.89505767822266,-6.264725208282471,27.173526763916016 106.89522552490234,-6.264646530151367,27.15827178955078 106.89543151855469,-6.264552116394043,27.111745834350586 106.89559936523438,-6.264480113983154,27.009735107421875 106.89576721191406,-6.264408111572266,26.972274780273438 106.89592742919922,-6.264338970184326,26.94023323059082 106.8960952758789,-6.264271259307861,27.005464553833008 106.8962631225586,-6.264204502105713,27.092538833618164 106.89644622802734,-6.264120578765869,27.20808219909668 106.89659118652344,-6.264043807983398,27.33641815185547 106.89673614501953,-6.263962268829346,27.386537551879883 106.89688873291016,-6.263886451721191,27.45338249206543 106.89703369140625,-6.263822555541992,27.5577449798584 106.89718627929688,-6.263767719268799,27.593486785888672 106.89733123779297,-6.263711929321289,27.556467056274414 106.89750671386719,-6.263628959655762,27.50783348083496 106.89763641357422,-6.263555526733398,27.448955535888672 106.89778137207031,-6.26348352432251,27.406801223754883 106.89794921875,-6.263418674468994,27.389907836914062 106.89808654785156,-6.26338529586792,27.358741760253906 106.8982162475586,-6.263361930847168,27.320558547973633 106.89835357666016,-6.2633256912231445,27.37202262878418 106.89849090576172,-6.263253688812256,27.396297454833984 106.89860534667969,-6.263187885284424,27.325794219970703 106.89873504638672,-6.263114929199219,27.325458526611328 106.89884948730469,-6.263068675994873,27.315673828125 106.89899444580078,-6.2630205154418945,27.319862365722656 106.89912414550781,-6.262969493865967,27.32701873779297 106.89925384521484,-6.262909412384033,27.32905387878418 106.89935302734375,-6.262851715087891,27.31220245361328 106.89946746826172,-6.2627949714660645,27.317235946655273 106.89956665039062,-6.26276969909668,27.311857223510742 106.89966583251953,-6.262759685516357,27.313617706298828 106.89977264404297,-6.262749671936035,27.31156349182129 106.89986419677734,-6.262723922729492,27.314844131469727 106.89994049072266,-6.26267671585083,27.378768920898438 106.9000015258789,-6.262617588043213,27.3615665435791 106.90007019042969,-6.262561798095703,27.299741744995117 106.90013885498047,-6.262524127960205,27.31402587890625 106.90021514892578,-6.262495994567871,27.31011962890625 106.90028381347656,-6.2624688148498535,27.29930305480957 106.90034484863281,-6.2624335289001465,27.300323486328125 106.90042114257812,-6.262383460998535,27.290395736694336 106.90047454833984,-6.262345790863037,27.300922393798828 106.90054321289062,-6.262302875518799,27.30846405029297 106.90060424804688,-6.262268543243408,27.298837661743164 106.90066528320312,-6.262235641479492,27.245067596435547 106.90072631835938,-6.262203693389893,27.19495391845703 106.9007797241211,-6.262172698974609,27.133455276489258 106.90083312988281,-6.262142181396484,27.080307006835938 106.90089416503906,-6.262109756469727,27.031763076782227 106.90095520019531,-6.262077331542969,26.99595069885254 106.90101623535156,-6.26204252243042,26.933208465576172 106.90106964111328,-6.262014865875244,26.88679313659668 106.90110778808594,-6.2619948387146,26.838804244995117 106.90113067626953,-6.26198148727417,26.81853485107422 106.90113830566406,-6.261975288391113,26.81114387512207 106.90113830566406,-6.261975288391113,26.801074981689453 106.90113830566406,-6.261975288391113,26.803468704223633 106.90113830566406,-6.261975288391113,26.80375099182129 106.90113830566406,-6.261975288391113,26.803836822509766 106.90113830566406,-6.261975288391113,26.804155349731445 106.90113830566406,-6.261975288391113,26.80390167236328 106.90113830566406,-6.261975288391113,26.80388069152832 106.90113830566406,-6.261975288391113,26.803836822509766 106.90113830566406,-6.261975288391113,26.804086685180664 106.90113830566406,-6.261975288391113,26.804168701171875 106.90113830566406,-6.261975288391113,26.80375099182129 106.90113830566406,-6.261975288391113,26.803937911987305 106.90113830566406,-6.261975288391113,26.803865432739258 106.90113830566406,-6.261975288391113,26.804052352905273 106.90113830566406,-6.261975288391113,26.803850173950195 106.90113830566406,-6.261975288391113,26.804182052612305</coordinates>
            </LineString>
        </Placemark>
    </Document>
</kml>
