<?xml version="1.0" encoding="UTF-8"?>
<kml xmlns="http://www.opengis.net/kml/2.2" xmlns:gx="http://www.google.com/kml/ext/2.2">
    <Document id="1">
        <Style id="4">
            <LineStyle id="5">
                <color>ffffff00</color>
                <colorMode>normal</colorMode>
                <width>4</width>
            </LineStyle>
        </Style>
        <name>Log 20251125_141704</name>
        <Placemark id="3">
            <name>Flight Path</name>
            <styleUrl>#4</styleUrl>
            <LineString id="2">
                <extrude>1</extrude>
                <altitudeMode>absolute</altitudeMode>
                <coordinates>106.64386749267578,-6.142455577850342,11.674138069152832 106.64386749267578,-6.142455577850342,11.678790092468262 106.64386749267578,-6.142455577850342,11.677131652832031 106.64386749267578,-6.142455577850342,11.678030014038086 106.64386749267578,-6.142455577850342,11.67781925201416 106.64386749267578,-6.142455577850342,11.678279876708984 106.64386749267578,-6.142455577850342,11.679999351501465 106.64386749267578,-6.142455101013184,11.682998657226562 106.64386749267578,-6.142455101013184,11.68171215057373 106.64386749267578,-6.142455101013184,11.682133674621582 106.64386749267578,-6.142455101013184,11.682512283325195 106.64386749267578,-6.142455101013184,11.682561874389648 106.64386749267578,-6.142455101013184,11.68270492553711 106.64386749267578,-6.142455101013184,11.682679176330566 106.64386749267578,-6.142455577850342,11.680908203125 106.64386749267578,-6.142455577850342,11.677420616149902 106.64386749267578,-6.142455101013184,11.681977272033691 106.64386749267578,-6.142455101013184,11.683371543884277 106.64386749267578,-6.142455101013184,11.682031631469727 106.64386749267578,-6.142455101013184,11.682856559753418 106.64386749267578,-6.142455101013184,11.682424545288086 106.64386749267578,-6.142455101013184,11.68266773223877 106.64386749267578,-6.142455101013184,11.682494163513184 106.64386749267578,-6.142455101013184,11.682167053222656 106.64386749267578,-6.142455101013184,11.682652473449707 106.64386749267578,-6.142455101013184,11.682812690734863 106.64386749267578,-6.142455101013184,11.679049491882324 106.64388275146484,-6.142450332641602,11.676421165466309 106.64390563964844,-6.142438888549805,11.679468154907227 106.64393615722656,-6.142420768737793,11.678885459899902 106.64398956298828,-6.142398357391357,11.674246788024902 106.64404296875,-6.142368316650391,11.67841911315918 106.64411163330078,-6.142338275909424,11.68080997467041 106.64419555664062,-6.142309188842773,11.679645538330078 106.644287109375,-6.142279624938965,11.684494972229004 106.64439392089844,-6.142242908477783,11.683935165405273 106.6445083618164,-6.142197608947754,11.676255226135254 106.6446304321289,-6.142139911651611,11.679497718811035 106.6447525024414,-6.142082214355469,11.688847541809082 106.64488983154297,-6.142023086547852,11.68093490600586 106.6450424194336,-6.141963958740234,11.68896198272705 106.64520263671875,-6.141898155212402,11.687396049499512 106.64537048339844,-6.141828536987305,11.689518928527832 106.64554595947266,-6.141759395599365,11.694767951965332 106.6457290649414,-6.141689300537109,11.699004173278809 106.64592742919922,-6.141613006591797,11.700335502624512 106.64613342285156,-6.141533374786377,11.697282791137695 106.6463623046875,-6.141445636749268,11.697507858276367 106.64657592773438,-6.141360759735107,11.699076652526855 106.64679718017578,-6.141273021697998,11.706283569335938 106.64702606201172,-6.141178607940674,11.707391738891602 106.64727020263672,-6.141080856323242,11.702713012695312 106.64750671386719,-6.140982151031494,11.708401679992676 106.64775848388672,-6.140877723693848,11.711150169372559 106.64803314208984,-6.140764236450195,11.707759857177734 106.6482925415039,-6.1406569480896,11.716700553894043 106.64856719970703,-6.1405439376831055,11.732879638671875 106.6488265991211,-6.140435695648193,11.933460235595703 106.64909362792969,-6.140327453613281,12.516554832458496 106.64936065673828,-6.140218734741211,13.541807174682617 106.64964294433594,-6.140108108520508,15.013870239257812 106.64993286132812,-6.139995098114014,16.860572814941406 106.65020751953125,-6.139888763427734,18.939720153808594 106.65050506591797,-6.139778137207031,21.133018493652344 106.65078735351562,-6.13967227935791,23.2739315032959 106.65109252929688,-6.139559745788574,25.548187255859375 106.6513900756836,-6.1394500732421875,27.694156646728516 106.65169525146484,-6.13933801651001,29.848085403442383 106.6520004272461,-6.13922643661499,32.03160858154297 106.65230560302734,-6.139111042022705,34.36075210571289 106.65260314941406,-6.138996124267578,36.754913330078125</coordinates>
            </LineString>
        </Placemark>
    </Document>
</kml>
