<?xml version="1.0" encoding="UTF-8"?>
<kml xmlns="http://www.opengis.net/kml/2.2" xmlns:gx="http://www.google.com/kml/ext/2.2">
    <Document id="1">
        <Style id="4">
            <LineStyle id="5">
                <color>ffffff00</color>
                <colorMode>normal</colorMode>
                <width>4</width>
            </LineStyle>
        </Style>
        <name>Log 20251125_145904</name>
        <Placemark id="3">
            <name>Flight Path</name>
            <styleUrl>#4</styleUrl>
            <LineString id="2">
                <extrude>1</extrude>
                <altitudeMode>absolute</altitudeMode>
                <coordinates>106.64386749267578,-6.142455577850342,11.673352241516113 106.64386749267578,-6.142455577850342,11.673351287841797 106.64386749267578,-6.142455577850342,11.67336368560791 106.64386749267578,-6.142455577850342,11.673357963562012 106.64386749267578,-6.142455577850342,11.673385620117188 106.64386749267578,-6.142455577850342,11.673327445983887 106.64386749267578,-6.142455577850342,11.673337936401367 106.64386749267578,-6.142455577850342,11.673388481140137 106.64386749267578,-6.142455577850342,11.673337936401367 106.64386749267578,-6.142455577850342,11.67335319519043 106.64386749267578,-6.142455577850342,11.673343658447266 106.64386749267578,-6.142455577850342,11.673297882080078 106.64386749267578,-6.142455577850342,11.67335033416748 106.64386749267578,-6.142455577850342,11.673349380493164 106.64386749267578,-6.142455577850342,11.673368453979492 106.64386749267578,-6.142455577850342,11.673354148864746 106.64386749267578,-6.142455577850342,11.673314094543457 106.64386749267578,-6.142455577850342,11.673373222351074 106.64386749267578,-6.142455577850342,11.673337936401367 106.64386749267578,-6.142455577850342,11.673343658447266 106.64386749267578,-6.142455577850342,11.673355102539062 106.64386749267578,-6.142455577850342,11.67334270477295 106.64386749267578,-6.142455577850342,11.673362731933594 106.64386749267578,-6.142455577850342,11.673368453979492 106.64386749267578,-6.142455577850342,11.673358917236328 106.64386749267578,-6.142455577850342,11.673359870910645 106.64386749267578,-6.142455577850342,11.673365592956543 106.64386749267578,-6.142455577850342,11.673327445983887 106.64386749267578,-6.142455577850342,11.673355102539062 106.64386749267578,-6.142455577850342,11.673373222351074 106.64386749267578,-6.142455577850342,11.673385620117188 106.64386749267578,-6.142455577850342,11.673298835754395 106.64386749267578,-6.142455577850342,11.673309326171875 106.64386749267578,-6.142455577850342,11.673323631286621 106.64386749267578,-6.142455577850342,11.676185607910156 106.64386749267578,-6.142455101013184,11.681792259216309 106.64386749267578,-6.142455101013184,11.68065357208252 106.64387512207031,-6.142451286315918,11.67524528503418 106.6438980102539,-6.14244270324707,11.680728912353516 106.64392852783203,-6.142430305480957,11.680158615112305 106.64396667480469,-6.1424150466918945,11.675127983093262 106.64402770996094,-6.142391204833984,11.67469310760498 106.64408874511719,-6.142367362976074,11.679876327514648 106.6441650390625,-6.14233922958374,11.67982292175293 106.64424896240234,-6.142308712005615,11.681175231933594 106.64434051513672,-6.142275333404541,11.681394577026367 106.64447021484375,-6.142225742340088,11.680830001831055 106.64460754394531,-6.142168045043945,11.675281524658203 106.64476013183594,-6.142102241516113,11.6885404586792 106.64488983154297,-6.142047882080078,11.682361602783203 106.64503479003906,-6.141993045806885,11.687644958496094 106.64522552490234,-6.141920566558838,11.687374114990234 106.6453857421875,-6.141857624053955,11.69011116027832 106.64559173583984,-6.141775131225586,11.697378158569336 106.64576721191406,-6.141704559326172,11.699372291564941 106.64595031738281,-6.141629695892334,11.700403213500977 106.64620208740234,-6.141523838043213,11.697052001953125 106.64644622802734,-6.141424179077148,11.704273223876953 106.64669036865234,-6.141322612762451,11.703085899353027 106.6469497680664,-6.14121675491333,11.709260940551758 106.64722442626953,-6.1411027908325195,11.700697898864746 106.64749145507812,-6.140992164611816,11.710935592651367 106.6477279663086,-6.140897274017334,11.718582153320312 106.64802551269531,-6.140775203704834,11.729211807250977 106.64832305908203,-6.140654563903809,11.953624725341797 106.64862823486328,-6.140529155731201,12.760099411010742 106.64893341064453,-6.140403747558594,14.241375923156738 106.64926147460938,-6.140268325805664,16.63206672668457 106.64958190917969,-6.140138149261475,19.656566619873047 106.64990234375,-6.140010356903076,23.312314987182617 106.65022277832031,-6.139883518218994,27.56334114074707 106.65054321289062,-6.139761924743652,32.0477180480957 106.65086364746094,-6.1396379470825195,36.12506866455078 106.65113067626953,-6.1395392417907715,39.07998275756836 106.6514663696289,-6.139411449432373,42.51393508911133 106.65178680419922,-6.139291763305664,45.375694274902344 106.65213012695312,-6.139163494110107,48.12828826904297 106.6524658203125,-6.139034748077393,50.734920501708984 106.65282440185547,-6.1388983726501465,53.66219711303711 106.6531753540039,-6.138765335083008,56.78456115722656 106.65345001220703,-6.138662338256836,59.15871047973633 106.65380096435547,-6.138530731201172,62.22377014160156 106.65416717529297,-6.138396263122559,65.45509338378906 106.6544418334961,-6.138295650482178,67.99823760986328 106.6548080444336,-6.138167381286621,71.4550552368164 106.65516662597656,-6.138047218322754,75.1082534790039 106.655517578125,-6.1379289627075195,78.87034606933594 106.65587615966797,-6.137824058532715,82.84778594970703 106.65615844726562,-6.1377458572387695,86.29468536376953 106.65653228759766,-6.137655735015869,91.0058822631836 106.65689849853516,-6.137584209442139,95.68795013427734 106.6572036743164,-6.137537002563477,99.56065368652344 106.6574935913086,-6.1375017166137695,103.3340835571289 106.6578598022461,-6.13747501373291,107.79106903076172 106.65823364257812,-6.137465953826904,111.08903503417969 106.65853118896484,-6.137467861175537,112.46502685546875 106.65890502929688,-6.137479305267334,113.32098388671875 106.65928649902344,-6.137498378753662,113.78759002685547 106.65968322753906,-6.137520790100098,114.60614013671875 106.66006469726562,-6.137544631958008,116.0255355834961 106.66046142578125,-6.137571334838867,118.08563232421875 106.6607666015625,-6.13759183883667,120.08918762207031 106.6611557006836,-6.137617588043213,123.19287872314453 106.66146850585938,-6.137635707855225,126.03102111816406 106.66187286376953,-6.137656211853027,130.14761352539062 106.6622543334961,-6.137674331665039,134.48324584960938 106.66266632080078,-6.137694835662842,139.26951599121094 106.66305541992188,-6.137714385986328,143.5543212890625 106.66345977783203,-6.137735366821289,147.84646606445312 106.66386413574219,-6.137756824493408,151.96261596679688 106.66416931152344,-6.137774467468262,154.9110565185547 106.66454315185547,-6.13779878616333,158.4115447998047 106.6649398803711,-6.137828350067139,161.71383666992188 106.66533660888672,-6.137862682342529,164.66995239257812 106.66571807861328,-6.137898921966553,167.1584014892578 106.66603088378906,-6.137929916381836,168.9019012451172 106.66634368896484,-6.1379618644714355,170.44981384277344 106.66665649414062,-6.13799524307251,171.8928680419922 106.6670913696289,-6.13804292678833,173.78323364257812 106.66751861572266,-6.138092517852783,175.70083618164062 106.66791534423828,-6.138139247894287,177.55264282226562 106.66822814941406,-6.138176918029785,179.05027770996094 106.66864013671875,-6.13822603225708,180.94439697265625 106.6689682006836,-6.138265609741211,182.4210205078125 106.66929626464844,-6.138304233551025,183.8291778564453 106.66970825195312,-6.13835334777832,185.49806213378906 106.67012023925781,-6.138400554656982,187.09893798828125 106.67044830322266,-6.138436794281006,188.43309020996094 106.67086791992188,-6.138481140136719,190.26173400878906 106.67120361328125,-6.138514518737793,191.8372802734375 106.67162322998047,-6.138553142547607,193.95077514648438 106.67203521728516,-6.138587474822998,196.24220275878906 106.6724624633789,-6.138619899749756,198.8755340576172 106.6728744506836,-6.13864803314209,201.66172790527344 106.67320251464844,-6.138668537139893,204.0716094970703 106.67362213134766,-6.1386919021606445,207.0723419189453 106.67395782470703,-6.138709545135498,209.25515747070312 106.67440032958984,-6.138731002807617,211.93673706054688 106.67481231689453,-6.1387505531311035,214.3487548828125 106.67523193359375,-6.13877010345459,216.55169677734375 106.67556762695312,-6.138785362243652,218.1551971435547 106.67599487304688,-6.138805389404297,220.08192443847656 106.67633056640625,-6.138821125030518,221.56243896484375 106.67668151855469,-6.138837814331055,223.04234313964844 106.67711639404297,-6.138858795166016,224.82347106933594 106.67755126953125,-6.138880252838135,226.59400939941406 106.67801666259766,-6.138903617858887,228.4792938232422 106.67843627929688,-6.138926029205322,230.19329833984375 106.67887115478516,-6.138949871063232,232.03199768066406 106.67930603027344,-6.138974189758301,233.98211669921875 106.67974090576172,-6.138999938964844,236.15505981445312 106.68018341064453,-6.139026165008545,238.37237548828125 106.68063354492188,-6.139052391052246,240.48719787597656 106.68110656738281,-6.139079570770264,242.69691467285156 106.68146514892578,-6.139099597930908,244.30618286132812 106.68195343017578,-6.139125823974609,246.43209838867188 106.68238830566406,-6.139147758483887,248.2106170654297 106.68285369873047,-6.139170169830322,250.0112762451172 106.68331146240234,-6.139190673828125,251.63314819335938 106.68376159667969,-6.139209270477295,253.20069885253906 106.68411254882812,-6.139223098754883,254.4136962890625 106.68457794189453,-6.13923978805542,256.0158386230469 106.68502807617188,-6.139254093170166,257.6352233886719 106.68549346923828,-6.139267921447754,259.4742126464844 106.68594360351562,-6.139280319213867,260.8955993652344 106.68639373779297,-6.139292240142822,261.9326477050781 106.68684387207031,-6.1393046379089355,262.7908630371094 106.68730163574219,-6.139317512512207,263.5408020019531 106.68777465820312,-6.139331340789795,264.2378845214844 106.688232421875,-6.139345645904541,264.879150390625 106.68869018554688,-6.139359951019287,265.5235290527344 106.68905639648438,-6.1393723487854,266.1031799316406 106.68944549560547,-6.139385223388672,266.8014221191406 106.69001770019531,-6.139405727386475,267.9528503417969 106.69048309326172,-6.13942289352417,269.0340576171875 106.69096374511719,-6.139440536499023,270.175537109375 106.69145202636719,-6.139459609985352,271.4414367675781 106.6919174194336,-6.13947868347168,272.75537109375 106.69237518310547,-6.13949728012085,274.1346435546875 106.69286346435547,-6.1395182609558105,275.57220458984375 106.69338989257812,-6.139541149139404,276.9255676269531 106.69386291503906,-6.139562129974365,277.99786376953125 106.6942367553711,-6.139578819274902,278.7674255371094 106.69461059570312,-6.1395955085754395,279.4707336425781 106.69510650634766,-6.139617919921875,280.3484191894531 106.6955795288086,-6.139638900756836,280.9679870605469 106.69596099853516,-6.139655590057373,281.3760070800781 106.69635009765625,-6.13967227935791,281.83538818359375 106.69673919677734,-6.139688491821289,282.3629150390625 106.69723510742188,-6.139708042144775,283.08819580078125 106.69776916503906,-6.139728546142578,284.05975341796875 106.69815063476562,-6.139742374420166,284.86480712890625 106.69853973388672,-6.139755725860596,285.7187805175781 106.69892120361328,-6.139768123626709,286.6051940917969 106.69931030273438,-6.139780044555664,287.548828125 106.69969940185547,-6.139791488647461,288.5435791015625 106.7002182006836,-6.139806270599365,289.927734375 106.70072174072266,-6.139819145202637,291.37408447265625 106.70125579833984,-6.139832019805908,292.9791564941406 106.70164489746094,-6.139840602874756,294.0997314453125 106.70217895507812,-6.139852046966553,295.28369140625 106.70269775390625,-6.139862537384033,296.0596923828125 106.7032241821289,-6.139872074127197,296.5362854003906 106.7037124633789,-6.139880657196045,296.6763916015625 106.7042007446289,-6.139888286590576,296.4320373535156 106.7046890258789,-6.139895439147949,295.8756408691406 106.70518493652344,-6.139902114868164,295.1199645996094 106.7055892944336,-6.139907360076904,294.4134216308594 106.70610809326172,-6.139914035797119,293.5214538574219 106.70662689208984,-6.139919281005859,292.86016845703125 106.70711517333984,-6.1399245262146,292.4569091796875 106.70762634277344,-6.139928817749023,292.28582763671875 106.7081298828125,-6.139933109283447,292.3098449707031 106.70863342285156,-6.139936923980713,292.4900207519531 106.70913696289062,-6.13994026184082,292.7967224121094 106.70963287353516,-6.1399431228637695,293.1669616699219 106.71015167236328,-6.139945983886719,293.54388427734375 106.71066284179688,-6.13994836807251,293.8014221191406 106.71118927001953,-6.139950275421143,293.9456787109375 106.71174621582031,-6.139951705932617,293.94927978515625 106.71231079101562,-6.139953136444092,293.8236389160156 106.71281433105469,-6.139953136444092,293.6802062988281 106.71332550048828,-6.139953136444092,293.4970703125 106.71385955810547,-6.139952182769775,293.2533874511719 106.71426391601562,-6.139950752258301,293.04486083984375 106.71477508544922,-6.13994836807251,292.763427734375 106.71528625488281,-6.139944553375244,292.4249572753906 106.7156982421875,-6.139941215515137,292.1271667480469 106.71609497070312,-6.139936923980713,291.8184814453125 106.71666717529297,-6.13992977142334,291.3498840332031 106.71717834472656,-6.139922142028809,290.9417419433594 106.71768951416016,-6.1399126052856445,290.58966064453125 106.71820831298828,-6.139901638031006,290.2023010253906 106.71863555908203,-6.139890670776367,289.8338928222656 106.71918487548828,-6.139875411987305,289.32208251953125 106.71971893310547,-6.139857769012451,288.83685302734375 106.72012329101562,-6.139842987060547,288.43841552734375 106.72065734863281,-6.139821529388428,287.8675231933594 106.7211685180664,-6.139798164367676,287.3128356933594 106.72168731689453,-6.139772891998291,286.7767639160156 106.72222900390625,-6.139742851257324,286.4030456542969 106.72276306152344,-6.139710426330566,286.402099609375 106.7232666015625,-6.139679908752441,286.51043701171875 106.72378540039062,-6.139650344848633,286.8470764160156 106.72431182861328,-6.139623641967773,287.5255126953125 106.72486877441406,-6.139599323272705,288.6358947753906 106.72538757324219,-6.139583110809326,289.7996826171875 106.72578430175781,-6.1395745277404785,290.48406982421875 106.72631072998047,-6.1395697593688965,291.1969299316406 106.7268295288086,-6.139573574066162,291.69012451171875 106.72735595703125,-6.139586448669434,291.8310852050781 106.72787475585938,-6.139608860015869,291.548828125 106.72838592529297,-6.139639854431152,290.06561279296875 106.72879028320312,-6.139669895172119,287.4099426269531 106.7293472290039,-6.139717102050781,282.81207275390625 106.72981262207031,-6.13976526260376,279.03515625 106.7303695678711,-6.139822483062744,275.43621826171875 106.73089599609375,-6.139880657196045,272.77496337890625 106.73143768310547,-6.139944553375244,270.187255859375 106.73197937011719,-6.140010356903076,267.6104736328125 106.73250579833984,-6.140078544616699,264.9126892089844 106.73303985595703,-6.140149116516113,262.092529296875 106.73347473144531,-6.140207767486572,259.8511657714844 106.73402404785156,-6.140284061431885,257.047119140625 106.73455047607422,-6.140358924865723,254.3674774169922 106.73509216308594,-6.140437602996826,251.8686065673828 106.73551940917969,-6.140500068664551,250.1856231689453 106.7361068725586,-6.140588283538818,248.33705139160156 106.73665618896484,-6.1406731605529785,247.11581420898438 106.73719024658203,-6.140755653381348,246.3286590576172 106.7377700805664,-6.140847682952881,245.87843322753906 106.7383041381836,-6.140932083129883,245.80459594726562 106.73883056640625,-6.141017913818359,245.72930908203125 106.73936462402344,-6.141106605529785,245.46144104003906 106.73991394042969,-6.14119815826416,245.04739379882812 106.7403335571289,-6.141269207000732,244.67333984375 106.7407455444336,-6.141341209411621,244.2007598876953 106.7413101196289,-6.1414384841918945,243.4320526123047 106.74174499511719,-6.14151668548584,242.68612670898438 106.74230194091797,-6.1416168212890625,241.58993530273438 106.74286651611328,-6.141721248626709,240.33457946777344 106.7432861328125,-6.141800880432129,239.43069458007812 106.74373626708984,-6.141886234283447,238.6349334716797 106.74430084228516,-6.141995429992676,238.00450134277344 106.74488830566406,-6.142112731933594,237.54957580566406 106.74541473388672,-6.142221450805664,237.27816772460938 106.74593353271484,-6.142331600189209,237.1186981201172 106.7464599609375,-6.142446041107178,236.99330139160156 106.74698638916016,-6.142563343048096,236.9220428466797 106.74754333496094,-6.142690658569336,236.82168579101562 106.7480697631836,-6.142813682556152,236.45082092285156 106.74847412109375,-6.142910480499268,235.79010009765625 106.7490234375,-6.143042087554932,234.57554626464844 106.7495346069336,-6.143167018890381,233.08999633789062 106.75006103515625,-6.143295764923096,231.2741241455078 106.75057983398438,-6.143424034118652,229.3438720703125 106.75111389160156,-6.143552303314209,227.5142059326172 106.75151062011719,-6.143649578094482,226.44134521484375 106.75206756591797,-6.143783092498779,225.73594665527344 106.75260162353516,-6.143908977508545,225.71083068847656 106.75318908691406,-6.144046306610107,226.09771728515625 106.75375366210938,-6.144179821014404,226.04312133789062 106.7542724609375,-6.144299507141113,224.7593994140625 106.7547378540039,-6.144403457641602,222.7689666748047 106.75541687011719,-6.144564151763916,219.19998168945312 106.75597381591797,-6.144693374633789,215.47633361816406 106.75650787353516,-6.1448163986206055,211.51268005371094 106.75695037841797,-6.144918918609619,208.01927185058594 106.75751495361328,-6.145054340362549,203.5980224609375 106.758056640625,-6.145186424255371,200.15806579589844 106.75849151611328,-6.145296096801758,197.22357177734375 106.759033203125,-6.145437240600586,193.40335083007812 106.75949096679688,-6.145558834075928,190.092041015625 106.75993347167969,-6.1456780433654785,186.7953338623047 106.76036071777344,-6.145798206329346,183.59800720214844 106.76091766357422,-6.145956993103027,179.65187072753906 106.76146697998047,-6.146120071411133,175.6123809814453 106.76199340820312,-6.146279811859131,171.1799774169922 106.76254272460938,-6.1464457511901855,166.1139678955078 106.7629623413086,-6.146576881408691,163.69857788085938 106.76338958740234,-6.146707534790039,163.63059997558594 106.7638168334961,-6.1468377113342285,164.3928680419922 106.76436614990234,-6.147005558013916,168.3859100341797 106.7649154663086,-6.147176265716553,176.64752197265625 106.76543426513672,-6.147337436676025,178.80931091308594 106.76593780517578,-6.147494792938232,184.09423828125 106.76644134521484,-6.1476569175720215,192.60597229003906 106.76691436767578,-6.14780855178833,202.61790466308594 106.76738739013672,-6.14796257019043,213.74925231933594 106.76783752441406,-6.1481122970581055,225.52255249023438 106.76817321777344,-6.148225784301758,234.7055206298828 106.76853942871094,-6.148346424102783,239.5233154296875 106.76890563964844,-6.148468017578125,240.36398315429688 106.76936340332031,-6.148616313934326,242.56573486328125 106.76980590820312,-6.148752212524414,248.55873107910156 106.7702865600586,-6.14888334274292,259.8178405761719 106.77074432373047,-6.148998260498047,273.9718017578125 106.77113342285156,-6.14910364151001,287.9886779785156 106.77151489257812,-6.149209976196289,303.7798156738281 106.77188110351562,-6.149317741394043,318.7720031738281 106.77217102050781,-6.14940071105957,324.14080810546875 106.77247619628906,-6.149488925933838,324.8763732910156 106.77286529541016,-6.149601936340332,326.48455810546875 106.77323913574219,-6.149714469909668,328.85919189453125 106.77354431152344,-6.149806976318359,331.3743591308594 106.77394104003906,-6.1499199867248535,334.45599365234375 106.77424621582031,-6.1500020027160645,336.43438720703125 106.77464294433594,-6.150092601776123,339.3677062988281 106.77503204345703,-6.150173664093018,342.0596008300781 106.77542877197266,-6.150251388549805,343.51727294921875 106.77584838867188,-6.150332450866699,343.3999938964844 106.77625274658203,-6.150411128997803,342.3648376464844 106.77667999267578,-6.150505065917969,340.0041809082031 106.77709197998047,-6.150603771209717,335.72406005859375 106.77753448486328,-6.150710582733154,330.0938720703125 106.7779769897461,-6.150806903839111,326.9476318359375 106.77832794189453,-6.150869846343994,327.45050048828125 106.77877807617188,-6.1509318351745605,334.07708740234375 106.77918243408203,-6.150975704193115,344.86444091796875 106.77961730957031,-6.151018142700195,356.0989685058594 106.78005981445312,-6.151061534881592,361.1043395996094 106.78040313720703,-6.151094913482666,360.7265930175781 106.78075408935547,-6.151128768920898,358.2261047363281 106.78121948242188,-6.151174545288086,346.2627868652344 106.78158569335938,-6.151208877563477,336.89202880859375 106.78207397460938,-6.151251792907715,340.45025634765625 106.78246307373047,-6.151283264160156,356.6028137207031 106.78285217285156,-6.151312828063965,369.9015808105469 106.78317260742188,-6.151341438293457,373.3072509765625 106.78360748291016,-6.151384353637695,369.2809753417969 106.78402709960938,-6.151413440704346,366.876953125 106.78445434570312,-6.151431083679199,370.3143310546875 106.78487396240234,-6.151446342468262,378.9932861328125 106.7852783203125,-6.151461124420166,384.77777099609375 106.78560638427734,-6.151474475860596,387.4755859375 106.78601837158203,-6.151493072509766,390.8178405761719 106.78643035888672,-6.151515483856201,393.5235290527344 106.7868423461914,-6.151540756225586,391.1023254394531 106.78729248046875,-6.151567459106445,381.0647888183594 106.78763580322266,-6.151586055755615,373.5529479980469 106.78809356689453,-6.151596546173096,367.3450012207031 106.78845977783203,-6.1515960693359375,365.8119201660156 106.78890228271484,-6.15161657333374,367.3493957519531 106.78936767578125,-6.151674747467041,371.224609375 106.78981018066406,-6.15172815322876,375.5065612792969 106.7901611328125,-6.151754379272461,379.04437255859375 106.7906265258789,-6.151773452758789,381.865478515625 106.79106903076172,-6.151787281036377,379.5812072753906 106.79155731201172,-6.151803493499756,368.89544677734375 106.79202270507812,-6.151819705963135,351.74676513671875 106.79249572753906,-6.151831150054932,336.8421325683594 106.7929916381836,-6.151835918426514,328.53338623046875 106.79349517822266,-6.15183687210083,326.58624267578125 106.79399108886719,-6.151837348937988,329.0971984863281 106.79440307617188,-6.151839256286621,333.0491027832031 106.79492950439453,-6.151843547821045,336.9837951660156 106.79542541503906,-6.151846885681152,333.15521240234375 106.79595184326172,-6.151848793029785,330.9341735839844 106.7964859008789,-6.151849269866943,327.2324523925781 106.79689025878906,-6.151848316192627,324.4521484375 106.79742431640625,-6.1518449783325195,321.5160827636719 106.79792785644531,-6.151840686798096,318.46612548828125 106.79845428466797,-6.151834487915039,316.5995178222656 106.79899597167969,-6.151826858520508,314.4338684082031 106.79951477050781,-6.151816368103027,310.7781982421875 106.8000717163086,-6.151801109313965,307.8493957519531 106.80049896240234,-6.151786804199219,307.8793029785156 106.80091094970703,-6.151773452758789,309.177978515625 106.80145263671875,-6.151762008666992,312.9678955078125 106.80197143554688,-6.151751518249512,310.3524169921875 106.802490234375,-6.151741981506348,306.12493896484375 106.80291748046875,-6.151735782623291,305.12835693359375 106.80338287353516,-6.151729106903076,299.30572509765625 106.80390930175781,-6.151718616485596,297.2193908691406 106.80443572998047,-6.151706695556641,292.6366882324219 106.80496215820312,-6.151683330535889,292.24822998046875 106.80548095703125,-6.15165376663208,291.2223815917969 106.80589294433594,-6.151626110076904,290.72821044921875 106.80640411376953,-6.151583671569824,297.80914306640625 106.80691528320312,-6.151541709899902,298.86285400390625 106.80742645263672,-6.151500701904297,288.6119384765625 106.80784606933594,-6.151464939117432,282.2926940917969 106.80840301513672,-6.1514058113098145,283.4661865234375 106.80879211425781,-6.151359558105469,288.8567810058594 106.80931091308594,-6.1512980461120605,294.44195556640625 106.80982208251953,-6.151234149932861,288.8661193847656 106.81022644042969,-6.15118408203125,280.8208312988281 106.81076049804688,-6.151120185852051,277.0781555175781 106.8113021850586,-6.151057720184326,280.49114990234375 106.81183624267578,-6.150997638702393,278.4208679199219 106.8123550415039,-6.150936126708984,275.92205810546875 106.81285858154297,-6.1508588790893555,281.2759094238281 106.8133544921875,-6.150774955749512,289.5597839355469 106.81375122070312,-6.15070915222168,289.8996276855469 106.81425476074219,-6.1506218910217285,279.3444519042969 106.81476593017578,-6.150537014007568,268.222412109375 106.81517028808594,-6.150477409362793,267.22198486328125 106.8156967163086,-6.150410175323486,274.15972900390625 106.81620788574219,-6.150351047515869,279.95428466796875 106.81661224365234,-6.150299549102783,276.04608154296875 106.81712341308594,-6.15023946762085,269.2579345703125 106.817626953125,-6.150198936462402,272.486083984375 106.81803131103516,-6.150175094604492,277.8551940917969 106.81855773925781,-6.150146484375,274.5131530761719 106.819091796875,-6.150106906890869,268.2093200683594 106.81948852539062,-6.150027751922607,275.36383056640625 106.8198471069336,-6.149930000305176,287.37237548828125 106.8203125,-6.149796009063721,301.3044738769531 106.82077026367188,-6.149657726287842,304.1446838378906 106.82112884521484,-6.149542808532715,299.0566711425781 106.82149505615234,-6.149433135986328,293.3370056152344 106.82196807861328,-6.149313926696777,290.1286926269531 106.82244110107422,-6.149214744567871,290.8857421875 106.8228988647461,-6.149108409881592,294.96160888671875 106.8233413696289,-6.148988723754883,302.18719482421875 106.82379913330078,-6.148886680603027,311.6627502441406 106.82426452636719,-6.148816108703613,319.2334899902344 106.82472229003906,-6.148755073547363,321.4737854003906 106.82518005371094,-6.148691654205322,320.71356201171875 106.82553100585938,-6.1486334800720215,320.0090026855469 106.82600402832031,-6.148540496826172,319.4236145019531 106.82636260986328,-6.148460388183594,318.8757629394531 106.82672882080078,-6.148367881774902,318.0147705078125 106.8271713256836,-6.148242950439453,317.9038391113281 106.8275375366211,-6.148133754730225,317.85101318359375 106.82801055908203,-6.147990703582764,313.2931213378906 106.82845306396484,-6.147855281829834,301.0312194824219 106.82892608642578,-6.147721767425537,290.0469665527344 106.82940673828125,-6.147593975067139,282.5530090332031 106.82978820800781,-6.147497653961182,278.4566650390625 106.83031463623047,-6.147374629974365,275.04193115234375 106.83081817626953,-6.147261619567871,271.3475036621094 106.83133697509766,-6.147150993347168,268.9456481933594 106.83187866210938,-6.147041320800781,268.3552551269531 106.8323974609375,-6.146936416625977,268.3802795410156 106.83281707763672,-6.146849155426025,268.2846374511719 106.83322143554688,-6.146764278411865,268.126220703125 106.8336410522461,-6.146676063537598,268.34490966796875 106.83415985107422,-6.146569728851318,270.83831787109375 106.8345718383789,-6.14648962020874,275.2568054199219 106.8350830078125,-6.146400451660156,283.3258361816406 106.83558654785156,-6.146315097808838,285.60980224609375 106.83609008789062,-6.1462578773498535,285.577880859375 106.83659362792969,-6.1462483406066895,284.27447509765625 106.83699798583984,-6.1462788581848145,282.4472351074219 106.83751678466797,-6.146372318267822,279.06756591796875 106.83790588378906,-6.146485328674316,275.683349609375 106.83842468261719,-6.146703243255615,269.7649841308594 106.8388900756836,-6.146961212158203,262.15350341796875 106.83936309814453,-6.147260665893555,249.67703247070312 106.83981323242188,-6.147607326507568,233.66246032714844 106.84019470214844,-6.147985935211182,220.0845184326172 106.84051513671875,-6.148359298706055,209.6595458984375 106.84090423583984,-6.1489129066467285,201.44886779785156 106.84122467041016,-6.149377822875977,194.6063232421875 106.84148406982422,-6.1497602462768555,186.22848510742188 106.84181213378906,-6.150252819061279,179.05075073242188 106.84213256835938,-6.150740623474121,175.12774658203125 106.84246063232422,-6.151228427886963,169.47422790527344 106.8427734375,-6.151718616485596,166.48687744140625 106.84307861328125,-6.152216911315918,166.3437957763672 106.84331512451172,-6.152616024017334,168.55328369140625 106.84354400634766,-6.153019428253174,172.92726135253906 106.84375762939453,-6.153421401977539,179.34320068359375 106.84400177001953,-6.153911590576172,189.76429748535156 106.84422302246094,-6.154390335083008,201.4156494140625 106.84439849853516,-6.154762268066406,203.9983673095703 106.84463500976562,-6.155279159545898,201.30587768554688 106.84481048583984,-6.1556715965271,197.72598266601562 106.84503173828125,-6.156164646148682,186.7689971923828 106.84524536132812,-6.156646728515625,176.10618591308594 106.84546661376953,-6.157136917114258,169.03379821777344 106.84571075439453,-6.157664775848389,164.22535705566406 106.8459701538086,-6.158205986022949,164.92930603027344 106.84619903564453,-6.158710956573486,168.41551208496094 106.84642791748047,-6.159189701080322,169.27835083007812 106.8466567993164,-6.15969181060791,168.00914001464844 106.84683990478516,-6.160081386566162,165.78150939941406 106.84708404541016,-6.160621166229248,160.9121856689453 106.8473129272461,-6.161112308502197,146.63372802734375 106.8475341796875,-6.161596775054932,126.73767852783203 106.84777069091797,-6.1620869636535645,110.3009262084961 106.8480224609375,-6.162600517272949,100.49215698242188 106.84830474853516,-6.163147449493408,101.95844268798828 106.84857940673828,-6.163651943206787,115.78112030029297 106.84876251220703,-6.163990020751953,133.22714233398438 106.84899139404297,-6.164398193359375,163.3016357421875 106.84917449951172,-6.164739608764648,196.48736572265625 106.84931182861328,-6.165030002593994,229.92803955078125 106.84943389892578,-6.165314674377441,261.11883544921875 106.8495101928711,-6.165516376495361,282.2960205078125 106.84962463378906,-6.165781021118164,303.2153625488281 106.8497543334961,-6.166068077087402,314.6801452636719 106.84990692138672,-6.166374206542969,317.12164306640625 106.85005950927734,-6.166691303253174,315.5487365722656 106.85021209716797,-6.1670050621032715,313.4799499511719 106.85035705566406,-6.167327404022217,312.3907470703125 106.85049438476562,-6.167675971984863,312.6532897949219 106.85061645507812,-6.168017387390137,314.03253173828125 106.8507308959961,-6.168362140655518,316.0052185058594 106.85086059570312,-6.1687798500061035,318.8388671875 106.8509521484375,-6.169060230255127,320.5857849121094 106.85107421875,-6.1694183349609375,322.4226379394531 106.8511734008789,-6.169696807861328,324.03839111328125 106.85131072998047,-6.170056343078613,327.22784423828125 106.85145568847656,-6.1704206466674805,331.80426025390625 106.85159301757812,-6.170766830444336,336.3116455078125 106.85169982910156,-6.171048164367676,339.1734619140625 106.85183715820312,-6.171412944793701,341.7002258300781 106.85195922851562,-6.171781539916992,344.1809997558594 106.85205841064453,-6.172072410583496,344.96954345703125 106.85218811035156,-6.172481536865234,346.42724609375 106.85231018066406,-6.172860145568848,347.9079895019531 106.8524169921875,-6.17315673828125,349.271240234375 106.85256958007812,-6.173539161682129,351.7624816894531 106.85272979736328,-6.173919200897217,355.0604553222656 106.85289764404297,-6.174288749694824,358.0304260253906 106.8530502319336,-6.174654483795166,359.45501708984375 106.85321044921875,-6.175043106079102,359.29351806640625 106.85336303710938,-6.175421714782715,357.9421081542969 106.853515625,-6.175815105438232,356.10809326171875 106.85365295410156,-6.176202774047852,354.0945739746094 106.85379791259766,-6.176617622375488,351.06707763671875 106.85394287109375,-6.17703914642334,344.6064758300781 106.85404968261719,-6.177370071411133,338.94854736328125 106.85418701171875,-6.177824974060059,330.77978515625 106.85433197021484,-6.178295135498047,321.5534973144531 106.85447692871094,-6.178766250610352,314.6766662597656 106.8545913696289,-6.179136753082275,311.3133850097656 106.854736328125,-6.179610252380371,307.8075866699219 106.8548812866211,-6.1800737380981445,303.0020446777344 106.85499572753906,-6.18045711517334,299.2405700683594 106.85514068603516,-6.18093729019165,293.07598876953125 106.85526275634766,-6.18133544921875,288.04156494140625 106.85540771484375,-6.181813716888428,278.8409423828125 106.8555679321289,-6.182313919067383,270.68365478515625 106.85572814941406,-6.182809829711914,262.84478759765625 106.85589599609375,-6.183308124542236,257.78961181640625 106.85607147216797,-6.183817386627197,254.93020629882812 106.85620880126953,-6.184226989746094,249.93190002441406 106.85639190673828,-6.184739112854004,249.38040161132812 106.85658264160156,-6.185252666473389,245.7451171875 106.85672760009766,-6.185654163360596,246.1374969482422 106.85690307617188,-6.186177730560303,253.6832275390625 106.85706329345703,-6.186661720275879,257.2685852050781 106.85722351074219,-6.187161445617676,262.30889892578125 106.85736846923828,-6.187669277191162,267.52593994140625 106.85749053955078,-6.188058376312256,266.6797790527344 106.85763549804688,-6.1885552406311035,268.6964416503906 106.85777282714844,-6.189040184020996,272.17706298828125 106.85791015625,-6.189520359039307,270.6806335449219 106.8580551147461,-6.1900553703308105,268.5130615234375 106.85819244384766,-6.190558910369873,266.4172058105469 106.8582992553711,-6.190952777862549,262.5973815917969 106.85841369628906,-6.19136905670166,258.2994689941406 106.85855865478516,-6.191874027252197,253.16798400878906 106.85870361328125,-6.19240140914917,249.47215270996094 106.85884857177734,-6.192958354949951,247.6049346923828 106.8589859008789,-6.193459987640381,248.44110107421875 106.85911560058594,-6.193963527679443,248.66168212890625 106.85924530029297,-6.1944780349731445,245.08892822265625 106.8593521118164,-6.194890022277832,239.79351806640625 106.8594741821289,-6.19540548324585,232.6966552734375 106.85958862304688,-6.195911884307861,228.22235107421875 106.85971069335938,-6.196433067321777,225.88613891601562 106.85982513427734,-6.196927070617676,226.86582946777344 106.85993957519531,-6.197404384613037,230.47877502441406 106.86004638671875,-6.197869300842285,234.69140625 106.86015319824219,-6.198333740234375,237.08338928222656 106.86023712158203,-6.198714733123779,237.24871826171875 106.86033630371094,-6.199204921722412,234.6082305908203 106.86041259765625,-6.1995744705200195,230.25289916992188 106.86051177978516,-6.200074195861816,223.2119598388672 106.86061096191406,-6.2005839347839355,219.4512939453125 106.86070251464844,-6.201076030731201,218.53758239746094 106.86079406738281,-6.201547622680664,218.64089965820312 106.86089324951172,-6.202035427093506,220.03521728515625 106.86099243164062,-6.202535152435303,222.36769104003906 106.86109161376953,-6.203006267547607,225.39065551757812 106.86119079589844,-6.203471660614014,228.0484161376953 106.86126708984375,-6.203847408294678,229.7366180419922 106.8613510131836,-6.204219341278076,230.885498046875 106.8614501953125,-6.204697608947754,232.40191650390625 106.86155700683594,-6.205183506011963,233.3292694091797 106.86165618896484,-6.205660820007324,230.9150848388672 106.86174774169922,-6.206050395965576,227.07554626464844 106.86185455322266,-6.206527233123779,222.07797241210938 106.86199188232422,-6.207176685333252,220.87518310546875 106.86207580566406,-6.207563877105713,221.52377319335938 106.86219024658203,-6.208085060119629,220.2944793701172 106.86229705810547,-6.208588123321533,219.94058227539062 106.86241149902344,-6.209077835083008,222.67568969726562 106.86251831054688,-6.209561824798584,222.48069763183594 106.86263275146484,-6.2100510597229,217.57591247558594 106.86275482177734,-6.210597991943359,208.54782104492188 106.86288452148438,-6.211094856262207,200.2979278564453 106.8630142211914,-6.211600303649902,194.0848388671875 106.8631591796875,-6.212109565734863,190.47633361816406 106.86328887939453,-6.212615489959717,188.44076538085938 106.8634262084961,-6.21312141418457,182.86509704589844 106.86357116699219,-6.213716983795166,179.72789001464844 106.86367797851562,-6.214226722717285,178.70828247070312 106.8637924194336,-6.214754581451416,178.0167694091797 106.8639144897461,-6.2152862548828125,177.1317138671875 106.86404418945312,-6.21580696105957,175.2147674560547 106.86418914794922,-6.216341495513916,172.2613983154297 106.86430358886719,-6.2167582511901855,169.34228515625 106.86444854736328,-6.217285633087158,165.23892211914062 106.86459350585938,-6.217809677124023,161.1006317138672 106.86473083496094,-6.218328475952148,155.27346801757812 106.86483764648438,-6.218756675720215,149.27345275878906 106.86497497558594,-6.219323635101318,141.78182983398438 106.86510467529297,-6.2198805809021,138.47128295898438 106.86519622802734,-6.22031307220459,139.57122802734375 106.86531066894531,-6.220856189727783,143.1654510498047 106.86541748046875,-6.22137975692749,151.93191528320312 106.86549377441406,-6.221793174743652,163.23951721191406 106.86558532714844,-6.22228479385376,178.08676147460938 106.86567687988281,-6.222773551940918,188.0782012939453 106.86576080322266,-6.2232842445373535,193.58360290527344 106.8658447265625,-6.223763942718506,197.0335235595703 106.86592102050781,-6.224237442016602,201.13685607910156 106.86599731445312,-6.224714279174805,205.33544921875 106.86605834960938,-6.2251129150390625,208.62860107421875 106.86613464355469,-6.225592613220215,211.61160278320312 106.8662109375,-6.226057529449463,212.9699249267578 106.8663101196289,-6.226546764373779,212.64767456054688 106.86643981933594,-6.2270731925964355,211.4132080078125 106.86663055419922,-6.2275261878967285,212.6151885986328 106.86688995361328,-6.227931976318359,215.08995056152344 106.86720275878906,-6.2282915115356445,217.50619506835938 106.8675537109375,-6.228629112243652,221.0006561279297 106.8678970336914,-6.22896146774292,227.62124633789062 106.86817932128906,-6.229313373565674,237.1314239501953 106.86839294433594,-6.2296881675720215,247.36888122558594 106.86853790283203,-6.230105400085449,257.5731201171875 106.86860656738281,-6.230518817901611,265.9216613769531 106.86860656738281,-6.230929374694824,272.22503662109375 106.86853790283203,-6.231350898742676,276.488525390625 106.86844635009766,-6.231759548187256,280.0924377441406 106.86835479736328,-6.232155799865723,284.5751037597656 106.86831665039062,-6.232556343078613,289.72442626953125 106.86833190917969,-6.2329559326171875,294.947509765625 106.86839294433594,-6.233397006988525,299.27783203125 106.86846160888672,-6.233803749084473,300.49932861328125 106.8685531616211,-6.234200954437256,299.8879699707031 106.86865234375,-6.234616756439209,296.7027587890625 106.86875915527344,-6.235068321228027,290.3307800292969 106.86885833740234,-6.235483646392822,280.4984130859375 106.86896514892578,-6.23592472076416,272.0260314941406 106.86905670166016,-6.236288547515869,266.28546142578125 106.86914825439453,-6.236671447753906,260.98876953125 106.8692398071289,-6.237058162689209,256.4183349609375 106.8693618774414,-6.237554550170898,251.7981414794922 106.86947631835938,-6.238027572631836,248.75375366210938 106.86959075927734,-6.238497734069824,246.02783203125 106.86968231201172,-6.238887310028076,243.5504608154297 106.86978149414062,-6.239294052124023,241.47781372070312 106.869873046875,-6.239668846130371,239.6230926513672 106.87001037597656,-6.240327835083008,237.422119140625 106.87010955810547,-6.240852355957031,237.80059814453125 106.87020874023438,-6.241369247436523,239.18319702148438 106.87030029296875,-6.241856098175049,241.3286895751953 106.87039184570312,-6.242343902587891,243.5771942138672 106.87046813964844,-6.242833614349365,246.11038208007812 106.87053680419922,-6.243315696716309,247.70521545410156 106.87059783935547,-6.243809223175049,248.1759490966797 106.87064361572266,-6.244301795959473,247.77513122558594 106.87067413330078,-6.244801044464111,247.66261291503906 106.87067413330078,-6.245300769805908,249.94114685058594 106.87067413330078,-6.245785236358643,250.02012634277344 106.87066650390625,-6.246267318725586,245.48446655273438 106.87065124511719,-6.246671676635742,243.08389282226562 106.87063598632812,-6.247152805328369,241.91732788085938 106.87060546875,-6.247640132904053,241.39111328125 106.87057495117188,-6.248127460479736,241.21498107910156 106.87053680419922,-6.248624801635742,236.7087860107422 106.8705062866211,-6.249082565307617,231.12551879882812 106.87047576904297,-6.249560832977295,227.48220825195312 106.87045288085938,-6.2500224113464355,225.4930877685547 106.87042236328125,-6.250484943389893,224.7801055908203 106.87040710449219,-6.250930309295654,227.133056640625 106.87039947509766,-6.251288890838623,230.4198760986328 106.87039184570312,-6.251640796661377,232.86549377441406 106.8703842163086,-6.252079963684082,231.6680450439453 106.87036895751953,-6.252556324005127,223.4571075439453 106.870361328125,-6.252905368804932,215.06112670898438 106.87035369873047,-6.253360748291016,204.04928588867188 106.87033081054688,-6.253819942474365,195.92315673828125 106.87030792236328,-6.254190444946289,192.1553192138672 106.87027740478516,-6.2546610832214355,190.310791015625 106.8702392578125,-6.255127429962158,190.70794677734375 106.87020111083984,-6.255602836608887,191.6699981689453 106.87017059326172,-6.255966663360596,191.47328186035156 106.87013244628906,-6.256424427032471,188.59408569335938 106.8700942993164,-6.256782531738281,184.1729278564453 106.87006378173828,-6.257143497467041,178.5026092529297 106.87002563476562,-6.257593154907227,171.4744415283203 106.86998748779297,-6.2580485343933105,164.55157470703125 106.86994934082031,-6.258522987365723,158.63035583496094 106.86991882324219,-6.258984088897705,154.5909423828125 106.86988067626953,-6.259449005126953,153.27334594726562 106.8698501586914,-6.2599263191223145,155.208740234375 106.86981964111328,-6.260380744934082,159.9655303955078 106.86978912353516,-6.260828018188477,164.67042541503906 106.86975860595703,-6.2612786293029785,168.58103942871094 106.86973571777344,-6.261728286743164,173.9796905517578 106.86971282958984,-6.262080669403076,178.2879180908203 106.86968231201172,-6.262530326843262,177.1399383544922 106.86965942382812,-6.262974739074707,176.29144287109375 106.86962127685547,-6.263453960418701,177.1777801513672 106.86957550048828,-6.264047145843506,178.66616821289062 106.8695297241211,-6.26450252532959,177.70066833496094 106.8694839477539,-6.264949321746826,176.6419219970703 106.86942291259766,-6.265396595001221,174.99423217773438 106.86937713623047,-6.265770435333252,173.5272216796875 106.86930847167969,-6.266237258911133,170.90431213378906 106.86924743652344,-6.266608715057373,168.5341796875 106.86918640136719,-6.266993522644043,166.8083953857422 106.86913299560547,-6.267377853393555,166.22731018066406 106.86907196044922,-6.267904758453369,167.17355346679688 106.86903381347656,-6.268303394317627,168.3955535888672 106.86900329589844,-6.26869010925293,167.79884338378906 106.86897277832031,-6.269174098968506,168.958251953125 106.86896514892578,-6.269662380218506,171.2183380126953 106.86896514892578,-6.270135402679443,173.74620056152344 106.86898040771484,-6.270627975463867,176.30442810058594 106.86900329589844,-6.2711181640625,178.61810302734375 106.8690414428711,-6.27157735824585,180.37039184570312 106.86911010742188,-6.272165775299072,183.45111083984375 106.86915588378906,-6.272529602050781,187.8009490966797 106.86922454833984,-6.272977828979492,191.7423858642578 106.86929321289062,-6.273448944091797,193.04464721679688 106.86935424804688,-6.273899078369141,193.08802795410156 106.86942291259766,-6.274349689483643,192.04786682128906 106.8694839477539,-6.2748026847839355,190.55860900878906 106.86953735351562,-6.275174617767334,189.7647705078125 106.8696060180664,-6.2756733894348145,189.50811767578125 106.86968231201172,-6.27613639831543,192.23008728027344 106.8697509765625,-6.276599407196045,197.68853759765625 106.86981964111328,-6.277034759521484,203.39109802246094 106.86988830566406,-6.277464866638184,208.8782501220703 106.86994934082031,-6.2778472900390625,212.04542541503906 106.8700180053711,-6.278313636779785,212.0397491455078 106.8700942993164,-6.278721809387207,209.24395751953125 106.87017059326172,-6.279136657714844,204.8012237548828 106.87024688720703,-6.279458522796631,201.6896209716797 106.870361328125,-6.279868125915527,198.93475341796875 106.87049102783203,-6.280276298522949,196.91030883789062 106.87064361572266,-6.280671119689941,195.09494018554688 106.87081909179688,-6.281050682067871,193.2820587158203 106.87102508544922,-6.28142786026001,191.51596069335938 106.8712387084961,-6.281782627105713,189.0220184326172 106.87142181396484,-6.282073020935059,187.53591918945312 106.87158966064453,-6.282378673553467,187.48086547851562 106.87174224853516,-6.28274393081665,188.53631591796875 106.8718490600586,-6.283136367797852,189.8519287109375 106.87189483642578,-6.283525466918945,190.70965576171875 106.87189483642578,-6.283937454223633,190.54946899414062 106.87187957763672,-6.284338474273682,188.15118408203125 106.87185668945312,-6.284733772277832,184.27166748046875 106.87181854248047,-6.285159111022949,178.73402404785156 106.87178802490234,-6.28556489944458,172.89102172851562 106.87175750732422,-6.28598690032959,169.4825897216797 106.87174224853516,-6.286404609680176,168.5883331298828 106.8717269897461,-6.286823272705078,168.73219299316406 106.8717041015625,-6.287228107452393,168.01734924316406 106.87167358398438,-6.287547588348389,166.8167266845703 106.87163543701172,-6.287956714630127,165.16014099121094 106.87158966064453,-6.288272857666016,163.1603546142578 106.87155151367188,-6.288602828979492,160.0890655517578 106.87149810791016,-6.28902530670166,155.1776580810547 106.8714599609375,-6.289443492889404,150.71575927734375 106.87142181396484,-6.289865016937256,147.47096252441406 106.87139892578125,-6.290189743041992,146.0845489501953 106.87136840820312,-6.290614604949951,145.8040313720703 106.87135314941406,-6.291045665740967,146.69190979003906 106.87134552001953,-6.291464328765869,147.3417510986328 106.87135314941406,-6.291889190673828,147.2617645263672 106.87137603759766,-6.292285919189453,146.76678466796875 106.87139892578125,-6.292606830596924,146.17747497558594 106.87144470214844,-6.293021202087402,144.93768310546875 106.87150573730469,-6.293437957763672,142.52386474609375 106.87156677246094,-6.293837547302246,138.29629516601562 106.87164306640625,-6.294244766235352,133.43167114257812 106.87171173095703,-6.294565200805664,129.5974884033203 106.87179565429688,-6.294963359832764,125.03021240234375 106.87190246582031,-6.29538631439209,121.1759262084961 106.87200164794922,-6.295788288116455,119.02312469482422 106.87211608886719,-6.296200752258301,118.6747817993164 106.87223815917969,-6.296611309051514,119.86418151855469 106.87237548828125,-6.297025203704834,122.22203826904297 106.87248229980469,-6.29734992980957,124.24429321289062 106.87259674072266,-6.297695159912109,126.77115631103516 106.87271118164062,-6.298025131225586,129.47506713867188 106.8728256225586,-6.298348426818848,132.2789764404297 106.87296295166016,-6.298768997192383,136.28453063964844 106.87309265136719,-6.299162864685059,140.7993927001953 106.87319946289062,-6.2994818687438965,145.10569763183594 106.87333679199219,-6.299920082092285,151.68133544921875 106.87345123291016,-6.300318241119385,156.36871337890625 106.87358093261719,-6.300738334655762,159.39004516601562 106.87369537353516,-6.301151752471924,161.83314514160156 106.8738021850586,-6.30150032043457,163.8741912841797 106.87390899658203,-6.3019328117370605,165.85354614257812 106.87400817871094,-6.302356719970703,167.88690185546875 106.87410736083984,-6.302774429321289,169.1463623046875 106.87420654296875,-6.303180694580078,169.77203369140625 106.87430572509766,-6.303594589233398,170.19602966308594 106.8744125366211,-6.304014682769775,170.64666748046875 106.87449645996094,-6.304358005523682,171.12789916992188 106.8746109008789,-6.304784297943115,172.02651977539062 106.87472534179688,-6.3051981925964355,172.75790405273438 106.87481689453125,-6.305551052093506,172.8931884765625 106.87493896484375,-6.305988788604736,172.3776397705078 106.87506866455078,-6.306418418884277,171.78713989257812 106.87517547607422,-6.3067803382873535,171.67337036132812 106.87531280517578,-6.307241916656494,172.78036499023438 106.87545013427734,-6.307690620422363,175.62295532226562 106.8755874633789,-6.308129787445068,180.35009765625 106.87569427490234,-6.308470726013184,184.6093292236328 106.87583923339844,-6.308953762054443,191.04330444335938 106.87596893310547,-6.309375286102295,196.67202758789062 106.87610626220703,-6.30978536605835,201.79115295410156 106.87623596191406,-6.310201644897461,206.51451110839844 106.87637329101562,-6.310617446899414,211.24441528320312 106.87650299072266,-6.3110270500183105,216.539306640625 106.87661743164062,-6.311456203460693,223.42860412597656 106.876708984375,-6.31185245513916,230.79318237304688 106.87677001953125,-6.312277317047119,239.009033203125 106.87679290771484,-6.31259822845459,244.80126953125 106.87680053710938,-6.313000679016113,250.27423095703125 106.87680053710938,-6.313333511352539,251.86085510253906 106.87679290771484,-6.313741207122803,252.05433654785156 106.87678527832031,-6.314145088195801,251.583984375 106.87677764892578,-6.314474105834961,250.92076110839844 106.87677764892578,-6.314902305603027,250.4029998779297 106.87677764892578,-6.315241813659668,249.80911254882812 106.87677001953125,-6.315707206726074,248.9546661376953 106.87677001953125,-6.316149711608887,248.227783203125 106.87677001953125,-6.316598892211914,247.5762176513672 106.87677001953125,-6.3170485496521,246.99761962890625 106.87676239013672,-6.317497253417969,246.5682830810547 106.87675476074219,-6.31795072555542,246.08355712890625 106.87673950195312,-6.318406581878662,244.82337951660156 106.87672424316406,-6.318766117095947,243.87745666503906 106.87670135498047,-6.3192219734191895,243.32176208496094 106.87667083740234,-6.319699764251709,242.89364624023438 106.87663269042969,-6.320154666900635,242.3902587890625 106.87659454345703,-6.320536136627197,242.4451904296875 106.87654876708984,-6.321012020111084,242.64154052734375 106.87649536132812,-6.3214802742004395,241.08621215820312 106.8764419555664,-6.3219428062438965,237.55487060546875 106.87638854980469,-6.322414398193359,230.8006134033203 106.87633514404297,-6.3228020668029785,224.93296813964844 106.87626647949219,-6.323315143585205,218.142333984375 106.8761978149414,-6.323807239532471,211.2075958251953 106.87612915039062,-6.324310779571533,206.8829803466797 106.87606048583984,-6.324814796447754,205.33531188964844 106.87600708007812,-6.325308799743652,203.7296600341797 106.87594604492188,-6.325849533081055,201.7408905029297 106.87588500976562,-6.326388835906982,199.8921356201172 106.8758316040039,-6.326901912689209,197.48146057128906 106.87578582763672,-6.327319145202637,195.19517517089844 106.87572479248047,-6.327857494354248,191.84791564941406 106.87567901611328,-6.328273296356201,188.32199096679688 106.8756103515625,-6.328832626342773,181.42474365234375 106.87554931640625,-6.329248905181885,176.4994659423828 106.87548065185547,-6.329782009124756,171.1551055908203 106.87540435791016,-6.330323696136475,166.95103454589844 106.87532806396484,-6.330855369567871,164.07138061523438 106.87525177001953,-6.331399917602539,162.38197326660156 106.87517547607422,-6.331950664520264,161.6005859375 106.8751220703125,-6.332373142242432,161.5067138671875 106.87504577636719,-6.332922458648682,162.0815887451172 106.87496948242188,-6.333439350128174,164.26454162597656 106.87488555908203,-6.333975315093994,167.3795928955078 106.87482452392578,-6.334401607513428,169.58595275878906 106.87474060058594,-6.334920406341553,173.19822692871094 106.8746566772461,-6.335429668426514,177.69577026367188 106.87457275390625,-6.335930824279785,182.8459014892578 106.8744888305664,-6.336435794830322,188.20199584960938 106.87440490722656,-6.336928367614746,193.45681762695312 106.87432098388672,-6.337465286254883,199.3774871826172 106.87422943115234,-6.337952613830566,208.52386474609375 106.8741226196289,-6.338404655456543,222.3197479248047 106.87397003173828,-6.338809013366699,238.9671173095703 106.87374114990234,-6.339187145233154,255.6417236328125 106.87345123291016,-6.339484214782715,265.4068603515625 106.87308502197266,-6.339741230010986,269.0661315917969 106.87279510498047,-6.3398847579956055,268.14111328125 106.87239837646484,-6.340022563934326,265.13568115234375 106.87197875976562,-6.340121269226074,262.919189453125 106.87156677246094,-6.3401923179626465,263.108642578125 106.87107849121094,-6.340249061584473,266.5722351074219 106.87065887451172,-6.340277671813965,271.7102966308594 106.87024688720703,-6.3402814865112305,277.6582946777344 106.86982727050781,-6.340260028839111,284.1500244140625 106.86941528320312,-6.340214252471924,290.5730285644531 106.86901092529297,-6.34014368057251,296.8275146484375 106.86859893798828,-6.340055465698242,301.1194763183594 106.86819458007812,-6.339963436126709,300.9271545410156 106.86787414550781,-6.3398895263671875,298.4595642089844 106.86740112304688,-6.339787483215332,292.25592041015625 106.86695861816406,-6.3397016525268555,285.28082275390625 106.8666000366211,-6.33964204788208,280.1944885253906 106.86613464355469,-6.339577674865723,274.5641784667969 106.86568450927734,-6.3395209312438965,270.17578125 106.86522674560547,-6.339466571807861,267.2172546386719 106.86485290527344,-6.339420795440674,265.85400390625 106.86447143554688,-6.339372158050537,265.3199768066406 106.86396789550781,-6.339303970336914,265.2747497558594 106.8635025024414,-6.339235305786133,265.4168701171875 106.86302185058594,-6.339158058166504,265.1899108886719 106.86254119873047,-6.339075565338135,264.3533630371094 106.862060546875,-6.338986873626709,263.7319641113281 106.861572265625,-6.338891506195068,262.9849548339844 106.86109161376953,-6.33879280090332,261.47271728515625 106.8606185913086,-6.3386921882629395,259.4549560546875 106.86013793945312,-6.338589668273926,257.17333984375 106.85973358154297,-6.338500022888184,255.3398895263672 106.85919952392578,-6.338383197784424,253.26080322265625 106.85865783691406,-6.338263511657715,251.5066375732422 106.8582534790039,-6.338173866271973,250.348388671875 106.85786437988281,-6.338087558746338,249.51431274414062 106.8573226928711,-6.3379669189453125,249.61439514160156 106.85693359375,-6.3378801345825195,250.9790802001953 106.8564453125,-6.337769985198975,254.0576629638672 106.85595703125,-6.337660312652588,256.6512756347656 106.85548400878906,-6.337550640106201,258.0625915527344 106.8550033569336,-6.337438583374023,258.86328125 106.8544921875,-6.337316036224365,258.8888854980469 106.85411071777344,-6.337220191955566,258.2775573730469 106.85356140136719,-6.33707857131958,256.49468994140625 106.85302734375,-6.336935520172119,253.85604858398438 106.85254669189453,-6.336802005767822,251.10853576660156 106.85205841064453,-6.336663246154785,248.3677520751953 106.8515625,-6.336522102355957,245.92771911621094 106.85106658935547,-6.3363823890686035,243.97088623046875 106.85057067871094,-6.336244583129883,241.55450439453125 106.85005187988281,-6.336103439331055,238.6163330078125 106.84956359863281,-6.335968971252441,235.8800506591797 106.84906768798828,-6.335840702056885,233.44564819335938 106.84866333007812,-6.335738658905029,231.68040466308594 106.84825897216797,-6.335635185241699,229.96194458007812 106.84784698486328,-6.335534572601318,228.73374938964844 106.84732818603516,-6.335412502288818,228.0618438720703 106.8468246459961,-6.335296630859375,227.6835174560547 106.84628295898438,-6.335171222686768,227.5945587158203 106.84577941894531,-6.335047721862793,227.8022918701172 106.84536743164062,-6.3349409103393555,227.911376953125 106.84483337402344,-6.33479118347168,227.47006225585938 106.84432983398438,-6.3346405029296875,226.10169982910156 106.84382629394531,-6.334481239318848,223.7441864013672 106.84333801269531,-6.33431339263916,220.79598999023438 106.84283447265625,-6.334134101867676,216.71798706054688 106.84234619140625,-6.33394718170166,212.1641082763672 106.84193420410156,-6.333786964416504,209.11070251464844 106.84153747558594,-6.333625793457031,207.5660400390625 106.84114074707031,-6.333463191986084,207.34445190429688 106.84065246582031,-6.333258628845215,206.52622985839844 106.84016418457031,-6.333055019378662,203.5204620361328 106.83975219726562,-6.332886219024658,201.8207244873047 106.83919525146484,-6.332669258117676,203.01564025878906 106.83867645263672,-6.332469940185547,207.76490783691406 106.83818817138672,-6.332286834716797,214.84982299804688 106.83786010742188,-6.33217191696167,220.9696044921875 106.8372802734375,-6.331945419311523,232.73077392578125 106.83684539794922,-6.331747531890869,244.8914794921875 106.83639526367188,-6.331457138061523,259.177734375 106.83602142333984,-6.331120491027832,269.6927185058594 106.8357162475586,-6.330756187438965,275.922607421875 106.8354263305664,-6.3303656578063965,277.4471740722656 106.83515930175781,-6.329980850219727,275.03485107421875 106.83489227294922,-6.329582691192627,269.4670104980469 106.83463287353516,-6.32919454574585,260.6316833496094 106.83436584472656,-6.328798770904541,250.87808227539062 106.83406066894531,-6.328359127044678,241.50717163085938 106.83382415771484,-6.32804012298584,236.1992950439453 106.83357238769531,-6.3277058601379395,231.43385314941406 106.83326721191406,-6.327284336090088,226.80770874023438 106.83297729492188,-6.326874256134033,223.7946014404297 106.83269500732422,-6.3264241218566895,222.16879272460938 106.83244323730469,-6.325927734375,222.9235076904297 106.83226013183594,-6.325423240661621,224.92288208007812 106.83214569091797,-6.32490348815918,226.0289306640625 106.83208465576172,-6.324405193328857,224.20274353027344 106.8320541381836,-6.323868274688721,219.17393493652344 106.83204650878906,-6.323347568511963,212.691650390625 106.8320541381836,-6.322924613952637,207.47872924804688 106.83207702636719,-6.322337627410889,201.03952026367188 106.83209228515625,-6.321776866912842,195.91571044921875 106.83211517333984,-6.321228504180908,192.9571075439453 106.83213806152344,-6.320694446563721,193.85934448242188 106.83219146728516,-6.320145130157471,197.33836364746094 106.8322525024414,-6.319604873657227,197.4959259033203 106.83232116699219,-6.319077968597412,193.02037048339844 106.83238983154297,-6.318540573120117,183.0066680908203 106.83246612548828,-6.318020343780518,168.8394317626953 106.83255004882812,-6.317473888397217,150.4984893798828 106.83263397216797,-6.316957473754883,130.84136962890625 106.83269500732422,-6.316408634185791,115.49883270263672 106.83270263671875,-6.3159685134887695,107.42864227294922 106.8326416015625,-6.3154215812683105,100.42243957519531 106.8324966430664,-6.314896583557129,95.01559448242188 106.8322525024414,-6.3143720626831055,90.59076690673828 106.83202362060547,-6.3140130043029785,87.51143646240234 106.83167266845703,-6.313570976257324,83.60516357421875 106.83129119873047,-6.313195705413818,81.32992553710938 106.83087921142578,-6.312846660614014,83.16133117675781 106.83055877685547,-6.3125762939453125,87.40666961669922 106.8301773071289,-6.31221342086792,95.18682861328125 106.82984161376953,-6.31186056137085,101.34420776367188 106.82949829101562,-6.311502456665039,101.40520477294922 106.82915496826172,-6.31115198135376,94.84943389892578 106.82880401611328,-6.3107757568359375,86.86360168457031 106.82843780517578,-6.310384273529053,82.69010925292969 106.82810974121094,-6.310027599334717,82.16400146484375 106.8277816772461,-6.309670448303223,83.90801239013672 106.8275375366211,-6.309389591217041,86.12744140625 106.82721710205078,-6.309034824371338,88.27291107177734 106.82697296142578,-6.308752536773682,88.68109893798828 106.82664489746094,-6.308384895324707,88.53762817382812 106.82640838623047,-6.308111667633057,88.42406463623047 106.82610321044922,-6.307751178741455,88.54533386230469 106.82586669921875,-6.307464599609375,89.11599731445312 106.8255844116211,-6.3071160316467285,90.16265869140625 106.8252944946289,-6.3067402839660645,91.76872253417969 106.82508087158203,-6.306458950042725,93.4505844116211 106.82481384277344,-6.3060994148254395,95.94774627685547 106.8245620727539,-6.3057475090026855,98.69050598144531 106.8243179321289,-6.305386543273926,101.90420532226562 106.8240966796875,-6.305035591125488,105.29493713378906 106.82386016845703,-6.3046464920043945,109.15403747558594 106.82365417480469,-6.304272174835205,112.63758850097656 106.82351684570312,-6.303979396820068,114.94225311279297 106.82337951660156,-6.303682327270508,116.52359771728516 106.82327270507812,-6.303388595581055,117.24884033203125 106.82318115234375,-6.303088665008545,117.30172729492188 106.8230972290039,-6.302778720855713,116.24517059326172 106.8230209350586,-6.302373886108398,111.8584976196289 106.82296752929688,-6.302067279815674,106.84695434570312 106.82290649414062,-6.301650047302246,99.33660125732422 106.82286071777344,-6.3012518882751465,92.40741729736328 106.82282257080078,-6.300845623016357,86.6692886352539 106.8227767944336,-6.300404071807861,81.5827407836914 106.8227310180664,-6.299992561340332,78.41531372070312 106.82267761230469,-6.2995686531066895,76.98421478271484 106.82262420654297,-6.299152851104736,76.34192657470703 106.82256317138672,-6.298730373382568,76.00289916992188 106.82249450683594,-6.298250198364258,75.64545440673828 106.82243347167969,-6.297794342041016,75.07025909423828 106.82237243652344,-6.297336101531982,72.89701843261719 106.82231903076172,-6.2969279289245605,69.69525909423828 106.82227325439453,-6.296513080596924,66.18617248535156 106.82222747802734,-6.296061992645264,62.18943405151367 106.82221221923828,-6.295725345611572,60.20705032348633 106.82221221923828,-6.2953104972839355,59.265411376953125 106.8222427368164,-6.2948994636535645,59.65205383300781 106.82232666015625,-6.2944841384887695,59.844051361083984 106.82242584228516,-6.294089317321777,57.03293228149414 106.82254028320312,-6.293676376342773,51.243350982666016 106.82267761230469,-6.293273448944092,47.07989501953125 106.82282257080078,-6.2928924560546875,45.17576217651367 106.82298278808594,-6.292508602142334,44.111366271972656 106.82312774658203,-6.2921953201293945,43.90177917480469 106.82331085205078,-6.291800498962402,44.205379486083984 106.82350158691406,-6.291395664215088,44.25147247314453 106.82368469238281,-6.291007041931152,43.237613677978516 106.82386016845703,-6.290621280670166,42.10768127441406 106.82403564453125,-6.290241718292236,41.41490936279297 106.82420349121094,-6.289866924285889,40.95668411254883 106.8243408203125,-6.289571285247803,39.9122200012207 106.82447814941406,-6.289283752441406,39.441192626953125 106.82464599609375,-6.288929462432861,38.811893463134766 106.82482147216797,-6.288565635681152,38.17021179199219 106.82498931884766,-6.2882232666015625,37.57848358154297 106.82514953613281,-6.287891864776611,37.02833557128906 106.8253173828125,-6.28755521774292,36.438629150390625 106.82547760009766,-6.287225246429443,35.85686492919922 106.82563018798828,-6.2868971824646,35.29334259033203 106.82577514648438,-6.2865753173828125,34.75227737426758 106.82591247558594,-6.286257266998291,34.65275573730469 106.82601165771484,-6.286000728607178,34.34634017944336 106.82614135742188,-6.285678863525391,32.875450134277344 106.82624053955078,-6.285431861877441,31.88756561279297 106.82636260986328,-6.285122871398926,32.5131950378418 106.82648468017578,-6.284813404083252,34.09402084350586 106.82660675048828,-6.284519672393799,34.79389190673828 106.82672119140625,-6.284213066101074,34.46372604370117 106.82683563232422,-6.28393030166626,34.34759521484375 106.82693481445312,-6.283653736114502,35.05143356323242 106.82703399658203,-6.283373832702637,35.78880310058594 106.8271255493164,-6.2831010818481445,36.48027038574219 106.82722473144531,-6.28283166885376,37.16714096069336 106.82730102539062,-6.282626152038574,37.25006866455078 106.82740020751953,-6.282375335693359,36.5938720703125 106.8274917602539,-6.2821855545043945,35.75627136230469 106.82760620117188,-6.281951427459717,34.8386116027832 106.82772064208984,-6.2817301750183105,33.950374603271484 106.82782745361328,-6.281559944152832,33.24944305419922 106.82797241210938,-6.281337738037109,32.314395904541016 106.8281021118164,-6.281128883361816,31.4702205657959 106.82823181152344,-6.280904293060303,30.558931350708008 106.82836151123047,-6.280699729919434,29.715824127197266 106.82848358154297,-6.2804975509643555,28.880287170410156 106.82859802246094,-6.280296325683594,28.074865341186523 106.82869720458984,-6.280101776123047,27.297826766967773 106.82879638671875,-6.279923439025879,26.59353256225586 106.82886505126953,-6.2797932624816895,26.064186096191406 106.82894897460938,-6.2796478271484375,25.486886978149414 106.82903289794922,-6.27951192855835,25.151611328125 106.8291015625,-6.2794013023376465,25.476547241210938 106.82916259765625,-6.279298305511475,25.768692016601562 106.8292007446289,-6.279214382171631,25.98160743713379 106.82923126220703,-6.279157638549805,26.161392211914062 106.82926177978516,-6.27910041809082,26.323543548583984 106.82927703857422,-6.279067039489746,26.558204650878906 106.82928466796875,-6.279045581817627,26.692699432373047 106.82929229736328,-6.279038906097412,26.729291915893555 106.82929229736328,-6.2790398597717285,26.711137771606445 106.82929229736328,-6.2790398597717285,26.716617584228516 106.82929229736328,-6.2790398597717285,26.715240478515625 106.82929229736328,-6.2790398597717285,26.7156925201416 106.82929229736328,-6.2790398597717285,26.71560287475586 106.82929229736328,-6.2790398597717285,26.715604782104492 106.82929229736328,-6.2790398597717285,26.715621948242188 106.82929229736328,-6.2790398597717285,26.715566635131836 106.82929229736328,-6.2790398597717285,26.715551376342773 106.82929229736328,-6.2790398597717285,26.71562957763672 106.82929229736328,-6.2790398597717285,26.715633392333984 106.82929229736328,-6.2790398597717285,26.715576171875 106.82929229736328,-6.2790398597717285,26.715551376342773 106.82929229736328,-6.2790398597717285,26.71561050415039 106.82929229736328,-6.2790398597717285,26.71556854248047</coordinates>
            </LineString>
        </Placemark>
    </Document>
</kml>
