<?xml version="1.0" encoding="UTF-8"?>
<kml xmlns="http://www.opengis.net/kml/2.2" xmlns:gx="http://www.google.com/kml/ext/2.2">
    <Document id="1">
        <Style id="4">
            <LineStyle id="5">
                <color>ffffff00</color>
                <colorMode>normal</colorMode>
                <width>4</width>
            </LineStyle>
        </Style>
        <name>Log 20251125_144207</name>
        <Placemark id="3">
            <name>Flight Path</name>
            <styleUrl>#4</styleUrl>
            <LineString id="2">
                <extrude>1</extrude>
                <altitudeMode>absolute</altitudeMode>
                <coordinates>106.64386749267578,-6.142455577850342,11.673328399658203 106.64386749267578,-6.142455577850342,11.673320770263672 106.64386749267578,-6.142455577850342,11.673325538635254 106.64386749267578,-6.142455577850342,11.673364639282227 106.64386749267578,-6.142455577850342,11.673319816589355 106.64386749267578,-6.142455577850342,11.67333698272705 106.64386749267578,-6.142455577850342,11.673347473144531 106.64386749267578,-6.142455577850342,11.673341751098633 106.64386749267578,-6.142455577850342,11.673346519470215 106.64386749267578,-6.142455577850342,11.67335319519043 106.64386749267578,-6.142455577850342,11.673347473144531 106.64386749267578,-6.142455577850342,11.673334121704102 106.64386749267578,-6.142455577850342,11.673357963562012 106.64386749267578,-6.142455577850342,11.673348426818848 106.64386749267578,-6.142455577850342,11.673351287841797 106.64386749267578,-6.142455577850342,11.67337417602539</coordinates>
            </LineString>
        </Placemark>
    </Document>
</kml>
