<?xml version="1.0" encoding="UTF-8"?>
<kml xmlns="http://www.opengis.net/kml/2.2" xmlns:gx="http://www.google.com/kml/ext/2.2">
    <Document id="1">
        <Style id="4">
            <LineStyle id="5">
                <color>ffffff00</color>
                <colorMode>normal</colorMode>
                <width>4</width>
            </LineStyle>
        </Style>
        <name>Log 20251125_143852</name>
        <Placemark id="3">
            <name>Flight Path</name>
            <styleUrl>#4</styleUrl>
            <LineString id="2">
                <extrude>1</extrude>
                <altitudeMode>absolute</altitudeMode>
                <coordinates>106.64386749267578,-6.142455101013184,11.680176734924316 106.64386749267578,-6.142455101013184,11.679994583129883 106.64386749267578,-6.142455101013184,11.680115699768066 106.64386749267578,-6.142455101013184,11.679713249206543 106.64386749267578,-6.142455101013184,11.68017292022705 106.64386749267578,-6.142455101013184,11.680076599121094 106.64386749267578,-6.142455101013184,11.679880142211914 106.64386749267578,-6.142455101013184,11.680038452148438 106.64386749267578,-6.142455101013184,11.680123329162598 106.64386749267578,-6.142455101013184,11.680083274841309 106.64386749267578,-6.142455101013184,11.679838180541992 106.64386749267578,-6.142455101013184,11.679948806762695 106.64386749267578,-6.142455101013184,11.680055618286133 106.64386749267578,-6.142455101013184,11.679570198059082 106.64386749267578,-6.142455101013184,11.67984390258789 106.64386749267578,-6.142455101013184,11.680047988891602 106.64386749267578,-6.142455101013184,11.68023681640625 106.64386749267578,-6.142455101013184,11.679659843444824 106.64386749267578,-6.142455101013184,11.680099487304688 106.64386749267578,-6.142455101013184,11.680137634277344 106.64386749267578,-6.142455101013184,11.680116653442383 106.64386749267578,-6.142455101013184,11.680163383483887 106.64386749267578,-6.142455101013184,11.679863929748535 106.64386749267578,-6.142455101013184,11.680047988891602 106.64386749267578,-6.142455101013184,11.679859161376953 106.64386749267578,-6.142455101013184,11.67992115020752 106.64386749267578,-6.142455101013184,11.679996490478516 106.64386749267578,-6.142455101013184,11.680116653442383 106.64386749267578,-6.142455101013184,11.68004322052002 106.64386749267578,-6.142455101013184,11.680130958557129 106.64386749267578,-6.142455101013184,11.679832458496094</coordinates>
            </LineString>
        </Placemark>
    </Document>
</kml>
