<?xml version="1.0" encoding="UTF-8"?>
<kml xmlns="http://www.opengis.net/kml/2.2" xmlns:gx="http://www.google.com/kml/ext/2.2">
    <Document id="1">
        <Style id="4">
            <LineStyle id="5">
                <color>ffffff00</color>
                <colorMode>normal</colorMode>
                <width>4</width>
            </LineStyle>
        </Style>
        <name>Log 20251127_221926</name>
        <Placemark id="3">
            <name>Flight Path</name>
            <styleUrl>#4</styleUrl>
            <LineString id="2">
                <extrude>1</extrude>
                <altitudeMode>absolute</altitudeMode>
                <coordinates>106.89575958251953,-6.264464378356934,27.182279586791992 106.89575958251953,-6.264464378356934,27.182281494140625 106.89575958251953,-6.264464378356934,27.182283401489258 106.89575958251953,-6.264464378356934,27.182283401489258 106.89575958251953,-6.264464378356934,27.18228530883789 106.89575958251953,-6.264464378356934,27.18228530883789 106.89575958251953,-6.264464378356934,27.18228530883789 106.89575958251953,-6.264464378356934,27.182287216186523 106.89575958251953,-6.264464378356934,27.182287216186523 106.89575958251953,-6.264464378356934,27.182287216186523 106.89575958251953,-6.264464378356934,27.182289123535156 106.89575958251953,-6.264464378356934,27.182289123535156 106.89575958251953,-6.264464378356934,27.182289123535156 106.89575958251953,-6.264464378356934,27.18229103088379 106.89575958251953,-6.264464378356934,27.18229103088379 106.89575958251953,-6.264464378356934,27.18229103088379 106.89575958251953,-6.264464378356934,27.182292938232422 106.89575958251953,-6.264464378356934,27.182292938232422 106.89575958251953,-6.264464378356934,27.182292938232422 106.89575958251953,-6.264464378356934,27.182294845581055 106.89575958251953,-6.264464378356934,27.182294845581055 106.89575958251953,-6.264464378356934,27.182294845581055 106.89575958251953,-6.264464378356934,27.182296752929688 106.89575958251953,-6.264464378356934,27.182296752929688 106.89575958251953,-6.264464378356934,27.18229866027832 106.89575958251953,-6.264464378356934,27.18229866027832 106.89575958251953,-6.264464378356934,27.182300567626953 106.89575958251953,-6.264464378356934,27.182300567626953 106.89575958251953,-6.264464378356934,27.182300567626953 106.89575958251953,-6.264464378356934,27.182302474975586 106.89575958251953,-6.264464378356934,27.18230438232422 106.89575958251953,-6.264464378356934,27.182302474975586 106.89575958251953,-6.264464378356934,27.18230438232422 106.89575958251953,-6.264464378356934,27.18230628967285 106.89575958251953,-6.264464378356934,27.18230628967285 106.89575958251953,-6.264464378356934,27.18230628967285 106.89575958251953,-6.264464378356934,27.182308197021484 106.89575958251953,-6.264464378356934,27.182308197021484 106.89575958251953,-6.264464378356934,27.182308197021484 106.89575958251953,-6.264464378356934,27.182310104370117</coordinates>
            </LineString>
        </Placemark>
    </Document>
</kml>
