<?xml version="1.0" encoding="UTF-8"?>
<kml xmlns="http://www.opengis.net/kml/2.2" xmlns:gx="http://www.google.com/kml/ext/2.2">
    <Document id="1">
        <Style id="4">
            <LineStyle id="5">
                <color>ffffff00</color>
                <colorMode>normal</colorMode>
                <width>4</width>
            </LineStyle>
        </Style>
        <name>Log 20251125_141059</name>
        <Placemark id="3">
            <name>Flight Path</name>
            <styleUrl>#4</styleUrl>
            <LineString id="2">
                <extrude>1</extrude>
                <altitudeMode>absolute</altitudeMode>
                <coordinates>106.64386749267578,-6.142455577850342,11.673075675964355 106.64386749267578,-6.142455577850342,11.67312240600586 106.64386749267578,-6.142455577850342,11.673091888427734 106.64386749267578,-6.142455577850342,11.67309284210205 106.64386749267578,-6.142455577850342,11.673095703125 106.64386749267578,-6.142455577850342,11.673070907592773 106.64386749267578,-6.142455577850342,11.673077583312988 106.64386749267578,-6.142455577850342,11.67308235168457 106.64386749267578,-6.142455577850342,11.673102378845215 106.64386749267578,-6.142455577850342,11.673081398010254 106.64386749267578,-6.142455577850342,11.673083305358887 106.64386749267578,-6.142455577850342,11.673097610473633 106.64386749267578,-6.142455577850342,11.673097610473633 106.64386749267578,-6.142455577850342,11.673116683959961 106.64386749267578,-6.142455577850342,11.673111915588379 106.64386749267578,-6.142455577850342,11.673050880432129 106.64386749267578,-6.142455577850342,11.67309856414795 106.64386749267578,-6.142455577850342,11.673107147216797 106.64386749267578,-6.142455577850342,11.67310905456543 106.64386749267578,-6.142455577850342,11.673091888427734 106.64386749267578,-6.142455577850342,11.673117637634277 106.64386749267578,-6.142455577850342,11.673113822937012 106.64386749267578,-6.142455577850342,11.673104286193848 106.64386749267578,-6.142455577850342,11.673120498657227 106.64386749267578,-6.142455577850342,11.673107147216797 106.64386749267578,-6.142455577850342,11.673051834106445 106.64386749267578,-6.142455577850342,11.67308521270752 106.64386749267578,-6.142455577850342,11.67309856414795 106.64386749267578,-6.142455577850342,11.673077583312988 106.64386749267578,-6.142455577850342,11.673110008239746 106.64386749267578,-6.142455577850342,11.673112869262695 106.64386749267578,-6.142455577850342,11.673100471496582 106.64386749267578,-6.142455577850342,11.673107147216797 106.64386749267578,-6.142455577850342,11.673064231872559 106.64386749267578,-6.142455577850342,11.673104286193848 106.64386749267578,-6.142455577850342,11.673062324523926 106.64386749267578,-6.142455577850342,11.67309284210205 106.64386749267578,-6.142455577850342,11.673057556152344 106.64386749267578,-6.142455577850342,11.673210144042969 106.64386749267578,-6.142455577850342,11.673280715942383 106.64386749267578,-6.142455577850342,11.673112869262695 106.64386749267578,-6.142455577850342,11.673086166381836 106.64386749267578,-6.142455577850342,11.673072814941406 106.64386749267578,-6.142455577850342,11.673076629638672 106.64386749267578,-6.142455577850342,11.67305850982666 106.64386749267578,-6.142455577850342,11.673068046569824 106.64386749267578,-6.142455577850342,11.673073768615723 106.64386749267578,-6.142455577850342,11.67304515838623 106.64386749267578,-6.142455577850342,11.673033714294434 106.64386749267578,-6.142455577850342,11.673074722290039 106.64386749267578,-6.142455577850342,11.673044204711914 106.64386749267578,-6.142455577850342,11.673051834106445 106.64386749267578,-6.142455577850342,11.673079490661621 106.64386749267578,-6.142455577850342,11.673035621643066 106.64386749267578,-6.142455577850342,11.673052787780762 106.64386749267578,-6.142455577850342,11.673068046569824 106.64386749267578,-6.142455577850342,11.672990798950195 106.64386749267578,-6.142455577850342,11.673090934753418 106.64386749267578,-6.142455577850342,11.673107147216797 106.64386749267578,-6.142455577850342,11.673077583312988 106.64386749267578,-6.142455577850342,11.673090934753418 106.64386749267578,-6.142455577850342,11.673097610473633 106.64386749267578,-6.142455577850342,11.673118591308594 106.64386749267578,-6.142455577850342,11.673100471496582</coordinates>
            </LineString>
        </Placemark>
    </Document>
</kml>
