<?xml version="1.0" encoding="UTF-8"?>
<kml xmlns="http://www.opengis.net/kml/2.2" xmlns:gx="http://www.google.com/kml/ext/2.2">
    <Document id="1">
        <Style id="4">
            <LineStyle id="5">
                <color>ffffff00</color>
                <colorMode>normal</colorMode>
                <width>4</width>
            </LineStyle>
        </Style>
        <name>Log 20251121_131240</name>
        <Placemark id="3">
            <name>Flight Path</name>
            <styleUrl>#4</styleUrl>
            <LineString id="2">
                <extrude>1</extrude>
                <altitudeMode>absolute</altitudeMode>
                <coordinates>106.87901306152344,-6.272144317626953,26.732418060302734 106.87901306152344,-6.272144317626953,26.732418060302734 106.87901306152344,-6.272144317626953,26.732418060302734 106.87901306152344,-6.272144317626953,26.732418060302734 106.87901306152344,-6.272144317626953,26.732418060302734 106.87901306152344,-6.272144317626953,26.732418060302734 106.87901306152344,-6.272144317626953,26.732418060302734 106.87901306152344,-6.272144317626953,26.732418060302734 106.87901306152344,-6.272144317626953,26.732418060302734 106.87901306152344,-6.272144317626953,26.732418060302734 106.87901306152344,-6.272144317626953,26.732418060302734 106.87901306152344,-6.272144317626953,26.732418060302734 106.87901306152344,-6.272144317626953,26.732418060302734 106.87901306152344,-6.272144317626953,26.732418060302734 106.87901306152344,-6.272144317626953,26.732418060302734 106.87901306152344,-6.272144317626953,26.732418060302734 106.87901306152344,-6.272144317626953,26.732418060302734 106.87901306152344,-6.272144317626953,26.732418060302734 106.87901306152344,-6.272144317626953,26.732418060302734 106.87901306152344,-6.272144317626953,26.732418060302734 106.87901306152344,-6.272144317626953,26.732418060302734 106.87901306152344,-6.272144317626953,26.732418060302734 106.87901306152344,-6.272144317626953,26.732418060302734 106.87901306152344,-6.272144317626953,26.732418060302734 106.87901306152344,-6.272144317626953,26.732418060302734 106.87901306152344,-6.272144317626953,26.732418060302734 106.87901306152344,-6.272144317626953,26.732419967651367 106.87901306152344,-6.272144317626953,26.732519149780273 106.87901306152344,-6.272144317626953,26.73280906677246 106.87901306152344,-6.272143840789795,26.73331642150879 106.87901306152344,-6.272143840789795,26.73382568359375 106.87901306152344,-6.272143840789795,26.733707427978516 106.87901306152344,-6.272143840789795,26.733610153198242 106.87901306152344,-6.272143840789795,26.733545303344727 106.87901306152344,-6.272144317626953,26.733503341674805 106.87901306152344,-6.272144317626953,26.73346519470215 106.87901306152344,-6.272144317626953,26.733440399169922 106.87901306152344,-6.272144317626953,26.733415603637695 106.87901306152344,-6.272144317626953,26.733402252197266 106.87901306152344,-6.272144317626953,26.733388900756836 106.87901306152344,-6.272144317626953,26.733369827270508 106.87901306152344,-6.272144317626953,26.733367919921875 106.87901306152344,-6.272144317626953,26.733360290527344 106.87901306152344,-6.272144317626953,26.733352661132812 106.87901306152344,-6.272144317626953,26.733352661132812 106.87901306152344,-6.272144317626953,26.733348846435547 106.87901306152344,-6.272144317626953,26.73334503173828 106.87901306152344,-6.272144317626953,26.733346939086914 106.87901306152344,-6.272144317626953,26.733341217041016 106.87901306152344,-6.272144317626953,26.73334503173828 106.87901306152344,-6.272144317626953,26.73334503173828 106.87901306152344,-6.272144317626953,26.73334503173828 106.87901306152344,-6.272144317626953,26.73334312438965 106.87901306152344,-6.272144317626953,26.73334503173828 106.87901306152344,-6.272143840789795,26.733366012573242 106.87901306152344,-6.272143840789795,26.733728408813477 106.87901306152344,-6.272143840789795,26.733972549438477 106.87901306152344,-6.272143840789795,26.734163284301758 106.87901306152344,-6.272143840789795,26.73435401916504 106.87901306152344,-6.272143840789795,26.735422134399414 106.87901306152344,-6.272143840789795,26.73607063293457 106.87901306152344,-6.272143840789795,26.73639488220215 106.87901306152344,-6.272143840789795,26.736543655395508 106.87901306152344,-6.272143840789795,26.73664093017578 106.87901306152344,-6.272143840789795,26.736726760864258 106.87901306152344,-6.272143840789795,26.736324310302734 106.87901306152344,-6.272143840789795,26.73584747314453 106.87901306152344,-6.272143840789795,26.73527717590332 106.87901306152344,-6.272143840789795,26.7363338470459 106.87901306152344,-6.272143840789795,26.73594856262207 106.87901306152344,-6.272143840789795,26.73617935180664 106.87901306152344,-6.272143840789795,26.735647201538086 106.87901306152344,-6.272143840789795,26.73601531982422 106.87901306152344,-6.272143840789795,26.73550033569336 106.87901306152344,-6.272143840789795,26.73514747619629 106.87901306152344,-6.272143840789795,26.735158920288086 106.87901306152344,-6.272143840789795,26.734920501708984 106.87901306152344,-6.272143840789795,26.73492431640625 106.87901306152344,-6.272143840789795,26.7354793548584 106.87901306152344,-6.272143840789795,26.735416412353516 106.87901306152344,-6.272143840789795,26.735342025756836 106.87901306152344,-6.272143840789795,26.735010147094727 106.87901306152344,-6.272143840789795,26.73501205444336 106.87901306152344,-6.272143840789795,26.735015869140625 106.87901306152344,-6.272143840789795,26.73480796813965 106.87901306152344,-6.272143840789795,26.734800338745117 106.87901306152344,-6.272143840789795,26.734800338745117 106.87901306152344,-6.272143840789795,26.73478126525879 106.87901306152344,-6.272143840789795,26.73474884033203 106.87901306152344,-6.272143840789795,26.734752655029297 106.87901306152344,-6.272143840789795,26.734752655029297 106.87901306152344,-6.272143840789795,26.73473358154297 106.87901306152344,-6.272143840789795,26.73473358154297 106.87901306152344,-6.272143840789795,26.73472785949707 106.87901306152344,-6.272143840789795,26.734724044799805 106.87901306152344,-6.272143840789795,26.73475456237793 106.87901306152344,-6.272143840789795,26.734743118286133 106.87901306152344,-6.272143840789795,26.734725952148438 106.87901306152344,-6.272143840789795,26.734384536743164 106.87901306152344,-6.272143363952637,26.733543395996094 106.87902069091797,-6.27214241027832,26.732254028320312 106.87902069091797,-6.272140979766846,26.73055648803711 106.8790283203125,-6.272139072418213,26.727977752685547 106.8790283203125,-6.272136211395264,26.7252197265625 106.87904357910156,-6.272132396697998,26.7216796875 106.8790512084961,-6.272127151489258,26.71421241760254 106.87906646728516,-6.272119998931885,26.706607818603516 106.87908935546875,-6.2721099853515625,26.688045501708984 106.87911224365234,-6.272097587585449,26.670936584472656 106.879150390625,-6.272082328796387,26.658443450927734 106.87918853759766,-6.272064208984375,26.649181365966797 106.87922668457031,-6.272042751312256,26.616125106811523 106.87928009033203,-6.272018909454346,26.58149528503418 106.87933349609375,-6.271993160247803,26.536239624023438 106.87939453125,-6.271963119506836,26.50077247619629 106.87945556640625,-6.271930694580078,26.47325325012207 106.87953186035156,-6.2718939781188965,26.427946090698242 106.87960815429688,-6.271855354309082,26.376667022705078 106.87969207763672,-6.271814346313477,26.323989868164062 106.8797836303711,-6.271770000457764,26.25442886352539 106.87987518310547,-6.271722793579102,26.211454391479492 106.87997436523438,-6.27167272567749,26.135164260864258 106.88007354736328,-6.271620750427246,26.13974380493164 106.88018035888672,-6.271566867828369,26.13416862487793 106.88029479980469,-6.271510601043701,26.14696502685547 106.88041687011719,-6.271456241607666,26.142696380615234 106.88054656982422,-6.271404266357422,26.131641387939453 106.88067626953125,-6.271359443664551,26.15776824951172 106.88080596923828,-6.27131986618042,26.148754119873047 106.88095092773438,-6.271286964416504,26.16267967224121 106.88109588623047,-6.2712578773498535,26.140783309936523 106.8812484741211,-6.271230697631836,26.146995544433594 106.88140106201172,-6.271200656890869,26.155847549438477 106.88155364990234,-6.271162986755371,26.145729064941406 106.88169860839844,-6.271111965179443,26.13930320739746 106.88184356689453,-6.271046161651611,26.143238067626953 106.88198852539062,-6.270962715148926,26.138263702392578 106.88211822509766,-6.270864009857178,26.16360855102539 106.88224792480469,-6.270751953125,26.16048240661621 106.88237762451172,-6.270629405975342,26.15597915649414 106.88251495361328,-6.2704997062683105,26.165863037109375 106.88265991210938,-6.2703657150268555,26.150272369384766 106.88282775878906,-6.270241737365723,26.16615104675293 106.88300323486328,-6.270126819610596,26.166345596313477 106.88319396972656,-6.270020961761475,26.184532165527344 106.88338470458984,-6.2699198722839355,26.133743286132812 106.88359069824219,-6.269818305969238,26.094635009765625 106.8838119506836,-6.269716739654541,26.0657958984375 106.88404846191406,-6.269617080688477,26.012638092041016 106.88427734375,-6.269522666931152,25.974163055419922 106.88451385498047,-6.2694292068481445,26.0617618560791 106.88477325439453,-6.269331455230713,26.12522315979004 106.88502502441406,-6.269237041473389,26.193986892700195 106.88528442382812,-6.269140243530273,26.19646644592285 106.88554382324219,-6.269039154052734,26.208431243896484 106.88581085205078,-6.268935680389404,26.137765884399414 106.8860855102539,-6.268830299377441,25.84541130065918 106.88636016845703,-6.2687225341796875,25.634052276611328 106.88664245605469,-6.268612384796143,25.421693801879883 106.8869400024414,-6.268498420715332,25.223981857299805 106.88725280761719,-6.268372535705566,25.261642456054688 106.88755798339844,-6.268250942230225,25.248619079589844 106.88786315917969,-6.268126964569092,25.290924072265625 106.88819122314453,-6.2679948806762695,25.3893985748291 106.88850402832031,-6.267862796783447,25.581148147583008 106.88882446289062,-6.267727851867676,25.905540466308594 106.88914489746094,-6.267585277557373,26.413896560668945 106.88947296142578,-6.267438888549805,27.138927459716797 106.88980865478516,-6.267280578613281,28.192134857177734 106.89014434814453,-6.267116069793701,29.634851455688477 106.89045715332031,-6.266951560974121,31.490690231323242 106.89079284667969,-6.266768455505371,34.06602478027344 106.89110565185547,-6.266582012176514,37.25193405151367 106.89141845703125,-6.266385555267334,41.12297058105469 106.8917236328125,-6.266182899475098,45.5191650390625 106.89201354980469,-6.2659711837768555,50.47682189941406 106.89230346679688,-6.265748977661133,55.88502883911133 106.89258575439453,-6.265520095825195,61.73959732055664 106.8928451538086,-6.265288829803467,67.82628631591797 106.89310455322266,-6.265047550201416,74.2779312133789 106.89334869384766,-6.264799118041992,81.0248794555664 106.89358520507812,-6.26454496383667,87.97098541259766 106.89380645751953,-6.264288902282715,94.98486328125 106.89402770996094,-6.264027118682861,102.14892578125 106.89422607421875,-6.263770580291748,109.20777893066406 106.89442443847656,-6.2635064125061035,116.53092193603516 106.89462280273438,-6.263248920440674,123.71135711669922 106.89481353759766,-6.26298189163208,131.12266540527344 106.89500427246094,-6.2627177238464355,138.28843688964844 106.89517974853516,-6.26245641708374,145.0875244140625 106.89535522460938,-6.262191295623779,151.62962341308594 106.89551544189453,-6.261926174163818,157.81314086914062 106.89568328857422,-6.261641025543213,164.0828857421875 106.89583587646484,-6.2613677978515625,169.7062225341797 106.89598846435547,-6.261085510253906,175.11973571777344 106.89613342285156,-6.260807991027832,180.0758514404297 106.89627838134766,-6.2605204582214355,184.85440063476562 106.89642333984375,-6.260220050811768,189.4259490966797 106.89656829833984,-6.259914398193359,193.60134887695312 106.89669036865234,-6.259634017944336,196.99119567871094 106.89682006835938,-6.259337902069092,199.99072265625 106.8969497680664,-6.259037971496582,202.24197387695312 106.89707946777344,-6.258735656738281,203.50674438476562 106.89720153808594,-6.25844144821167,203.5867919921875 106.8973159790039,-6.258133411407471,202.37112426757812 106.8974380493164,-6.257826805114746,199.85995483398438 106.89756774902344,-6.257513046264648,195.88380432128906 106.89768981933594,-6.25719690322876,190.38021850585938 106.89783477783203,-6.2568488121032715,182.65208435058594 106.89796447753906,-6.256525039672852,174.06764221191406 106.89810180664062,-6.256173610687256,163.39683532714844 106.89823150634766,-6.255826473236084,151.6792449951172 106.89836120605469,-6.25546407699585,138.47911071777344 106.89850616455078,-6.255060195922852,122.88191986083984 106.89864349365234,-6.2546515464782715,106.40515899658203 106.89876556396484,-6.254251956939697,89.83365631103516 106.89888763427734,-6.25382137298584,71.6507797241211 106.89900207519531,-6.253386497497559,53.154296875 106.89911651611328,-6.252917289733887,33.21562957763672 106.8991928100586,-6.252522945404053,24.624364852905273 106.89923095703125,-6.252257347106934,26.142377853393555 106.89926147460938,-6.252005577087402,23.568323135375977 106.8993148803711,-6.251769065856934,21.57921028137207 106.89938354492188,-6.251555919647217,21.008460998535156 106.89945983886719,-6.25136661529541,20.564105987548828 106.89952850341797,-6.251215934753418,20.294092178344727 106.89958190917969,-6.251094818115234,20.176176071166992 106.89961242675781,-6.250999927520752,20.064552307128906 106.8996353149414,-6.250922679901123,19.95760726928711 106.89964294433594,-6.2508745193481445,19.912141799926758 106.89964294433594,-6.250850677490234,19.903823852539062 106.89964294433594,-6.250846862792969,19.895442962646484 106.89964294433594,-6.250846862792969,19.894289016723633 106.89964294433594,-6.250846862792969,19.893779754638672 106.89964294433594,-6.250846862792969,19.8935546875 106.89964294433594,-6.250846862792969,19.893545150756836 106.89964294433594,-6.250846862792969,19.893497467041016 106.89964294433594,-6.250846862792969,19.89348793029785 106.89964294433594,-6.250846862792969,19.893463134765625 106.89964294433594,-6.250846862792969,19.893451690673828 106.89964294433594,-6.250846862792969,19.893449783325195 106.89964294433594,-6.250846862792969,19.893447875976562 106.89964294433594,-6.250846862792969,19.893447875976562 106.89964294433594,-6.250846862792969,19.893447875976562 106.89964294433594,-6.250846862792969,19.89344596862793 106.89964294433594,-6.250846862792969,19.89344596862793 106.89964294433594,-6.250846862792969,19.893444061279297 106.89964294433594,-6.250846862792969,19.893444061279297 106.89964294433594,-6.250846862792969,19.893444061279297 106.89964294433594,-6.250846862792969,19.893444061279297 106.89964294433594,-6.250846862792969,19.893442153930664 106.89964294433594,-6.250846862792969,19.893442153930664 106.89964294433594,-6.250846862792969,19.893442153930664 106.89964294433594,-6.250846862792969,19.893442153930664 106.89964294433594,-6.250846862792969,19.893442153930664 106.89964294433594,-6.250846862792969,19.893442153930664 106.89964294433594,-6.250846862792969,19.89344024658203 106.89964294433594,-6.250846862792969,19.89344024658203 106.89964294433594,-6.250846862792969,19.89344024658203 106.89964294433594,-6.250846862792969,19.89344024658203 106.89964294433594,-6.250846862792969,19.89344024658203 106.89964294433594,-6.250846862792969,19.89344024658203 106.89964294433594,-6.250846862792969,19.893369674682617 106.89964294433594,-6.250846862792969,19.89345359802246</coordinates>
            </LineString>
        </Placemark>
    </Document>
</kml>
