<?xml version="1.0" encoding="UTF-8"?>
<kml xmlns="http://www.opengis.net/kml/2.2" xmlns:gx="http://www.google.com/kml/ext/2.2">
    <Document id="1">
        <Style id="4">
            <LineStyle id="5">
                <color>ffffff00</color>
                <colorMode>normal</colorMode>
                <width>4</width>
            </LineStyle>
        </Style>
        <name>Log 20251127_221545</name>
        <Placemark id="3">
            <name>Flight Path</name>
            <styleUrl>#4</styleUrl>
            <LineString id="2">
                <extrude>1</extrude>
                <altitudeMode>absolute</altitudeMode>
                <coordinates>106.64386749267578,-6.142455577850342,11.869747161865234 106.64386749267578,-6.142455577850342,11.869750022888184 106.64386749267578,-6.142455577850342,11.8697509765625 106.64386749267578,-6.142455577850342,11.869751930236816 106.64386749267578,-6.142455577850342,11.869754791259766 106.64386749267578,-6.142455577850342,11.869763374328613 106.64386749267578,-6.142455577850342,11.869763374328613 106.64386749267578,-6.142455577850342,11.86976432800293 106.64386749267578,-6.142455577850342,11.869766235351562 106.64386749267578,-6.142455577850342,11.869766235351562 106.64386749267578,-6.142455577850342,11.869767189025879 106.64386749267578,-6.142455577850342,11.869768142700195 106.64386749267578,-6.142455577850342,11.869768142700195 106.64386749267578,-6.142455577850342,11.869769096374512 106.64386749267578,-6.142455577850342,11.869770050048828 106.64386749267578,-6.142455577850342,11.869771003723145 106.64386749267578,-6.142455577850342,11.869771003723145 106.64386749267578,-6.142455577850342,11.869771957397461 106.64386749267578,-6.142455577850342,11.869772911071777 106.64386749267578,-6.142455577850342,11.869772911071777 106.64386749267578,-6.142455577850342,11.869773864746094 106.64386749267578,-6.142455577850342,11.86977481842041 106.64386749267578,-6.142455577850342,11.869775772094727 106.64386749267578,-6.142455577850342,11.869775772094727 106.64386749267578,-6.142455577850342,11.869776725769043 106.64386749267578,-6.142455577850342,11.869778633117676 106.64386749267578,-6.142455577850342,11.86977767944336 106.64386749267578,-6.142455577850342,11.869778633117676 106.64386749267578,-6.142455577850342,11.869780540466309 106.64386749267578,-6.142455577850342,11.869779586791992 106.64386749267578,-6.142455577850342,11.869780540466309 106.64386749267578,-6.142455577850342,11.869782447814941 106.64386749267578,-6.142455577850342,11.869782447814941 106.64386749267578,-6.142455577850342,11.869783401489258 106.64386749267578,-6.142455577850342,11.869784355163574 106.64386749267578,-6.142455577850342,11.86978530883789 106.64386749267578,-6.142455577850342,11.86978530883789 106.64386749267578,-6.142455577850342,11.869786262512207 106.64386749267578,-6.142455577850342,11.869787216186523 106.64386749267578,-6.142455577850342,11.869787216186523 106.64386749267578,-6.142455577850342,11.86978816986084 106.64386749267578,-6.142455577850342,11.869789123535156 106.64386749267578,-6.142455577850342,11.869789123535156 106.64386749267578,-6.142455577850342,11.869790077209473 106.64386749267578,-6.142455577850342,11.869791030883789 106.64386749267578,-6.142455577850342,11.869791030883789 106.64386749267578,-6.142455577850342,11.869791984558105 106.64386749267578,-6.142455577850342,11.869792938232422 106.64386749267578,-6.142455577850342,11.869793891906738 106.64386749267578,-6.142455577850342,11.869793891906738 106.64386749267578,-6.142455577850342,11.869794845581055 106.64386749267578,-6.142455577850342,11.869795799255371 106.64386749267578,-6.142455577850342,11.869795799255371 106.64386749267578,-6.142455577850342,11.869796752929688 106.64386749267578,-6.142455577850342,11.869797706604004 106.64386749267578,-6.142455577850342,11.869797706604004 106.64386749267578,-6.142455577850342,11.86979866027832 106.64386749267578,-6.142455577850342,11.869800567626953 106.64386749267578,-6.142455577850342,11.869800567626953 106.64386749267578,-6.142455577850342,11.86980152130127 106.64386749267578,-6.142455577850342,11.869802474975586 106.64386749267578,-6.142455577850342,11.869802474975586 106.64386749267578,-6.142455577850342,11.869803428649902 106.64386749267578,-6.142455577850342,11.869804382324219 106.64386749267578,-6.142455577850342,11.869804382324219 106.64386749267578,-6.142455577850342,11.869805335998535 106.64386749267578,-6.142455577850342,11.869806289672852 106.64386749267578,-6.142455577850342,11.869806289672852 106.64386749267578,-6.142455577850342,11.869807243347168 106.64386749267578,-6.142455577850342,11.869808197021484 106.64386749267578,-6.142455577850342,11.8698091506958 106.64386749267578,-6.142455577850342,11.869810104370117 106.64386749267578,-6.142455577850342,11.869810104370117 106.64386749267578,-6.142455577850342,11.869831085205078 106.64386749267578,-6.142455577850342,11.871161460876465 106.64386749267578,-6.142455577850342,11.876226425170898 106.64386749267578,-6.142455577850342,11.89605712890625 106.64386749267578,-6.142455101013184,11.906237602233887 106.64386749267578,-6.142455101013184,11.906941413879395 106.64386749267578,-6.142455101013184,11.907062530517578 106.64386749267578,-6.142455101013184,11.907201766967773 106.64386749267578,-6.142455101013184,11.907211303710938 106.64386749267578,-6.142455101013184,11.907235145568848 106.64387512207031,-6.142453193664551,11.87024211883545 106.6438980102539,-6.142444133758545,11.8735990524292 106.64393615722656,-6.142427444458008,11.871915817260742 106.64399719238281,-6.1424031257629395,11.866435050964355 106.64408111572266,-6.142370223999023,11.870485305786133 106.64418029785156,-6.142329216003418,11.868708610534668 106.64429473876953,-6.142280578613281,11.870150566101074 106.6444320678711,-6.142223358154297,11.867827415466309 106.64458465576172,-6.142157077789307,11.854764938354492 106.64476013183594,-6.142086505889893,11.867843627929688 106.64494323730469,-6.142017364501953,11.865020751953125 106.6451644897461,-6.141942501068115,11.862486839294434 106.64540100097656,-6.141861438751221,11.86106014251709 106.64559936523438,-6.141790390014648,11.864038467407227 106.64581298828125,-6.141708850860596,11.859635353088379 106.64608764648438,-6.141597270965576,11.856008529663086 106.64630889892578,-6.141502380371094,11.854293823242188 106.64659881591797,-6.141378402709961,11.858882904052734 106.6468505859375,-6.14127254486084,11.86018180847168 106.64717102050781,-6.141136169433594,11.847647666931152 106.6474380493164,-6.141026496887207,11.855537414550781 106.64772033691406,-6.140911102294922,11.858506202697754 106.64808654785156,-6.140758514404297,11.87533950805664 106.64846801757812,-6.140601634979248,11.911346435546875 106.64888000488281,-6.140437602996826,11.970429420471191 106.64930725097656,-6.140265464782715,12.019242286682129 106.64973449707031,-6.1400980949401855,12.08347225189209 106.6501693725586,-6.139924049377441,14.492281913757324 106.65060424804688,-6.139748573303223,18.69485855102539 106.65096282958984,-6.1396026611328125,22.472782135009766 106.65142822265625,-6.139410018920898,26.852537155151367 106.65189361572266,-6.139221668243408,30.53319549560547 106.65226745605469,-6.139067649841309,33.294307708740234 106.65265655517578,-6.138908863067627,36.086830139160156 106.65306854248047,-6.1387434005737305,39.09769058227539 106.65357208251953,-6.138538360595703,43.12757110595703 106.65406036376953,-6.138340473175049,47.51845932006836 106.65447235107422,-6.138174533843994,51.65262222290039 106.65497589111328,-6.137969017028809,57.14646911621094 106.65547943115234,-6.137765407562256,63.0415153503418 106.65599822998047,-6.137556076049805,69.69405364990234 106.65653991699219,-6.137342929840088,77.35025024414062 106.65693664550781,-6.137198448181152,84.1591567993164 106.65755462646484,-6.136962413787842,95.9305648803711 106.6580810546875,-6.136796951293945,108.21824645996094 106.65862274169922,-6.136658668518066,122.00064086914062 106.65921783447266,-6.136560916900635,137.35244750976562 106.65978240966797,-6.136523723602295,151.34645080566406 106.66033935546875,-6.136544704437256,163.84410095214844 106.66090393066406,-6.136625289916992,174.31719970703125 106.66146850585938,-6.136765956878662,182.9201202392578 106.66205596923828,-6.136973857879639,190.283203125 106.66259002685547,-6.137231349945068,195.264892578125 106.66313171386719,-6.13756799697876,198.850341796875 106.66363525390625,-6.137940406799316,201.6985626220703 106.66410827636719,-6.138335227966309,205.4567413330078 106.66459655761719,-6.138757228851318,210.15455627441406 106.66508483886719,-6.13918924331665,215.18333435058594 106.6656265258789,-6.139659881591797,220.1904296875 106.66610717773438,-6.140085697174072,223.7904510498047 106.66661834716797,-6.1405253410339355,226.93592834472656 106.6671371459961,-6.140968322753906,229.53662109375 106.66765594482422,-6.14141321182251,231.32766723632812 106.66819763183594,-6.1418681144714355,232.5577850341797 106.66873931884766,-6.142330646514893,233.80929565429688 106.66930389404297,-6.142810344696045,234.84658813476562 106.66986083984375,-6.143287658691406,234.79168701171875 106.67045593261719,-6.14379358291626,231.50245666503906 106.67103576660156,-6.144288063049316,225.72132873535156 106.67161560058594,-6.14478063583374,218.12881469726562 106.67222595214844,-6.145305156707764,208.46957397460938 106.6728515625,-6.145833492279053,197.63162231445312 106.67353057861328,-6.146409034729004,185.3852996826172 106.6741943359375,-6.146975994110107,173.1233367919922 106.67486572265625,-6.147546291351318,161.10166931152344 106.67543029785156,-6.148028373718262,151.3033447265625 106.67601776123047,-6.148524761199951,141.00331115722656 106.67672729492188,-6.149126052856445,128.85546875 106.67732238769531,-6.149625778198242,119.4166030883789 106.67804718017578,-6.150241374969482,108.40166473388672 106.67879486083984,-6.150866985321045,98.33453369140625 106.67955780029297,-6.151510715484619,89.20968627929688 106.6803207397461,-6.152154922485352,81.3714828491211 106.68109130859375,-6.152798175811768,74.23150634765625 106.68190002441406,-6.153472900390625,67.58567810058594 106.68268585205078,-6.15413236618042,61.96866989135742 106.68331146240234,-6.154655456542969,57.46047592163086 106.6839599609375,-6.155196666717529,52.96834945678711 106.68476867675781,-6.15586519241333,48.96159744262695 106.68559265136719,-6.1565446853637695,45.656185150146484 106.68637084960938,-6.157188892364502,42.867610931396484 106.68702697753906,-6.157724857330322,40.650081634521484 106.68783569335938,-6.158387660980225,39.21492004394531 106.68866729736328,-6.159063816070557,39.07172775268555 106.68951416015625,-6.159755706787109,39.9260139465332 106.69036865234375,-6.1604485511779785,41.39250946044922 106.6910629272461,-6.1610026359558105,42.67623519897461 106.69207000732422,-6.16181755065918,44.038455963134766 106.69290924072266,-6.162489891052246,44.30577850341797 106.69377136230469,-6.163181304931641,43.55215072631836 106.69461059570312,-6.163854122161865,41.77158737182617 106.6952896118164,-6.164398193359375,39.92507553100586 106.6961898803711,-6.16511344909668,37.083003997802734 106.6970443725586,-6.1657938957214355,34.10678482055664 106.69792938232422,-6.166499137878418,30.94236183166504 106.6986312866211,-6.167057991027832,28.37103271484375 106.69951629638672,-6.16776180267334,25.472557067871094 106.70038604736328,-6.168450832366943,23.141340255737305 106.7012710571289,-6.16914701461792,20.763042449951172 106.70214080810547,-6.169835567474365,18.329618453979492 106.702880859375,-6.170417308807373,16.45612907409668 106.70378112792969,-6.171125888824463,14.051505088806152 106.70467376708984,-6.171821594238281,11.998994827270508 106.70556640625,-6.172511577606201,11.396798133850098 106.70648193359375,-6.173221588134766,11.916773796081543 106.70744323730469,-6.173961162567139,12.859254837036133 106.70838928222656,-6.174682140350342,14.307378768920898 106.70938873291016,-6.175442218780518,16.819358825683594 106.71038055419922,-6.176188945770264,26.384191513061523 106.71135711669922,-6.17692756652832,51.4176139831543 106.71208953857422,-6.177493572235107,71.99468994140625 106.71298217773438,-6.178176403045654,91.79814910888672 106.7138900756836,-6.178864002227783,109.69352722167969 106.71459197998047,-6.179399490356445,122.97383880615234 106.7153091430664,-6.179944038391113,135.13479614257812 106.71623992919922,-6.180644989013672,149.3893585205078 106.71714782714844,-6.181327819824219,161.92152404785156 106.71806335449219,-6.182012557983398,172.8351287841797 106.71903991699219,-6.182737350463867,182.80604553222656 106.719970703125,-6.183419227600098,190.741455078125 106.7207260131836,-6.183972358703613,196.2727813720703 106.72150421142578,-6.184545040130615,201.1630096435547 106.72257995605469,-6.18529748916626,206.73638916015625 106.72338104248047,-6.185902118682861,212.1775360107422 106.72438049316406,-6.186619281768799,220.7828826904297 106.72528839111328,-6.187268257141113,228.89361572265625 106.726318359375,-6.187995910644531,237.94012451171875 106.72708129882812,-6.188534259796143,245.35421752929688 106.7278060913086,-6.189045429229736,252.5933074951172 106.72856140136719,-6.189582824707031,259.7340087890625 106.7295150756836,-6.190280437469482,269.7365417480469 106.73038482666016,-6.190922737121582,276.77593994140625 106.7313232421875,-6.191607475280762,275.7153015136719 106.73219299316406,-6.192261219024658,277.1878356933594 106.7329330444336,-6.192830562591553,280.75030517578125 106.73381805419922,-6.193509578704834,286.7369079589844 106.7347183227539,-6.194210529327393,293.8372497558594 106.735595703125,-6.194886684417725,301.510498046875 106.73656463623047,-6.195631504058838,310.2519836425781 106.73726654052734,-6.196168422698975,316.3814697265625 106.73799133300781,-6.196723937988281,322.5231628417969 106.7388916015625,-6.19741153717041,329.6142272949219 106.73979949951172,-6.198101997375488,335.00177001953125 106.74052429199219,-6.198648929595947,338.29620361328125 106.74139404296875,-6.199308395385742,341.88543701171875 106.74214172363281,-6.1998677253723145,344.4386291503906 106.74302673339844,-6.200533390045166,347.91058349609375 106.74391174316406,-6.201198101043701,351.772705078125 106.7446517944336,-6.201746940612793,354.6905212402344 106.74556732177734,-6.2024335861206055,357.5651550292969 106.74653625488281,-6.2031569480896,359.7973937988281 106.74744415283203,-6.203829288482666,361.6494445800781 106.74832916259766,-6.2044901847839355,363.3744812011719 106.74925231933594,-6.205174446105957,364.757080078125 106.75018310546875,-6.205862522125244,365.7429504394531 106.75114440917969,-6.206581115722656,367.5954284667969 106.75187683105469,-6.207120895385742,369.9377746582031 106.75282287597656,-6.207819938659668,373.9194641113281 106.75375366210938,-6.208507061004639,378.77679443359375 106.7544937133789,-6.2090535163879395,383.2321472167969 106.75521087646484,-6.209580421447754,388.0770568847656 106.75616455078125,-6.2102837562561035,395.0680236816406 106.757080078125,-6.210948944091797,402.2760925292969 106.75801849365234,-6.211632251739502,409.9234924316406 106.75894927978516,-6.212306976318359,417.1454772949219 106.75987243652344,-6.21297025680542,423.96197509765625 106.76060485839844,-6.213497638702393,429.1754150390625 106.76153564453125,-6.214158058166504,435.7641906738281 106.76244354248047,-6.21480655670166,441.6642150878906 106.76335906982422,-6.215461730957031,446.9556579589844 106.76409149169922,-6.215994834899902,450.805908203125 106.76504516601562,-6.216691970825195,455.0336608886719 106.7659683227539,-6.2173662185668945,458.4438171386719 106.76688385009766,-6.218041896820068,462.565185546875 106.76758575439453,-6.21857213973999,465.8203430175781 106.76852416992188,-6.2192559242248535,470.6855163574219 106.76944732666016,-6.219933032989502,475.8455810546875 106.77021026611328,-6.220495700836182,479.02947998046875 106.77113342285156,-6.221166610717773,484.6472473144531 106.77204895019531,-6.221832275390625,492.1758117675781 106.77298736572266,-6.222514629364014,500.3377685546875 106.77388000488281,-6.223154067993164,507.87225341796875 106.77481079101562,-6.223814487457275,515.4639892578125 106.77554321289062,-6.224336624145508,521.4417724609375 106.7764663696289,-6.2249860763549805,528.2589111328125 106.77738189697266,-6.2256317138671875,534.2105102539062 106.7783432006836,-6.226309299468994,539.9962158203125 106.77928161621094,-6.226961135864258,545.3090209960938 106.78021240234375,-6.227609634399414,550.7159423828125 106.78115844726562,-6.228268623352051,556.5279541015625 106.78214263916016,-6.228948593139648,562.4889526367188 106.78288269042969,-6.229462146759033,566.5577392578125 106.78388977050781,-6.23015022277832,571.3199462890625 106.78466796875,-6.230687141418457,574.33203125 106.78562927246094,-6.231345176696777,577.2196655273438 106.78658294677734,-6.23198938369751,579.6174926757812 106.78758239746094,-6.232664585113525,580.9658813476562 106.78858184814453,-6.233333587646484,583.207275390625 106.78953552246094,-6.233968257904053,586.6409301757812 106.79054260253906,-6.234631061553955,590.4381103515625 106.79150390625,-6.235257625579834,594.0362548828125 106.79244232177734,-6.235867023468018,595.1620483398438 106.7934341430664,-6.236507892608643,591.754150390625 106.7942123413086,-6.237003803253174,585.3065185546875 106.79499053955078,-6.237502098083496,575.4719848632812 106.79598236083984,-6.238137722015381,558.5103759765625 106.79676055908203,-6.23862886428833,542.3765869140625 106.79776763916016,-6.239259719848633,519.0316772460938 106.79875183105469,-6.239869594573975,494.3163146972656 106.79975128173828,-6.240480422973633,468.699462890625 106.80086517333984,-6.241137981414795,441.1839904785156 106.8019790649414,-6.241779327392578,414.4454650878906 106.80306243896484,-6.242385387420654,387.2977294921875 106.80424499511719,-6.243029594421387,356.1239929199219 106.80514526367188,-6.2435126304626465,331.9692687988281 106.80631256103516,-6.244117259979248,300.3930358886719 106.80744171142578,-6.244692802429199,269.48858642578125 106.80858612060547,-6.2452616691589355,238.97610473632812 106.80974578857422,-6.245830059051514,209.33872985839844 106.81090545654297,-6.246386528015137,180.26943969726562 106.81210327148438,-6.246953964233398,152.06298828125 106.81329345703125,-6.247506618499756,127.13919830322266 106.81451416015625,-6.248060703277588,104.8905258178711 106.8157958984375,-6.248630046844482,87.07030487060547 106.81707000732422,-6.2491841316223145,73.4034194946289 106.81827545166016,-6.249696254730225,63.89845657348633 106.81927490234375,-6.250112056732178,57.76063919067383 106.8205337524414,-6.250638961791992,51.767696380615234 106.82177734375,-6.25113582611084,49.09650421142578 106.82302856445312,-6.251637935638428,49.853614807128906 106.82429504394531,-6.25213623046875,53.32414245605469 106.82560729980469,-6.252656936645508,59.40132141113281 106.82679748535156,-6.253131866455078,66.36034393310547 106.82801818847656,-6.253620624542236,73.39929962158203 106.829345703125,-6.2541584968566895,79.9365234375 106.83057403564453,-6.2546610832214355,85.9951171875 106.83174896240234,-6.255141258239746,92.69961547851562 106.83295440673828,-6.255630016326904,99.4224853515625 106.83415985107422,-6.256120681762695,104.91312408447266 106.83509063720703,-6.2565107345581055,109.07345581054688 106.8360595703125,-6.256897926330566,113.33657836914062 106.83724975585938,-6.25738525390625,118.71746826171875 106.83843231201172,-6.257870674133301,124.43414306640625 106.83961486816406,-6.258350849151611,130.15582275390625 106.8408203125,-6.258841514587402,135.59666442871094 106.84175109863281,-6.259217739105225,140.06619262695312 106.8429183959961,-6.259688854217529,148.60406494140625 106.84410858154297,-6.260165691375732,158.5032501220703 106.84503936767578,-6.260537147521973,164.67298889160156 106.84624481201172,-6.261017322540283,170.5474853515625 106.84745025634766,-6.261498928070068,174.7190704345703 106.84861755371094,-6.261961936950684,177.91726684570312 106.84977722167969,-6.262421607971191,180.6927032470703 106.85099029541016,-6.262904644012451,182.19407653808594 106.85213470458984,-6.263358116149902,181.2993927001953 106.8531265258789,-6.26375150680542,179.00686645507812 106.85428619384766,-6.264211654663086,175.10198974609375 106.85543060302734,-6.2646613121032715,169.076904296875 106.85657501220703,-6.26510763168335,162.5035400390625 106.85765838623047,-6.265528202056885,156.24725341796875 106.8587417602539,-6.265963077545166,148.58694458007812 106.85958862304688,-6.266321182250977,141.4379119873047 106.86064147949219,-6.266789436340332,130.91165161132812 106.86166381835938,-6.2672600746154785,118.61153411865234 106.86248016357422,-6.267641067504883,110.23635864257812 106.86351013183594,-6.268122673034668,102.6178970336914 106.8645248413086,-6.268597602844238,97.91212463378906 106.86548614501953,-6.269042491912842,95.744873046875 106.8664321899414,-6.269477367401123,94.6303939819336 106.86743927001953,-6.269926071166992,93.79254150390625 106.8681640625,-6.270241737365723,93.32933807373047 106.86909484863281,-6.270633220672607,91.73917388916016 106.8699951171875,-6.271003246307373,87.83132934570312 106.87085723876953,-6.271333694458008,85.78746795654297 106.87177276611328,-6.271647930145264,84.93526458740234 106.87246704101562,-6.27186393737793,83.90650939941406 106.87338256835938,-6.272107124328613,82.78475189208984 106.8740463256836,-6.272242546081543,82.42174530029297 106.8749008178711,-6.272355556488037,82.55364227294922 106.87557220458984,-6.272388458251953,82.90699005126953 106.87637329101562,-6.27237606048584,82.081787109375 106.87703704833984,-6.272347450256348,79.21671295166016 106.87785339355469,-6.272280693054199,73.5595474243164 106.87861633300781,-6.2721638679504395,67.3759994506836 106.87937927246094,-6.2719879150390625,60.59267807006836 106.8801040649414,-6.27177619934082,52.93694305419922 106.88066101074219,-6.271589756011963,46.92035675048828 106.8813705444336,-6.271316051483154,40.26188278198242 106.88204956054688,-6.2710089683532715,35.273075103759766 106.88272094726562,-6.27068567276001,30.59370231628418 106.88323974609375,-6.27042818069458,27.440210342407227 106.8838882446289,-6.270101070404053,26.700489044189453 106.88453674316406,-6.269770622253418,26.78572654724121 106.8850326538086,-6.26952600479126,26.582002639770508 106.88568878173828,-6.269204139709473,26.497900009155273 106.88617706298828,-6.268963813781738,26.142786026000977 106.88665771484375,-6.268723964691162,25.70546531677246 106.88731384277344,-6.268398761749268,25.48533821105957 106.88790893554688,-6.2681121826171875,25.50417709350586 106.88853454589844,-6.267821311950684,25.503097534179688 106.88911437988281,-6.26755428314209,25.504945755004883 106.88955688476562,-6.267348766326904,25.52524757385254 106.89009094238281,-6.267095565795898,25.570581436157227 106.89059448242188,-6.266860008239746,25.634199142456055 106.89110565185547,-6.26663064956665,25.493410110473633 106.89156341552734,-6.2664289474487305,25.46497344970703 106.89199829101562,-6.266229629516602,25.714500427246094 106.892333984375,-6.266070365905762,25.926807403564453 106.89264678955078,-6.265919208526611,26.12881851196289 106.89301300048828,-6.265746116638184,26.328500747680664 106.89334869384766,-6.2655839920043945,26.54312515258789 106.8936538696289,-6.265439987182617,26.71759033203125 106.89388275146484,-6.265329360961914,26.85441017150879 106.89415740966797,-6.265199661254883,27.022327423095703 106.89440155029297,-6.265078544616699,27.16217041015625 106.89463806152344,-6.264965534210205,27.304092407226562 106.89480590820312,-6.264888763427734,27.410493850708008 106.8949966430664,-6.264808177947998,27.41484260559082 106.8951644897461,-6.264743328094482,27.36754608154297 106.89530944824219,-6.264690399169922,27.335180282592773 106.89543151855469,-6.264639854431152,27.30655288696289 106.8955307006836,-6.264590740203857,27.26764488220215 106.89559173583984,-6.264555931091309,27.24944496154785 106.89564514160156,-6.2645263671875,27.24439811706543 106.89569091796875,-6.2645039558410645,27.23391342163086 106.8957290649414,-6.2644829750061035,27.21797752380371 106.895751953125,-6.264470100402832,27.211023330688477 106.89575958251953,-6.264466762542725,27.18227767944336 106.89575958251953,-6.264464378356934,27.186059951782227 106.89575958251953,-6.264464378356934,27.1818904876709 106.89575958251953,-6.264464378356934,27.181964874267578 106.89575958251953,-6.264464378356934,27.181962966918945 106.89575958251953,-6.264464378356934,27.181964874267578 106.89575958251953,-6.264464378356934,27.181964874267578 106.89575958251953,-6.264464378356934,27.18196678161621 106.89575958251953,-6.264464378356934,27.18196678161621 106.89575958251953,-6.264464378356934,27.181968688964844 106.89575958251953,-6.264464378356934,27.181968688964844 106.89575958251953,-6.264464378356934,27.181968688964844 106.89575958251953,-6.264464378356934,27.181970596313477 106.89575958251953,-6.264464378356934,27.18197250366211 106.89575958251953,-6.264464378356934,27.181970596313477 106.89575958251953,-6.264464378356934,27.18197250366211 106.89575958251953,-6.264464378356934,27.18197250366211 106.89575958251953,-6.264464378356934,27.181974411010742 106.89575958251953,-6.264464378356934,27.181974411010742 106.89575958251953,-6.264464378356934,27.181974411010742 106.89575958251953,-6.264464378356934,27.181976318359375 106.89575958251953,-6.264464378356934,27.181978225708008 106.89575958251953,-6.264464378356934,27.181978225708008 106.89575958251953,-6.264464378356934,27.181978225708008 106.89575958251953,-6.264464378356934,27.181978225708008 106.89575958251953,-6.264464378356934,27.18198013305664 106.89575958251953,-6.264464378356934,27.181982040405273 106.89575958251953,-6.264464378356934,27.181982040405273 106.89575958251953,-6.264464378356934,27.181982040405273 106.89575958251953,-6.264464378356934,27.181983947753906 106.89575958251953,-6.264464378356934,27.181983947753906 106.89575958251953,-6.264464378356934,27.18198585510254 106.89575958251953,-6.264464378356934,27.18198585510254 106.89575958251953,-6.264464378356934,27.18198585510254 106.89575958251953,-6.264464378356934,27.181987762451172 106.89575958251953,-6.264464378356934,27.181987762451172 106.89575958251953,-6.264464378356934,27.181989669799805 106.89575958251953,-6.264464378356934,27.181989669799805 106.89575958251953,-6.264464378356934,27.181989669799805 106.89575958251953,-6.264464378356934,27.181991577148438 106.89575958251953,-6.264464378356934,27.181991577148438 106.89575958251953,-6.264464378356934,27.18199348449707 106.89575958251953,-6.264464378356934,27.18199348449707 106.89575958251953,-6.264464378356934,27.18199348449707 106.89575958251953,-6.264464378356934,27.181995391845703 106.89575958251953,-6.264464378356934,27.181995391845703 106.89575958251953,-6.264464378356934,27.18199920654297 106.89575958251953,-6.264464378356934,27.18199920654297 106.89575958251953,-6.264464378356934,27.181997299194336 106.89575958251953,-6.264464378356934,27.18199920654297 106.89575958251953,-6.264464378356934,27.1820011138916 106.89575958251953,-6.264464378356934,27.1820011138916 106.89575958251953,-6.264464378356934,27.1820011138916 106.89575958251953,-6.264464378356934,27.182003021240234 106.89575958251953,-6.264464378356934,27.182003021240234 106.89575958251953,-6.264464378356934,27.182004928588867 106.89575958251953,-6.264464378356934,27.182004928588867 106.89575958251953,-6.264464378356934,27.1820068359375 106.89575958251953,-6.264464378356934,27.182004928588867 106.89575958251953,-6.264464378356934,27.1820068359375 106.89575958251953,-6.264464378356934,27.1820068359375 106.89575958251953,-6.264464378356934,27.182008743286133 106.89575958251953,-6.264464378356934,27.182008743286133 106.89575958251953,-6.264464378356934,27.182010650634766 106.89575958251953,-6.264464378356934,27.182010650634766 106.89575958251953,-6.264464378356934,27.1820125579834 106.89575958251953,-6.264464378356934,27.1820125579834 106.89575958251953,-6.264464378356934,27.1820125579834 106.89575958251953,-6.264464378356934,27.18201446533203 106.89575958251953,-6.264464378356934,27.18201446533203 106.89575958251953,-6.264464378356934,27.18201446533203 106.89575958251953,-6.264464378356934,27.182016372680664 106.89575958251953,-6.264464378356934,27.182018280029297 106.89575958251953,-6.264464378356934,27.182018280029297 106.89575958251953,-6.264464378356934,27.182018280029297 106.89575958251953,-6.264464378356934,27.182018280029297 106.89575958251953,-6.264464378356934,27.18202018737793 106.89575958251953,-6.264464378356934,27.18202018737793 106.89575958251953,-6.264464378356934,27.18202018737793 106.89575958251953,-6.264464378356934,27.182022094726562 106.89575958251953,-6.264464378356934,27.182024002075195 106.89575958251953,-6.264464378356934,27.182022094726562 106.89575958251953,-6.264464378356934,27.182024002075195 106.89575958251953,-6.264464378356934,27.182024002075195 106.89575958251953,-6.264464378356934,27.182024002075195 106.89575958251953,-6.264464378356934,27.182025909423828 106.89575958251953,-6.264464378356934,27.18202781677246 106.89575958251953,-6.264464378356934,27.18202781677246 106.89575958251953,-6.264464378356934,27.18202781677246 106.89575958251953,-6.264464378356934,27.182029724121094 106.89575958251953,-6.264464378356934,27.182029724121094 106.89575958251953,-6.264464378356934,27.182029724121094 106.89575958251953,-6.264464378356934,27.182029724121094 106.89575958251953,-6.264464378356934,27.182031631469727 106.89575958251953,-6.264464378356934,27.18203353881836 106.89575958251953,-6.264464378356934,27.18203353881836 106.89575958251953,-6.264464378356934,27.18203353881836 106.89575958251953,-6.264464378356934,27.182035446166992</coordinates>
            </LineString>
        </Placemark>
    </Document>
</kml>
