<?xml version="1.0" encoding="UTF-8"?>
<kml xmlns="http://www.opengis.net/kml/2.2" xmlns:gx="http://www.google.com/kml/ext/2.2">
    <Document id="1">
        <Style id="4">
            <LineStyle id="5">
                <color>ffffff00</color>
                <colorMode>normal</colorMode>
                <width>4</width>
            </LineStyle>
        </Style>
        <name>Log 20251125_141156</name>
        <Placemark id="3">
            <name>Flight Path</name>
            <styleUrl>#4</styleUrl>
            <LineString id="2">
                <extrude>1</extrude>
                <altitudeMode>absolute</altitudeMode>
                <coordinates>106.64386749267578,-6.142455577850342,11.677433967590332 106.64386749267578,-6.142455577850342,11.680405616760254 106.64386749267578,-6.142455101013184,11.682337760925293 106.64386749267578,-6.142455101013184,11.682063102722168 106.64386749267578,-6.142455101013184,11.682302474975586</coordinates>
            </LineString>
        </Placemark>
    </Document>
</kml>
