<?xml version="1.0" encoding="UTF-8"?>
<kml xmlns="http://www.opengis.net/kml/2.2" xmlns:gx="http://www.google.com/kml/ext/2.2">
    <Document id="1">
        <Style id="4">
            <LineStyle id="5">
                <color>ffffff00</color>
                <colorMode>normal</colorMode>
                <width>4</width>
            </LineStyle>
        </Style>
        <name>Log 20251125_141955</name>
        <Placemark id="3">
            <name>Flight Path</name>
            <styleUrl>#4</styleUrl>
            <LineString id="2">
                <extrude>1</extrude>
                <altitudeMode>absolute</altitudeMode>
                <coordinates>106.65855407714844,-6.136420249938965,103.99940490722656 106.65913391113281,-6.136188507080078,90.6003646850586 106.65946960449219,-6.136053562164307,80.53459167480469 106.65982055664062,-6.135913848876953,71.65180969238281 106.66019439697266,-6.1357741355896,65.0840072631836 106.66056823730469,-6.13564920425415,60.07550048828125 106.66096496582031,-6.135512828826904,55.992435455322266 106.66133117675781,-6.135388374328613,53.66184616088867 106.66171264648438,-6.135256290435791,53.050514221191406 106.66207885742188,-6.135125160217285,53.66153335571289 106.66246795654297,-6.134983539581299,54.97062301635742 106.662841796875,-6.1348419189453125,56.930450439453125 106.66322326660156,-6.134697914123535,59.284088134765625 106.66361236572266,-6.13454532623291,62.244300842285156 106.66398620605469,-6.134397029876709,65.54114532470703 106.66437530517578,-6.134241104125977,68.8116683959961 106.66475677490234,-6.134089469909668,71.424560546875 106.66513061523438,-6.133937358856201,73.59224700927734 106.66551208496094,-6.133784294128418,75.6220703125 106.66587829589844,-6.133636474609375,77.2983627319336 106.66624450683594,-6.133491039276123,78.64695739746094 106.66661071777344,-6.133346080780029,79.68880462646484 106.66698455810547,-6.1331987380981445,80.4876937866211 106.6673583984375,-6.133054256439209,81.07036590576172 106.667724609375,-6.132911205291748,81.4747314453125 106.6680908203125,-6.132771015167236,81.7357177734375 106.66851043701172,-6.13261079788208,81.96611022949219 106.66890716552734,-6.132460594177246,82.19891357421875 106.6692886352539,-6.132319450378418,82.49557495117188 106.66967010498047,-6.13217830657959,83.044921875 106.67005157470703,-6.1320366859436035,83.84873962402344 106.6704330444336,-6.131899833679199,84.91184997558594 106.67081451416016,-6.131762981414795,86.30845642089844 106.67118835449219,-6.131628513336182,88.03968811035156 106.67157745361328,-6.131494998931885,90.12235260009766 106.67195892333984,-6.131364345550537,92.60578918457031 106.6723403930664,-6.131234169006348,95.47052001953125 106.6727066040039,-6.131107330322266,98.49874877929688 106.6730728149414,-6.130982398986816,101.87417602539062 106.6734619140625,-6.130847930908203,105.93494415283203 106.67383575439453,-6.130720615386963,109.97811889648438 106.6741943359375,-6.130594253540039,114.16680145263672 106.67456817626953,-6.130461692810059,118.60619354248047 106.6749267578125,-6.130331039428711,123.09854125976562 106.67528533935547,-6.1301960945129395,127.35997772216797 106.67564392089844,-6.130058288574219,131.24574279785156 106.67599487304688,-6.129915237426758,134.50930786132812 106.67634582519531,-6.129757881164551,137.1371307373047 106.67669677734375,-6.1295857429504395,138.80267333984375 106.67703247070312,-6.129397869110107,139.7924346923828 106.67735290527344,-6.1291913986206055,140.55963134765625 106.67766571044922,-6.128960609436035,141.14248657226562 106.677978515625,-6.128697395324707,141.5989227294922 106.6782455444336,-6.128432750701904,142.11610412597656 106.67849731445312,-6.128146648406982,142.74034118652344 106.67872619628906,-6.127854347229004,143.224365234375 106.678955078125,-6.127521991729736,143.67491149902344 106.67915344238281,-6.127191543579102,144.2454071044922 106.6793441772461,-6.126828670501709,144.93385314941406 106.67951202392578,-6.126470565795898,145.634765625 106.67965698242188,-6.1261115074157715,146.48439025878906 106.6797866821289,-6.125761985778809,147.49099731445312 106.6799087524414,-6.125392436981201,148.65293884277344 106.68001556396484,-6.125034809112549,149.77488708496094 106.68011474609375,-6.1246562004089355,150.89341735839844 106.68021392822266,-6.124262809753418,152.01431274414062 106.6802978515625,-6.123892784118652,152.80563354492188 106.68037414550781,-6.123511791229248,153.32232666015625 106.68045806884766,-6.123106002807617,153.66615295410156 106.68052673339844,-6.122669696807861,153.76321411132812 106.68058013916016,-6.122278690338135,153.69430541992188 106.68062591552734,-6.121891498565674,153.6227569580078 106.6806640625,-6.121493339538574,153.70303344726562 106.6806869506836,-6.121091842651367,153.8646697998047 106.68070983886719,-6.120697975158691,154.04466247558594 106.68071746826172,-6.120293617248535,154.2383270263672 106.68071746826172,-6.119898319244385,154.49667358398438 106.68070983886719,-6.119492530822754,155.00491333007812 106.68069458007812,-6.119096279144287,155.9104766845703 106.68067169189453,-6.11867618560791,157.185791015625 106.6806411743164,-6.118274211883545,158.75755310058594 106.68061065673828,-6.1178693771362305,160.79238891601562 106.6805648803711,-6.117458343505859,163.54078674316406 106.6805191040039,-6.117045879364014,166.94476318359375 106.68047332763672,-6.116661548614502,170.41616821289062 106.680419921875,-6.11625862121582,174.15333557128906 106.68036651611328,-6.115879058837891,177.75634765625 106.68031311035156,-6.1155009269714355,181.34481811523438 106.68025970458984,-6.115121841430664,185.02767944335938 106.6801986694336,-6.11472225189209,188.94760131835938 106.6801528930664,-6.114353656768799,192.42941284179688 106.68009185791016,-6.113973617553711,195.54541015625 106.68004608154297,-6.113603115081787,198.0303955078125 106.67999267578125,-6.1132307052612305,200.01380920410156 106.67993927001953,-6.1128458976745605,201.62078857421875 106.67988586425781,-6.112473011016846,202.83584594726562 106.67984008789062,-6.112094402313232,203.8471221923828 106.67979431152344,-6.111717224121094,204.6907501220703 106.67974853515625,-6.111303329467773,205.38851928710938 106.67970275878906,-6.110919952392578,205.87698364257812 106.6796646118164,-6.1105265617370605,206.255126953125 106.67962646484375,-6.1101508140563965,206.47216796875 106.6795883178711,-6.109767913818359,206.53672790527344 106.67955780029297,-6.109379768371582,206.49102783203125 106.67951965332031,-6.108973503112793,206.52455139160156 106.67948913574219,-6.1085710525512695,206.89813232421875 106.67945861816406,-6.108179092407227,207.55963134765625 106.67942810058594,-6.10778284072876,208.60421752929688 106.67939758300781,-6.107395648956299,210.13882446289062 106.67936706542969,-6.106997489929199,212.38194274902344 106.67933654785156,-6.10660457611084,215.0285186767578 106.67931365966797,-6.106229305267334,217.63665771484375 106.67928314208984,-6.105849742889404,220.19801330566406 106.67926025390625,-6.105457782745361,222.6084747314453 106.67922973632812,-6.105081558227539,224.60687255859375 106.67920684814453,-6.104689121246338,226.3687286376953 106.67918395996094,-6.104276180267334,227.9188995361328 106.67915344238281,-6.103877067565918,229.0995635986328 106.67913055419922,-6.103484630584717,229.9513702392578 106.67911529541016,-6.103082180023193,230.5256805419922 106.67909240722656,-6.102696418762207,230.82192993164062 106.67906951904297,-6.102301120758057,230.97361755371094 106.67904663085938,-6.101902961730957,231.1574249267578 106.67903137207031,-6.101502418518066,231.38209533691406 106.67900848388672,-6.1011061668396,231.6280059814453 106.67899322509766,-6.100722789764404,231.8956756591797 106.6789779663086,-6.1003217697143555,232.18817138671875 106.678955078125,-6.099920272827148,232.48910522460938 106.67893981933594,-6.099525451660156,232.8058319091797 106.67892456054688,-6.099133014678955,233.05776977539062 106.67890167236328,-6.098702907562256,233.11231994628906 106.67887878417969,-6.098297119140625,232.98617553710938 106.67886352539062,-6.097872734069824,232.75210571289062 106.67884063720703,-6.097471237182617,232.48333740234375 106.67881774902344,-6.097070693969727,232.2010498046875 106.67879486083984,-6.096655368804932,231.96856689453125 106.67876434326172,-6.096253871917725,231.8467254638672 106.67874145507812,-6.095843315124512,231.87283325195312 106.6787109375,-6.095426082611084,232.0205535888672 106.67868041992188,-6.095012187957764,232.27212524414062 106.67864227294922,-6.094607830047607,232.6470947265625 106.67860412597656,-6.0941996574401855,233.18641662597656 106.6785659790039,-6.093788146972656,233.8937530517578 106.67852783203125,-6.093378067016602,234.70021057128906 106.67848205566406,-6.092972278594971,235.5672607421875 106.67843627929688,-6.092564582824707,236.5540008544922 106.67839050292969,-6.092164993286133,237.7504119873047 106.67833709716797,-6.091760158538818,239.18606567382812 106.67828369140625,-6.091343402862549,240.5108642578125 106.67823028564453,-6.090938568115234,241.82681274414062 106.67817687988281,-6.090539455413818,243.51930236816406 106.6781234741211,-6.090132236480713,245.54595947265625 106.67807006835938,-6.089728355407715,247.85421752929688 106.67801666259766,-6.0893378257751465,250.3462371826172 106.67797088623047,-6.0889410972595215,252.9997100830078 106.67792510986328,-6.088560104370117,255.49542236328125 106.67787170410156,-6.08814811706543,257.8891296386719 106.6778335571289,-6.087759971618652,259.69451904296875 106.67778778076172,-6.087367057800293,261.041259765625 106.67774963378906,-6.086956977844238,261.4036865234375 106.6777114868164,-6.0865373611450195,260.3691101074219 106.67767333984375,-6.0861430168151855,258.92254638671875 106.67764282226562,-6.085750102996826,257.47845458984375 106.67760467529297,-6.085339546203613,255.94100952148438 106.67756652832031,-6.084920883178711,254.1505889892578 106.67752838134766,-6.084489822387695,252.08132934570312 106.67748260498047,-6.084068775177002,250.26182556152344 106.67743682861328,-6.083621501922607,249.103759765625 106.67738342285156,-6.0831828117370605,248.25035095214844 106.67733001708984,-6.082759857177734,247.58824157714844 106.67727661132812,-6.082316875457764,247.0626220703125 106.67721557617188,-6.081872940063477,246.39947509765625 106.67716217041016,-6.081424236297607,245.29176330566406 106.67710876464844,-6.080990791320801,244.06710815429688 106.67704772949219,-6.080547332763672,242.74560546875 106.67699432373047,-6.08009147644043,241.35923767089844 106.67694091796875,-6.0796427726745605,239.95982360839844 106.67688751220703,-6.079177379608154,238.44520568847656 106.67682647705078,-6.0787129402160645,236.94259643554688 106.6767807006836,-6.0782647132873535,235.52874755859375 106.67672729492188,-6.0778117179870605,234.18984985351562 106.67667388916016,-6.077328205108643,232.87193298339844 106.67662048339844,-6.0768866539001465,231.769287109375 106.67657470703125,-6.076444625854492,230.7830810546875 106.67652893066406,-6.075985908508301,230.06854248046875 106.67647552490234,-6.075508117675781,229.71083068847656 106.67642974853516,-6.07503604888916,229.766357421875 106.67638397216797,-6.074578762054443,230.2220458984375 106.67633056640625,-6.074101448059082,231.09124755859375 106.67628479003906,-6.073647975921631,232.29541015625 106.67623901367188,-6.073202133178711,233.8532257080078 106.67618560791016,-6.072729587554932,235.7317657470703 106.67613983154297,-6.072291374206543,237.9299774169922 106.67607116699219,-6.071839809417725,240.2270050048828 106.67597198486328,-6.071409702301025,241.06301879882812 106.67579650878906,-6.070993423461914,240.59591674804688 106.67556762695312,-6.070613384246826,238.4053497314453 106.67527770996094,-6.070274353027344,234.0520782470703 106.67494201660156,-6.0699944496154785,227.8153076171875 106.67455291748047,-6.069767951965332,219.24240112304688 106.67411041259766,-6.069609642028809,208.48638916015625 106.67366790771484,-6.06953763961792,197.04974365234375 106.67318725585938,-6.069547176361084,184.20741271972656 106.6727066040039,-6.069647789001465,171.1543731689453 106.67224884033203,-6.069836139678955,158.74632263183594 106.67184448242188,-6.070093631744385,148.07583618164062 106.67146301269531,-6.070441722869873,138.58535766601562 106.67115020751953,-6.070842266082764,131.66477966308594 106.6708984375,-6.071315765380859,127.51598358154297 106.67073822021484,-6.071783065795898,126.63483428955078 106.670654296875,-6.072310447692871,129.00144958496094 106.670654296875,-6.072816371917725,134.4324951171875 106.67072296142578,-6.073302268981934,142.64306640625 106.67086791992188,-6.073765277862549,153.80596923828125 106.67107391357422,-6.074186325073242,165.99305725097656 106.67131042480469,-6.074550151824951,178.13148498535156 106.67156982421875,-6.07489013671875,189.26263427734375 106.67184448242188,-6.075221061706543,197.08251953125 106.672119140625,-6.075575828552246,202.15335083007812 106.67239379882812,-6.07591438293457,202.2718048095703 106.67264556884766,-6.076242923736572,200.4522247314453 106.67290496826172,-6.076589107513428,198.78543090820312 106.67317199707031,-6.076939105987549,196.9927520751953</coordinates>
            </LineString>
        </Placemark>
    </Document>
</kml>
