<?xml version="1.0" encoding="UTF-8"?>
<kml xmlns="http://www.opengis.net/kml/2.2" xmlns:gx="http://www.google.com/kml/ext/2.2">
    <Document id="1">
        <Style id="4">
            <LineStyle id="5">
                <color>ffffff00</color>
                <colorMode>normal</colorMode>
                <width>4</width>
            </LineStyle>
        </Style>
        <name>Log 20251125_144040</name>
        <Placemark id="3">
            <name>Flight Path</name>
            <styleUrl>#4</styleUrl>
            <LineString id="2">
                <extrude>1</extrude>
                <altitudeMode>absolute</altitudeMode>
                <coordinates>106.64386749267578,-6.142455101013184,11.679652214050293 106.64386749267578,-6.142455101013184,11.679717063903809 106.64386749267578,-6.142455101013184,11.680298805236816 106.64386749267578,-6.142455101013184,11.679749488830566 106.64386749267578,-6.142455101013184,11.680167198181152 106.64386749267578,-6.142455101013184,11.680279731750488 106.64386749267578,-6.142455101013184,11.680194854736328 106.64386749267578,-6.142455101013184,11.68005657196045 106.64386749267578,-6.142455101013184,11.68038272857666 106.64386749267578,-6.142455101013184,11.680030822753906 106.64386749267578,-6.142455101013184,11.679747581481934 106.64386749267578,-6.142455101013184,11.680113792419434 106.64386749267578,-6.142455101013184,11.679998397827148 106.64386749267578,-6.142455101013184,11.679909706115723 106.64386749267578,-6.142455101013184,11.679964065551758 106.64386749267578,-6.142455101013184,11.680025100708008 106.64386749267578,-6.142455101013184,11.680030822753906 106.64386749267578,-6.142455101013184,11.68022632598877 106.64386749267578,-6.142455101013184,11.680304527282715 106.64386749267578,-6.142455101013184,11.679776191711426 106.64386749267578,-6.142455101013184,11.680032730102539 106.64386749267578,-6.142455101013184,11.680215835571289 106.64386749267578,-6.142455101013184,11.680105209350586 106.64386749267578,-6.142455101013184,11.681546211242676 106.64386749267578,-6.142455101013184,11.681986808776855 106.64386749267578,-6.142455101013184,11.682862281799316 106.64387512207031,-6.142453193664551,11.673276901245117 106.64389038085938,-6.142443656921387,11.677970886230469 106.6439208984375,-6.142427444458008,11.67895221710205 106.64396667480469,-6.142394065856934,11.674481391906738 106.64402770996094,-6.142346382141113,11.676077842712402 106.64408874511719,-6.14228630065918,11.681777954101562 106.6441650390625,-6.142232418060303,11.680096626281738 106.6442642211914,-6.142189979553223,11.681618690490723 106.64436340332031,-6.142151832580566,11.68202018737793 106.64447021484375,-6.142107963562012,11.669766426086426 106.64458465576172,-6.142055511474609,11.675572395324707 106.64469909667969,-6.14199686050415,11.681031227111816 106.64482879638672,-6.141928672790527,11.682467460632324 106.64495849609375,-6.141852378845215,11.685808181762695 106.64510345458984,-6.1417717933654785,11.691137313842773 106.64524841308594,-6.141682147979736,11.688974380493164 106.64543151855469,-6.141569137573242,11.684788703918457 106.64564514160156,-6.141441822052002,11.703580856323242 106.6458511352539,-6.141323089599609,11.696041107177734 106.64607238769531,-6.141206741333008,11.699076652526855 106.64627075195312,-6.141106128692627,11.700084686279297 106.64646911621094,-6.141014575958252,11.701408386230469 106.64666748046875,-6.140922546386719,11.703612327575684 106.64688873291016,-6.140832901000977,11.747201919555664 106.64715576171875,-6.140727996826172,12.23344612121582 106.64742279052734,-6.140632152557373,13.327197074890137 106.64765167236328,-6.140556812286377,14.487963676452637 106.64788818359375,-6.140483856201172,15.822478294372559 106.64813995361328,-6.140416622161865,17.114030838012695 106.64838409423828,-6.140354156494141,18.4659366607666 106.648681640625,-6.14028263092041,20.751188278198242 106.64897918701172,-6.140216827392578,23.695316314697266 106.64922332763672,-6.140163898468018,26.53643226623535 106.6495361328125,-6.140102863311768,30.39824676513672 106.64984893798828,-6.140047550201416,34.5989875793457 106.65011596679688,-6.140005588531494,38.487300872802734 106.6503677368164,-6.139970779418945,42.500244140625 106.65062713623047,-6.139941215515137,46.875343322753906 106.65090942382812,-6.1399149894714355,51.8386116027832 106.65117645263672,-6.139897346496582,56.85729217529297 106.65142822265625,-6.139886856079102,61.6547966003418 106.65167999267578,-6.139883518218994,66.7099838256836 106.65194702148438,-6.139886856079102,71.94402313232422 106.6521987915039,-6.13989782333374,77.36067962646484 106.65252685546875,-6.1399245262146,83.57492065429688 106.65281677246094,-6.139959812164307,89.09230041503906 106.65304565429688,-6.13999605178833,93.4383544921875 106.65332794189453,-6.140049934387207,98.36175537109375 106.65361785888672,-6.140120506286621,103.19037628173828 106.65388488769531,-6.140198707580566,107.3321533203125 106.65411376953125,-6.140275001525879,110.49504852294922 106.65434265136719,-6.140364170074463,113.45614624023438 106.65460968017578,-6.140482425689697,116.54059600830078 106.65486907958984,-6.140615463256836,119.23918151855469 106.65508270263672,-6.140737533569336,121.2116470336914 106.6552963256836,-6.140874862670898,123.02398681640625 106.65554809570312,-6.141059398651123,124.96638488769531 106.65579223632812,-6.141263008117676,126.6329116821289 106.6560287475586,-6.141489028930664,128.0821075439453 106.65620422363281,-6.141679286956787,128.99400329589844 106.65642547607422,-6.141948699951172,129.46490478515625 106.65663146972656,-6.142207622528076,129.32713317871094 106.65680694580078,-6.142425537109375,129.08900451660156 106.65699005126953,-6.142655372619629,129.0226593017578 106.65721893310547,-6.142927169799805,129.76649475097656 106.6574478149414,-6.143190383911133,131.4712677001953</coordinates>
            </LineString>
        </Placemark>
    </Document>
</kml>
