<?xml version="1.0" encoding="UTF-8"?>
<kml xmlns="http://www.opengis.net/kml/2.2" xmlns:gx="http://www.google.com/kml/ext/2.2">
    <Document id="1">
        <Style id="4">
            <LineStyle id="5">
                <color>ffffff00</color>
                <colorMode>normal</colorMode>
                <width>4</width>
            </LineStyle>
        </Style>
        <name>Log 20251127_163500</name>
        <Placemark id="3">
            <name>Flight Path</name>
            <styleUrl>#4</styleUrl>
            <LineString id="2">
                <extrude>1</extrude>
                <altitudeMode>absolute</altitudeMode>
                <coordinates>106.64386749267578,-6.142455101013184,11.896392822265625 106.64386749267578,-6.142455101013184,11.89642333984375 106.64386749267578,-6.142455101013184,11.896441459655762 106.64386749267578,-6.142455101013184,11.896462440490723 106.64386749267578,-6.142455101013184,11.896475791931152 106.64386749267578,-6.142453670501709,11.869338035583496 106.64389038085938,-6.1424455642700195,11.872333526611328 106.6439208984375,-6.142433166503906,11.87176513671875 106.64396667480469,-6.142416000366211,11.866033554077148 106.6440200805664,-6.142394542694092,11.864097595214844 106.64408111572266,-6.142368316650391,11.869152069091797 106.64418029785156,-6.142329692840576,11.86805248260498 106.644287109375,-6.142284393310547,11.870255470275879 106.64439392089844,-6.142238616943359,11.867919921875 106.64451599121094,-6.142187118530273,11.853654861450195 106.64466094970703,-6.142120361328125,11.864356994628906 106.64482879638672,-6.142049789428711,11.856078147888184 106.64501953125,-6.141971111297607,11.86185073852539 106.64522552490234,-6.141890048980713,11.857065200805664 106.64543914794922,-6.141803741455078,11.861397743225098 106.64567565917969,-6.141707420349121,11.859874725341797 106.64593505859375,-6.141603946685791,11.860160827636719 106.64620971679688,-6.1414923667907715,11.852948188781738 106.646484375,-6.141381740570068,11.851195335388184 106.64678192138672,-6.141258716583252,11.859505653381348 106.6470947265625,-6.14113187789917,11.851710319519043 106.64742279052734,-6.14099645614624,11.854188919067383 106.64775848388672,-6.1408610343933105,11.847603797912598 106.64804077148438,-6.140743732452393,11.84142017364502 106.64839172363281,-6.140600681304932,11.863425254821777 106.64875793457031,-6.140450954437256,11.887064933776855 106.64913177490234,-6.140300273895264,11.899930000305176 106.6495132446289,-6.140145301818848,11.993509292602539 106.64993286132812,-6.139974594116211,12.70988655090332 106.65032958984375,-6.139812469482422,13.322397232055664 106.65069580078125,-6.139660835266113,13.854907989501953 106.65116119384766,-6.13947057723999,14.943554878234863 106.65162658691406,-6.139280796051025,16.2679500579834 106.652099609375,-6.139086723327637,18.26626968383789 106.65260314941406,-6.138894081115723,21.859506607055664 106.6530990600586,-6.138723373413086,27.116331100463867 106.65361022949219,-6.138578414916992,34.525421142578125 106.65400695800781,-6.138493061065674,41.59478759765625 106.65451049804688,-6.138426303863525,51.542503356933594 106.65503692626953,-6.138408184051514,62.11318588256836 106.65544891357422,-6.138430595397949,69.67198181152344 106.6558609008789,-6.1384711265563965,76.39727783203125 106.65646362304688,-6.138550758361816,86.0205078125 106.6568832397461,-6.138622283935547,92.58200073242188 106.6573257446289,-6.138709545135498,99.31932830810547 106.6578598022461,-6.138828277587891,107.62731170654297 106.65827941894531,-6.138931751251221,114.41887664794922 106.65882873535156,-6.139080047607422,123.8879165649414 106.65934753417969,-6.139236927032471,133.54119873046875 106.65985870361328,-6.139412879943848,143.94717407226562 106.66029357910156,-6.139581680297852,153.3358154296875 106.66080474853516,-6.139816761016846,165.3425750732422 106.66122436523438,-6.140041351318359,175.45986938476562 106.66169738769531,-6.1403398513793945,187.36563110351562 106.66206359863281,-6.1406049728393555,196.4900360107422 106.66248321533203,-6.140970230102539,206.5819854736328 106.66285705566406,-6.141361236572266,215.20550537109375 106.6632080078125,-6.141788005828857,222.64584350585938 106.66353607177734,-6.14226770401001,229.15975952148438 106.66378021240234,-6.142680644989014,233.9189453125 106.66404724121094,-6.143250465393066,239.2952117919922 106.66425323486328,-6.143799304962158,243.65933227539062 106.6644287109375,-6.144420623779297,247.86627197265625 106.66455078125,-6.145010471343994,251.11013793945312 106.66462707519531,-6.145634174346924,253.95347595214844 106.6646728515625,-6.146271228790283,256.7230529785156 106.66468048095703,-6.146924018859863,259.49945068359375 106.6646728515625,-6.147606372833252,261.2705078125 106.66465759277344,-6.148270130157471,262.2041015625 106.66463470458984,-6.148858070373535,262.6463623046875 106.66461181640625,-6.149580955505371,263.6103820800781 106.66458892822266,-6.150327682495117,265.35809326171875 106.66456604003906,-6.151019096374512,267.4107360839844 106.66455078125,-6.151716709136963,269.85943603515625 106.66454315185547,-6.152432441711426,272.8941650390625 106.66453552246094,-6.153183937072754,276.2626037597656 106.6645278930664,-6.153904914855957,279.58697509765625 106.66451263427734,-6.154645919799805,283.04718017578125 106.66450500488281,-6.155391693115234,286.3240051269531 106.66448974609375,-6.156164646148682,289.6917724609375 106.66447448730469,-6.156905174255371,292.93231201171875 106.6644515991211,-6.157661437988281,296.14166259765625 106.6644287109375,-6.158287048339844,298.75054931640625 106.6644058227539,-6.159052848815918,301.7074279785156 106.66437530517578,-6.159818172454834,304.2847900390625 106.66435241699219,-6.160608291625977,306.90704345703125 106.6643295288086,-6.161453723907471,309.7938537597656 106.66432189941406,-6.162265300750732,313.18902587890625 106.66432189941406,-6.163063049316406,317.2440490722656 106.66433715820312,-6.163905143737793,322.0489196777344 106.66436004638672,-6.164719581604004,327.18072509765625 106.6644058227539,-6.165547847747803,332.5892333984375 106.6644515991211,-6.166386127471924,338.00531005859375 106.66451263427734,-6.167231559753418,343.1831359863281 106.66458129882812,-6.168087005615234,348.3282775878906 106.6646499633789,-6.168936729431152,353.1732482910156 106.66472625732422,-6.169804573059082,357.8747253417969 106.664794921875,-6.170515537261963,361.6017761230469 106.66487884521484,-6.171370506286621,365.9870910644531 106.66494750976562,-6.172089576721191,369.61798095703125 106.6650161743164,-6.172817230224609,373.3031005859375 106.66510772705078,-6.173716068267822,377.945556640625 106.66519927978516,-6.174621105194092,382.7894592285156 106.66529083251953,-6.175502777099609,387.8524475097656 106.66537475585938,-6.176359176635742,393.1123352050781 106.66545104980469,-6.177114009857178,398.058349609375 106.6655502319336,-6.178048610687256,404.0788879394531 106.66564178466797,-6.178966522216797,409.86358642578125 106.66573333740234,-6.1798624992370605,415.4757080078125 106.66580200195312,-6.180607318878174,420.20318603515625 106.6658935546875,-6.181515216827393,426.21685791015625 106.66598510742188,-6.182415962219238,432.4304504394531 106.66606903076172,-6.1833367347717285,439.0443420410156 106.66615295410156,-6.184232234954834,445.83990478515625 106.6662368774414,-6.185153484344482,452.60546875 106.66631317138672,-6.18604850769043,458.19171142578125 106.6663818359375,-6.186801433563232,462.4925537109375 106.66646575927734,-6.187763690948486,467.6887512207031 106.66654205322266,-6.188674449920654,472.268798828125 106.6666259765625,-6.189582824707031,476.3444519042969 106.66670227050781,-6.190520763397217,480.1739196777344 106.66678619384766,-6.191499710083008,483.8291015625 106.66686248779297,-6.192431926727295,487.0330810546875 106.66694641113281,-6.193403244018555,490.2556457519531 106.66703033447266,-6.194371700286865,493.5933532714844 106.6671142578125,-6.195359706878662,497.0531005859375 106.66719818115234,-6.196300029754639,500.486083984375 106.66728973388672,-6.197264194488525,504.2691650390625 106.66737365722656,-6.198231220245361,508.26263427734375 106.66744995117188,-6.199042320251465,511.7939453125 106.66754913330078,-6.2000203132629395,516.4681396484375 106.66764068603516,-6.200986862182617,521.5485229492188 106.66773986816406,-6.201977252960205,527.1404418945312 106.66783905029297,-6.202932357788086,532.7576293945312 106.6679458618164,-6.203897476196289,538.249755859375 106.66805267333984,-6.204866886138916,543.4187622070312 106.66815948486328,-6.2058305740356445,548.346435546875 106.66827392578125,-6.206820487976074,552.9647827148438 106.66837310791016,-6.207631587982178,556.0543823242188 106.66847229003906,-6.208461761474609,558.7127075195312 106.66859436035156,-6.209473133087158,561.6227416992188 106.668701171875,-6.210290908813477,563.704833984375 106.6688232421875,-6.211291790008545,565.9396362304688 106.66893005371094,-6.212110996246338,567.6210327148438 106.66902923583984,-6.212925434112549,569.31982421875 106.66913604736328,-6.21379280090332,571.121826171875 106.66926574707031,-6.214805603027344,573.1809692382812 106.66937255859375,-6.215636730194092,574.9412231445312 106.66950225830078,-6.2166643142700195,577.2180786132812 106.66963958740234,-6.217691898345947,579.432861328125 106.66976165771484,-6.2187180519104,581.7230834960938 106.66986846923828,-6.219569683074951,583.6821899414062 106.67000579833984,-6.220648288726807,585.9047241210938 106.67013549804688,-6.221680641174316,587.816650390625 106.67023468017578,-6.222539901733398,589.4048461914062 106.67034149169922,-6.223417282104492,591.0140991210938 106.67047119140625,-6.224462032318115,592.7147827148438 106.67059326171875,-6.225503444671631,594.339599609375 106.67072296142578,-6.226530075073242,595.9061889648438 106.67082214355469,-6.227410316467285,597.1412353515625 106.67095184326172,-6.228491306304932,598.6843872070312 106.67107391357422,-6.2295308113098145,600.3851318359375 106.67120361328125,-6.2306013107299805,602.1480712890625 106.67132568359375,-6.231639385223389,603.96142578125 106.67145538330078,-6.232676982879639,605.9714965820312 106.67156219482422,-6.233559608459473,607.6492919921875 106.67167663574219,-6.2344746589660645,609.3375244140625 106.67179107666016,-6.235365390777588,611.12353515625 106.67191314697266,-6.236266613006592,613.2019653320312 106.67206573486328,-6.237382411956787,616.0077514648438 106.67222595214844,-6.238480567932129,619.3052978515625 106.67239379882812,-6.239524841308594,623.58740234375 106.6725845336914,-6.240601062774658,629.0873413085938 106.67279815673828,-6.241665840148926,635.4129028320312 106.67302703857422,-6.242708206176758,642.5289306640625 106.67328643798828,-6.243758678436279,650.2427368164062 106.67356872558594,-6.244804382324219,657.8605346679688 106.67382049560547,-6.245685577392578,664.0785522460938 106.67417907714844,-6.246827125549316,671.7734985351562 106.67451477050781,-6.247847080230713,678.17236328125 106.67488098144531,-6.24886417388916,684.1373901367188 106.67525482177734,-6.24985933303833,689.3886108398438 106.67567443847656,-6.250903129577637,694.3027954101562 106.67609405517578,-6.2518839836120605,698.65625 106.67652893066406,-6.2528486251831055,702.6649169921875 106.67701721191406,-6.2538652420043945,706.5448608398438 106.677490234375,-6.254802227020264,709.931640625 106.67798614501953,-6.2557291984558105,713.0885009765625 106.67840576171875,-6.256494045257568,715.5509643554688 106.6789779663086,-6.257460117340088,718.5657348632812 106.679443359375,-6.258222579956055,720.8226928710938 106.68004608154297,-6.259161472320557,723.225341796875 106.68065643310547,-6.260062217712402,725.1890258789062 106.68128204345703,-6.260951519012451,726.9179077148438 106.68180847167969,-6.261666297912598,728.064697265625 106.68252563476562,-6.262606143951416,728.910888671875 106.6830825805664,-6.26331090927124,729.1823120117188 106.68379974365234,-6.264181137084961,729.1908569335938 106.68451690673828,-6.265013217926025,729.1934814453125 106.68511962890625,-6.2656779289245605,729.5759887695312 106.68588256835938,-6.266493797302246,729.9307861328125 106.68650817871094,-6.26713228225708,729.4340209960938 106.68729400634766,-6.267920970916748,727.9107055664062 106.6881103515625,-6.268706321716309,725.7083740234375 106.68897247314453,-6.269492149353027,722.9212646484375 106.68987274169922,-6.270277976989746,720.0022583007812 106.69074249267578,-6.271002769470215,717.1421508789062 106.6916732788086,-6.2717461585998535,713.7919921875 106.69257354736328,-6.272416591644287,711.6837158203125 106.69353485107422,-6.273074626922607,712.337890625 106.69447326660156,-6.273658752441406,715.2034301757812 106.69550323486328,-6.274220943450928,719.72021484375 106.69652557373047,-6.27471399307251,725.2488403320312 106.69738006591797,-6.275081634521484,730.1710815429688 106.69842529296875,-6.275481224060059,736.275634765625 106.69950103759766,-6.275827884674072,742.7926025390625 106.7005615234375,-6.276113986968994,749.4182739257812 106.70164489746094,-6.2763471603393555,756.0338745117188 106.70275115966797,-6.276524543762207,762.433349609375 106.70384979248047,-6.2766432762146,768.4051513671875 106.70497131347656,-6.27670431137085,773.8402099609375 106.70604705810547,-6.276705741882324,778.3143920898438 106.70718383789062,-6.276661396026611,781.0831298828125 106.70829772949219,-6.276615619659424,782.0756225585938 106.70941925048828,-6.2765727043151855,782.9185180664062 106.7105484008789,-6.2765350341796875,786.8295288085938 106.71165466308594,-6.276504039764404,794.4982299804688 106.71277618408203,-6.276474475860596,799.989990234375 106.71400451660156,-6.276440143585205,804.2608032226562 106.715087890625,-6.276405334472656,808.850830078125 106.71620178222656,-6.276365756988525,813.6455688476562 106.71733093261719,-6.276320457458496,817.4216918945312 106.71824645996094,-6.276280879974365,819.6173095703125 106.71920013427734,-6.276236534118652,821.1864624023438 106.72013092041016,-6.276191711425781,822.4697875976562 106.72105407714844,-6.276144027709961,824.3911743164062 106.72219848632812,-6.276082515716553,827.6024780273438 106.72333526611328,-6.276020050048828,831.1375122070312 106.72445678710938,-6.275956630706787,834.0394897460938 106.7255859375,-6.2758917808532715,835.2664184570312 106.72671508789062,-6.275825500488281,834.9186401367188 106.72789001464844,-6.275754928588867,833.0017700195312 106.72908782958984,-6.275679588317871,831.5050048828125 106.7300033569336,-6.2756195068359375,830.2262573242188 106.73116302490234,-6.275539875030518,828.6055908203125 106.7322769165039,-6.275458335876465,826.8677978515625 106.7332534790039,-6.275383472442627,825.183349609375 106.7343978881836,-6.275290012359619,823.436767578125 106.7355728149414,-6.2751874923706055,821.814697265625 106.73670959472656,-6.275076866149902,820.5619506835938 106.73785400390625,-6.274953842163086,818.8323364257812 106.7387924194336,-6.274843692779541,817.570556640625 106.73992156982422,-6.274704933166504,814.6573486328125 106.74105072021484,-6.274561405181885,809.8959350585938 106.74221801757812,-6.274407386779785,805.39111328125 106.7433853149414,-6.274246692657471,801.2537231445312 106.74456024169922,-6.274079322814941,798.2144165039062 106.74576568603516,-6.273899078369141,797.22216796875 106.74691009521484,-6.273719310760498,797.8890380859375 106.74806213378906,-6.273534774780273,799.7574462890625 106.74901580810547,-6.273375988006592,801.0213623046875 106.75017547607422,-6.273184299468994,802.351806640625 106.75130462646484,-6.272997856140137,803.6636352539062 106.75247955322266,-6.272821426391602,806.2149658203125 106.75341796875,-6.272696018218994,809.0134887695312 106.75456237792969,-6.272552490234375,811.91845703125 106.75568389892578,-6.272427558898926,815.484375 106.75685119628906,-6.272317886352539,820.0429077148438 106.75777435302734,-6.272241115570068,822.602783203125 106.75889587402344,-6.272157669067383,825.5829467773438 106.76004028320312,-6.272078514099121,829.5187377929688 106.76129150390625,-6.271993160247803,833.5606079101562 106.76241302490234,-6.27191686630249,836.550048828125 106.76354217529297,-6.271838665008545,840.1039428710938 106.76468658447266,-6.271774768829346,845.049560546875 106.7656021118164,-6.271739482879639,849.453125 106.7665786743164,-6.271722316741943,853.404296875 106.76753234863281,-6.27172327041626,853.1153564453125 106.76869201660156,-6.2717461585998535,850.4406127929688 106.76963806152344,-6.271773815155029,848.6312866210938 106.77078247070312,-6.271817684173584,846.6289672851562 106.7719497680664,-6.271873474121094,844.4700927734375 106.77288055419922,-6.271924018859863,842.806884765625 106.7740249633789,-6.27199125289917,840.8759155273438 106.7751693725586,-6.272061824798584,838.8803100585938 106.77631378173828,-6.272129535675049,836.7061767578125 106.77728271484375,-6.272183418273926,834.7399291992188 106.77825164794922,-6.272234916687012,832.8806762695312 106.77921295166016,-6.272283554077148,831.2426147460938 106.7803726196289,-6.272338390350342,829.2230224609375 106.78158569335938,-6.272392749786377,827.2327270507812 106.78274536132812,-6.272444725036621,824.5132446289062 106.78392791748047,-6.272500038146973,821.295654296875 106.78506469726562,-6.272553443908691,819.5375366210938 106.78619384765625,-6.272609710693359,818.8148803710938 106.78734588623047,-6.272670745849609,818.7083740234375 106.78852081298828,-6.272736072540283,817.9242553710938 106.78948211669922,-6.272791862487793,816.2325439453125 106.7906723022461,-6.272861957550049,812.7940673828125 106.79182434082031,-6.272929668426514,808.3071899414062 106.79277038574219,-6.272984504699707,804.0972290039062 106.79371643066406,-6.273038387298584,799.578125 106.79486083984375,-6.273101329803467,794.82763671875 106.7960205078125,-6.273162841796875,790.5809936523438 106.79719543457031,-6.27322244644165,786.8781127929688 106.79817199707031,-6.273270130157471,784.322998046875 106.79914093017578,-6.2733154296875,782.4014282226562 106.80033874511719,-6.273367881774902,780.9052734375 106.80156707763672,-6.273418426513672,779.7227172851562 106.80274200439453,-6.273463726043701,778.1070556640625 106.80390167236328,-6.2735066413879395,774.6082153320312 106.80489349365234,-6.27354097366333,770.57958984375 106.80587768554688,-6.27357292175293,766.057861328125 106.80705261230469,-6.273608207702637,760.329345703125 106.8082275390625,-6.273639678955078,754.4297485351562 106.80941772460938,-6.273666858673096,748.9006958007812 106.81065368652344,-6.2736897468566895,743.8090209960938 106.8116455078125,-6.273704528808594,740.04345703125 106.8128433227539,-6.273717880249023,735.4894409179688 106.81403350830078,-6.273728370666504,729.7389526367188 106.81522369384766,-6.27373743057251,723.5599365234375 106.81622314453125,-6.273747444152832,718.3158569335938 106.81747436523438,-6.2737650871276855,711.1375122070312 106.81868743896484,-6.2737884521484375,703.145751953125 106.81987762451172,-6.27381706237793,694.6138305664062 106.82086944580078,-6.2738447189331055,687.3296508789062 106.82211303710938,-6.273885250091553,677.8997192382812 106.82311248779297,-6.273922443389893,670.2424926757812 106.82435607910156,-6.2739739418029785,660.2442016601562 106.82560729980469,-6.274032115936279,645.983154296875 106.8267822265625,-6.2740912437438965,629.193603515625 106.82795715332031,-6.2741522789001465,610.486572265625 106.82913208007812,-6.274213790893555,590.7080078125 106.83031463623047,-6.2742743492126465,570.765625 106.83155059814453,-6.274334907531738,546.9183959960938 106.83271026611328,-6.274387836456299,524.5733642578125 106.8338623046875,-6.2744340896606445,504.0308532714844 106.83480834960938,-6.274467468261719,487.7974548339844 106.83578491210938,-6.2744975090026855,471.5419921875 106.83694458007812,-6.274527549743652,452.3512268066406 106.83808135986328,-6.27454948425293,434.2291564941406 106.83917999267578,-6.274563312530518,417.22894287109375 106.8403091430664,-6.274570941925049,399.666015625 106.84120178222656,-6.27457332611084,385.1623840332031 106.84229278564453,-6.274573802947998,367.0210266113281 106.84336853027344,-6.274574279785156,349.03704833984375 106.84423828125,-6.274575233459473,334.92718505859375 106.84529113769531,-6.274577617645264,318.3380126953125 106.84630584716797,-6.2745795249938965,302.595458984375 106.84734344482422,-6.274580478668213,286.81640625 106.84832763671875,-6.2745795249938965,272.8079528808594 106.8491439819336,-6.274578094482422,262.1734924316406 106.85014343261719,-6.274576187133789,249.52198791503906 106.8509292602539,-6.274576187133789,239.93666076660156 106.85186767578125,-6.274578094482422,228.87918090820312 106.85281372070312,-6.27458381652832,217.90875244140625 106.85356903076172,-6.274590969085693,209.0127716064453 106.85452270507812,-6.274600982666016,198.1087646484375 106.85541534423828,-6.274611473083496,188.23773193359375 106.85630798339844,-6.274622440338135,178.35479736328125 106.85722351074219,-6.274632453918457,168.0579833984375 106.85811614990234,-6.274641513824463,158.0423583984375 106.8589859008789,-6.2746477127075195,148.3546905517578 106.85968780517578,-6.274650573730469,140.444091796875 106.86058807373047,-6.274651050567627,130.7721710205078 106.86146545410156,-6.274646282196045,122.02926635742188 106.86233520507812,-6.2746357917785645,114.37512969970703 106.86316680908203,-6.274619102478027,107.74303436279297 106.86384582519531,-6.274600505828857,102.56220245361328 106.8645248413086,-6.274576187133789,97.72819519042969 106.86530303955078,-6.274540424346924,92.50801086425781 106.86611938476562,-6.274492263793945,87.42961120605469 106.86690521240234,-6.274434566497803,82.9358901977539 106.8676528930664,-6.2743682861328125,78.94001007080078 106.8683853149414,-6.274294376373291,75.22295379638672 106.86913299560547,-6.274209022521973,71.50205993652344 106.86985778808594,-6.274117946624756,67.94548034667969 106.87064361572266,-6.27401065826416,63.98585891723633 106.87124633789062,-6.273919582366943,60.987060546875 106.87195587158203,-6.273803234100342,57.476070404052734 106.87252044677734,-6.27370548248291,55.068294525146484 106.87322998046875,-6.27357292175293,52.49229431152344 106.8739013671875,-6.2734375,50.213890075683594 106.87457275390625,-6.273295879364014,47.74932861328125 106.87525177001953,-6.273146629333496,45.2486457824707 106.87592315673828,-6.272991180419922,42.747196197509766 106.87657165527344,-6.272832870483398,40.19225311279297 106.87720489501953,-6.272664546966553,37.77702331542969 106.87781524658203,-6.272485256195068,35.62899398803711 106.87843322753906,-6.272282600402832,33.581119537353516 106.87891387939453,-6.272111892700195,31.866880416870117 106.87950897216797,-6.271883487701416,29.669818878173828 106.88007354736328,-6.271650791168213,27.7147274017334 106.8806381225586,-6.27140998840332,26.51479721069336 106.88109588623047,-6.271206378936768,26.760028839111328 106.88166046142578,-6.270951747894287,26.591045379638672 106.88219451904297,-6.270704746246338,26.519094467163086 106.88272857666016,-6.270452976226807,26.4975643157959 106.88323974609375,-6.27020788192749,26.50082015991211 106.8837661743164,-6.26995325088501,26.468751907348633 106.88418579101562,-6.269755840301514,26.383859634399414 106.88471221923828,-6.269529342651367,26.421865463256836 106.88512420654297,-6.269351482391357,26.49205207824707 106.88552856445312,-6.269177436828613,26.493070602416992 106.88592529296875,-6.269002437591553,26.340200424194336 106.88629150390625,-6.268838405609131,26.024232864379883 106.88670349121094,-6.268649101257324,25.67592430114746 106.88702392578125,-6.268495082855225,25.499053955078125 106.88739776611328,-6.268311977386475,25.504627227783203 106.88774108886719,-6.268143653869629,25.52214241027832 106.8880615234375,-6.267988204956055,25.51777458190918 106.88836669921875,-6.267849445343018,25.52179527282715 106.88865661621094,-6.267723083496094,25.52060317993164 106.88892364501953,-6.267611980438232,25.51352882385254 106.88916015625,-6.26751708984375,25.50674819946289 106.88937377929688,-6.267431259155273,25.513776779174805 106.88953399658203,-6.267362594604492,25.522890090942383 106.88970947265625,-6.267277717590332,25.51740264892578 106.88986206054688,-6.267193794250488,25.505929946899414 106.88999938964844,-6.267120838165283,25.515491485595703 106.8901138305664,-6.2670674324035645,25.574954986572266 106.89021301269531,-6.267026424407959,25.630834579467773 106.89027404785156,-6.266997337341309,25.68138313293457 106.89032745361328,-6.266968250274658,25.695188522338867 106.89036560058594,-6.26694917678833,25.675716400146484 106.89037322998047,-6.266941547393799,25.67245864868164 106.890380859375,-6.266939640045166,25.661502838134766 106.890380859375,-6.266939640045166,25.66342544555664 106.890380859375,-6.266939640045166,25.66342544555664 106.890380859375,-6.266939640045166,25.66342544555664 106.890380859375,-6.266939640045166,25.66342544555664 106.890380859375,-6.266939640045166,25.66342544555664 106.890380859375,-6.266939640045166,25.66342544555664 106.890380859375,-6.266939640045166,25.66342544555664 106.890380859375,-6.266939640045166,25.66342544555664</coordinates>
            </LineString>
        </Placemark>
    </Document>
</kml>
