<?xml version="1.0" encoding="UTF-8"?>
<kml xmlns="http://www.opengis.net/kml/2.2" xmlns:gx="http://www.google.com/kml/ext/2.2">
    <Document id="1">
        <Style id="4">
            <LineStyle id="5">
                <color>ffffff00</color>
                <colorMode>normal</colorMode>
                <width>4</width>
            </LineStyle>
        </Style>
        <name>Log 20251127_162227</name>
        <Placemark id="3">
            <name>Flight Path</name>
            <styleUrl>#4</styleUrl>
            <LineString id="2">
                <extrude>1</extrude>
                <altitudeMode>absolute</altitudeMode>
                <coordinates>106.64386749267578,-6.142455577850342,11.869064331054688 106.64386749267578,-6.142455577850342,11.87448787689209 106.64386749267578,-6.142455577850342,11.868159294128418 106.64386749267578,-6.142455577850342,11.868104934692383 106.64386749267578,-6.142455577850342,11.868577003479004 106.64386749267578,-6.142455577850342,11.868727684020996 106.64386749267578,-6.142455577850342,11.870382308959961 106.64386749267578,-6.142455577850342,11.874286651611328 106.64386749267578,-6.142455577850342,11.886625289916992 106.64386749267578,-6.142455577850342,11.885208129882812 106.64386749267578,-6.142455577850342,11.868643760681152 106.64386749267578,-6.142455577850342,11.86938190460205 106.64386749267578,-6.142455577850342,11.87256908416748 106.64386749267578,-6.142455577850342,11.887107849121094 106.64386749267578,-6.142455101013184,11.888522148132324 106.64387512207031,-6.14245080947876,11.870640754699707 106.6438980102539,-6.142441749572754,11.872486114501953 106.64393615722656,-6.142428398132324,11.870572090148926 106.64398193359375,-6.142409324645996,11.865211486816406 106.64405059814453,-6.142380237579346,11.868288040161133 106.64412689208984,-6.1423516273498535,11.865609169006348 106.64421081542969,-6.142317771911621,11.86644458770752 106.6443099975586,-6.142276763916016,11.869053840637207 106.64444732666016,-6.1422200202941895,11.862865447998047 106.64459228515625,-6.142159938812256,11.854397773742676 106.6447525024414,-6.142094135284424,11.86591625213623 106.64490509033203,-6.142032623291016,11.858566284179688 106.64508819580078,-6.14195442199707,11.863224983215332 106.64525604248047,-6.141883850097656,11.856103897094727 106.64546966552734,-6.141793727874756,11.859962463378906 106.64569854736328,-6.141696453094482,11.859647750854492 106.64594268798828,-6.141592502593994,11.858304977416992 106.64619445800781,-6.141486644744873,11.851349830627441 106.64647674560547,-6.141376495361328,11.85098934173584 106.64671325683594,-6.1412835121154785,11.855664253234863 106.64701080322266,-6.141171455383301,11.855562210083008 106.64732360839844,-6.141053676605225,11.853038787841797 106.64764404296875,-6.140932559967041,11.859147071838379 106.64797973632812,-6.140803813934326,11.853605270385742 106.6483154296875,-6.140674114227295,11.850223541259766 106.648681640625,-6.140533924102783,11.947585105895996 106.64899444580078,-6.1404128074646,11.920522689819336 106.64930725097656,-6.1402907371521,11.907026290893555 106.64969635009766,-6.140139579772949,11.955222129821777 106.65009307861328,-6.139986038208008,11.98161506652832 106.65043640136719,-6.139851093292236,12.035272598266602 106.65086364746094,-6.139682769775391,12.054384231567383 106.65129852294922,-6.139510631561279,12.619436264038086 106.6517562866211,-6.139331817626953,13.677961349487305 106.65220642089844,-6.139149188995361,14.515671730041504 106.65269470214844,-6.138953685760498,15.133150100708008 106.65316772460938,-6.138760566711426,15.467857360839844 106.65364837646484,-6.138562202453613,15.92457103729248 106.6541519165039,-6.13834810256958,16.992660522460938 106.65465545654297,-6.138134479522705,18.856752395629883 106.65515899658203,-6.1379170417785645,21.502483367919922 106.65565490722656,-6.137701511383057,25.119600296020508 106.65617370605469,-6.137480735778809,30.022687911987305 106.65670776367188,-6.137256622314453,36.41282653808594 106.65723419189453,-6.137045860290527,44.05138397216797 106.65777587890625,-6.1368255615234375,53.203006744384766 106.6582260131836,-6.136650562286377,61.77959442138672 106.65869140625,-6.136467456817627,71.4709701538086 106.65924072265625,-6.136253833770752,83.33305358886719 106.6596908569336,-6.136080265045166,93.41744232177734 106.66024780273438,-6.135861396789551,106.0528564453125 106.66079711914062,-6.135642051696777,118.24330139160156 106.66134643554688,-6.135418891906738,129.797607421875 106.6618423461914,-6.135218143463135,139.45982360839844 106.66242980957031,-6.13498067855835,149.95571899414062 106.66289520263672,-6.134788513183594,157.76364135742188 106.66339111328125,-6.134587287902832,165.40074157714844 106.6639633178711,-6.13435697555542,173.97315979003906 106.66444396972656,-6.134163856506348,181.36734008789062 106.66493225097656,-6.133975028991699,189.22674560546875 106.66545104980469,-6.133792400360107,198.4155731201172 106.66606903076172,-6.133607387542725,210.13735961914062 106.66670989990234,-6.133464813232422,222.3046417236328 106.66734313964844,-6.133376598358154,233.50881958007812 106.6679916381836,-6.133338451385498,243.6110382080078 106.66862487792969,-6.1333489418029785,252.5714111328125 106.66930389404297,-6.133414268493652,260.8857421875 106.66993713378906,-6.13352632522583,267.73687744140625 106.67057037353516,-6.1336846351623535,273.83087158203125 106.67120361328125,-6.1338887214660645,279.2841796875 106.67182159423828,-6.1341376304626465,284.16436767578125 106.67245483398438,-6.134442329406738,288.49871826171875 106.67304229736328,-6.134779930114746,291.8302001953125 106.67361450195312,-6.135159492492676,294.3484802246094 106.67418670654297,-6.135601043701172,296.06109619140625 106.67472839355469,-6.1360650062561035,296.8493347167969 106.6752700805664,-6.136565685272217,296.3642883300781 106.67581176757812,-6.137083053588867,294.9009704589844 106.6763687133789,-6.137633800506592,294.1188049316406 106.67692565917969,-6.138191223144531,294.3387756347656 106.6774673461914,-6.138734340667725,294.9166564941406 106.67803192138672,-6.139310836791992,295.7205810546875 106.6785888671875,-6.139874458312988,296.8477783203125 106.67916870117188,-6.140456676483154,299.3009033203125 106.67974090576172,-6.1410441398620605,301.8271484375 106.68032836914062,-6.141640663146973,303.6642150878906 106.68089294433594,-6.142213821411133,304.7846374511719 106.6815185546875,-6.142849445343018,305.41229248046875 106.68209838867188,-6.1434431076049805,306.9538269042969 106.68268585205078,-6.144041061401367,308.8997497558594 106.68328857421875,-6.144658088684082,310.7627258300781 106.68387603759766,-6.145257949829102,312.6867370605469 106.68447875976562,-6.145867347717285,314.9678039550781 106.68511199951172,-6.146507263183594,316.8124694824219 106.68562316894531,-6.147018909454346,317.7356872558594 106.6862564086914,-6.147652626037598,318.7254943847656 106.68685913085938,-6.148258686065674,320.4469299316406 106.68749237060547,-6.148875713348389,322.5717468261719 106.68814849853516,-6.149521827697754,324.1556091308594 106.68877410888672,-6.150139331817627,324.76800537109375 106.68931579589844,-6.150670528411865,324.63177490234375 106.68998718261719,-6.15132474899292,324.26409912109375 106.69062805175781,-6.1519551277160645,324.3934631347656 106.69127655029297,-6.152589797973633,325.3586730957031 106.69194793701172,-6.153244972229004,327.0354919433594 106.69251251220703,-6.153790473937988,328.61273193359375 106.69315338134766,-6.154417514801025,330.33074951171875 106.69380950927734,-6.155049800872803,332.16168212890625 106.69436645507812,-6.155585289001465,333.98138427734375 106.69493103027344,-6.156130313873291,336.1585388183594 106.69561767578125,-6.156787395477295,338.9656677246094 106.6962890625,-6.157427787780762,342.1710510253906 106.69696807861328,-6.158066272735596,345.9635009765625 106.69766998291016,-6.158731460571289,350.1113586425781 106.69837951660156,-6.159391403198242,354.2319030761719 106.69908905029297,-6.160055160522461,356.8283386230469 106.69979095458984,-6.160706043243408,358.4010009765625 106.70038604736328,-6.161254405975342,359.4820251464844 106.70112609863281,-6.161933898925781,360.90606689453125 106.70187377929688,-6.162624359130859,362.1535339355469 106.70262145996094,-6.163310527801514,363.23876953125 106.70335388183594,-6.16398286819458,364.3139953613281 106.7041015625,-6.16465425491333,365.4534912109375 106.70455169677734,-6.165038585662842,366.20819091796875 106.70521545410156,-6.165669918060303,367.4894714355469 106.70596313476562,-6.1663360595703125,369.8865966796875 106.70670318603516,-6.166996955871582,373.0393371582031 106.70745849609375,-6.167667388916016,375.89581298828125 106.70809173583984,-6.168221950531006,377.8199462890625 106.70890808105469,-6.168939113616943,379.9903259277344 106.70954132080078,-6.16949987411499,381.5852355957031 106.71017456054688,-6.170055389404297,383.0220642089844 106.71096801757812,-6.170750617980957,384.82476806640625 106.71173095703125,-6.171409606933594,386.44903564453125 106.71249389648438,-6.172072410583496,388.0100402832031 106.71314239501953,-6.172635555267334,389.4615478515625 106.71393585205078,-6.173314571380615,391.5207214355469 106.71470642089844,-6.173981666564941,393.36248779296875 106.71550750732422,-6.174665927886963,396.4681091308594 106.71630096435547,-6.175347328186035,400.5762939453125 106.71709442138672,-6.176028251647949,404.6878662109375 106.7178955078125,-6.176713943481445,408.9936828613281 106.71855926513672,-6.177277088165283,412.4307861328125 106.71934509277344,-6.177948951721191,417.0229187011719 106.72016143798828,-6.1786346435546875,422.87286376953125 106.72095489501953,-6.1793012619018555,429.6177062988281 106.72177124023438,-6.179984092712402,436.4930725097656 106.72242736816406,-6.180531024932861,441.749267578125 106.7232437133789,-6.181203365325928,446.7403259277344 106.72404479980469,-6.181859970092773,450.27294921875 106.72490692138672,-6.182568550109863,452.989501953125 106.72576141357422,-6.183263778686523,454.63275146484375 106.7265625,-6.183917999267578,456.8214111328125 106.72725677490234,-6.184482097625732,458.8688049316406 106.72809600830078,-6.18516206741333,461.4757080078125 106.72891998291016,-6.185833930969238,464.281005859375 106.72974395751953,-6.186499118804932,467.2254638671875 106.73045349121094,-6.187065601348877,469.6110534667969 106.73133850097656,-6.187789440155029,472.7489318847656 106.73217010498047,-6.1884589195251465,475.88818359375 106.73301696777344,-6.189140796661377,479.17413330078125 106.73369598388672,-6.1896867752075195,481.6689758300781 106.73457336425781,-6.1903862953186035,484.75054931640625 106.73544311523438,-6.19108247756958,487.8629455566406 106.73631286621094,-6.191768169403076,490.88671875 106.73715209960938,-6.192429065704346,494.045654296875 106.73802947998047,-6.193114280700684,497.6781311035156 106.73889923095703,-6.19379997253418,501.61956787109375 106.73980712890625,-6.194502353668213,505.7931823730469 106.74068450927734,-6.195183277130127,509.895263671875 106.74140167236328,-6.19573974609375,513.3457641601562 106.74229431152344,-6.196430683135986,518.1680297851562 106.74315643310547,-6.1970953941345215,522.8908081054688 106.74386596679688,-6.197642803192139,526.826171875 106.74471282958984,-6.198299407958984,530.9725952148438 106.74555969238281,-6.198958396911621,534.0803833007812 106.7464370727539,-6.199636459350586,536.2611694335938 106.74730682373047,-6.200311183929443,536.8492431640625 106.7480239868164,-6.200864791870117,537.6758422851562 106.74890899658203,-6.201550483703613,539.6337890625 106.74979400634766,-6.2022318840026855,541.9360961914062 106.75064849853516,-6.202893257141113,544.1567993164062 106.75151824951172,-6.203564643859863,546.2285766601562 106.75226593017578,-6.204140663146973,547.8792724609375 106.75299072265625,-6.204692840576172,549.5050048828125 106.75391387939453,-6.205400466918945,552.282958984375 106.75464630126953,-6.205957889556885,555.2844848632812 106.75537109375,-6.206509113311768,559.19775390625 106.75627136230469,-6.2071943283081055,564.9005737304688 106.75698852539062,-6.207733154296875,569.1332397460938 106.75787353515625,-6.2083964347839355,574.0475463867188 106.75861358642578,-6.208948135375977,577.6080932617188 106.75951385498047,-6.209621906280518,581.7122192382812 106.7603988647461,-6.210282802581787,585.4481201171875 106.76130676269531,-6.2109599113464355,589.6605834960938 106.7621841430664,-6.211610317230225,594.3231201171875 106.76307678222656,-6.212274551391602,598.62451171875 106.7638168334961,-6.21281623840332,601.384033203125 106.76470184326172,-6.213466167449951,603.9982299804688 106.76559448242188,-6.2141218185424805,606.1447143554688 106.76646423339844,-6.214756965637207,607.791259765625 106.76734924316406,-6.215401649475098,609.0439453125 106.7682876586914,-6.216082572937012,609.8582763671875 106.7691879272461,-6.216732025146484,610.9754638671875 106.77009582519531,-6.217379093170166,613.490234375 106.77101135253906,-6.218035697937012,618.3040771484375 106.7717514038086,-6.218554496765137,622.533203125 106.77265167236328,-6.219184398651123,627.531005859375 106.7735366821289,-6.219792366027832,632.3447265625 106.77447509765625,-6.2204389572143555,637.1819458007812 106.77545166015625,-6.221095561981201,641.6012573242188 106.7762680053711,-6.221644878387451,645.341552734375 106.77722930908203,-6.222285270690918,651.7755126953125 106.77812957763672,-6.222876071929932,658.929443359375 106.779052734375,-6.223485469818115,665.7319946289062 106.77996826171875,-6.224080562591553,672.6056518554688 106.78071594238281,-6.224567890167236,678.3287963867188 106.78147888183594,-6.22506046295166,684.159912109375 106.78240203857422,-6.2256598472595215,691.1192626953125 106.78331756591797,-6.226253032684326,698.9290161132812 106.78424835205078,-6.226845741271973,706.2362060546875 106.78502655029297,-6.227351665496826,710.3704833984375 106.78595733642578,-6.227949142456055,713.8035888671875 106.78678131103516,-6.22847318649292,716.2418823242188 106.78760528564453,-6.228972911834717,718.6187133789062 106.7886962890625,-6.229696750640869,721.1420288085938 106.78946685791016,-6.23018217086792,723.4874267578125 106.79023742675781,-6.230666637420654,726.5326538085938 106.7910385131836,-6.231168746948242,730.2090454101562 106.79180908203125,-6.231650352478027,734.0523681640625 106.79279327392578,-6.232255935668945,739.2777099609375 106.79369354248047,-6.2328200340271,742.6986083984375 106.79448699951172,-6.233292102813721,745.3060913085938 106.79541778564453,-6.233853340148926,748.7084350585938 106.79635620117188,-6.234419822692871,752.6571044921875 106.79730224609375,-6.234983444213867,756.4503173828125 106.79824829101562,-6.2355451583862305,760.2601318359375 106.79903411865234,-6.236008167266846,763.4454956054688 106.7998275756836,-6.236475944519043,766.5411987304688 106.80081939697266,-6.237061500549316,769.944580078125 106.80175018310547,-6.237603664398193,772.8201293945312 106.80269622802734,-6.2381591796875,775.5274047851562 106.80369567871094,-6.238744735717773,777.8569946289062 106.80448150634766,-6.239203453063965,779.2349853515625 106.80545806884766,-6.239781856536865,781.0401611328125 106.80641174316406,-6.240341663360596,783.2470703125 106.80736541748047,-6.240904808044434,785.4397583007812 106.80841064453125,-6.241514682769775,787.4793090820312 106.80935668945312,-6.242074012756348,787.0407104492188 106.8103256225586,-6.242637634277344,784.8793334960938 106.81111907958984,-6.243104934692383,782.368408203125 106.81209564208984,-6.243673324584961,778.3646850585938 106.81304931640625,-6.244228839874268,774.7969360351562 106.81401062011719,-6.244784355163574,771.4566650390625 106.81497955322266,-6.245340824127197,767.0979614257812 106.81599426269531,-6.245924472808838,761.962158203125 106.81702423095703,-6.246513843536377,758.0408935546875 106.81805419921875,-6.247098445892334,755.4259033203125 106.81912231445312,-6.247696399688721,753.6813354492188 106.82013702392578,-6.248268127441406,751.4728393554688 106.82117462158203,-6.24884557723999,748.8147583007812 106.8221664428711,-6.249399185180664,745.7709350585938 106.82318115234375,-6.249961853027344,742.5598754882812 106.82421112060547,-6.250533580780029,739.1356811523438 106.82525634765625,-6.251107692718506,734.18408203125 106.8262939453125,-6.251680850982666,729.0087890625 106.82730102539062,-6.252233505249023,724.6756591796875 106.82813262939453,-6.252686023712158,722.557373046875 106.82916259765625,-6.253242492675781,719.68115234375 106.8302230834961,-6.253817081451416,713.2761840820312 106.8310775756836,-6.254284381866455,704.81884765625 106.83194732666016,-6.254757404327393,693.561279296875 106.8329849243164,-6.2553300857543945,678.0641479492188 106.83409118652344,-6.255936145782471,659.6276245117188 106.83516693115234,-6.256532669067383,639.8235473632812 106.83624267578125,-6.257126808166504,620.7036743164062 106.83710479736328,-6.257603168487549,605.5111694335938 106.83817291259766,-6.2581963539123535,585.6340942382812 106.83930206298828,-6.258820056915283,564.5984497070312 106.84039306640625,-6.2594313621521,545.0694580078125 106.8414535522461,-6.2600250244140625,526.9248046875 106.84255981445312,-6.260644912719727,508.5220947265625 106.84363555908203,-6.2612457275390625,491.36846923828125 106.84475708007812,-6.261875629425049,474.27655029296875 106.84587097167969,-6.2624993324279785,458.04302978515625 106.84677124023438,-6.263000011444092,445.36474609375 106.84791564941406,-6.263637065887451,427.4888916015625 106.84899139404297,-6.264230728149414,409.2463684082031 106.84992218017578,-6.264742851257324,393.51226806640625 106.85104370117188,-6.265357494354248,372.843994140625 106.85215759277344,-6.265964508056641,350.83734130859375 106.85325622558594,-6.266557693481445,328.0171813964844 106.85433959960938,-6.26713228225708,305.4559020996094 106.85540771484375,-6.2676873207092285,283.6976013183594 106.85627746582031,-6.268138408660889,266.2354736328125 106.85713958740234,-6.268573760986328,249.87628173828125 106.85801696777344,-6.269009113311768,234.5982208251953 106.85906219482422,-6.269508361816406,218.3404541015625 106.86006164550781,-6.269968032836914,202.7627410888672 106.86109924316406,-6.270411014556885,187.61770629882812 106.86193084716797,-6.270745277404785,175.30615234375 106.86293029785156,-6.271127700805664,160.91481018066406 106.86393737792969,-6.271477699279785,148.35214233398438 106.86493682861328,-6.271792888641357,137.7677764892578 106.86573791503906,-6.272027015686035,129.53326416015625 106.86672973632812,-6.272295951843262,119.72834777832031 106.86767578125,-6.27252721786499,111.30155944824219 106.86863708496094,-6.272737979888916,103.23509979248047 106.86957550048828,-6.272919178009033,94.91091918945312 106.87051391601562,-6.273038864135742,89.32108306884766 106.87142944335938,-6.273095607757568,83.87313079833984 106.87234497070312,-6.273134231567383,75.51720428466797 106.87323760986328,-6.2731475830078125,66.01332092285156 106.87397003173828,-6.273116111755371,60.75689697265625 106.87486267089844,-6.273025989532471,56.433990478515625 106.87571716308594,-6.2729034423828125,51.26824188232422 106.87657928466797,-6.272751808166504,45.00658416748047 106.87724304199219,-6.272600173950195,41.825714111328125 106.87803649902344,-6.272372245788574,39.50664138793945 106.87869262695312,-6.272155284881592,36.4880485534668 106.87944030761719,-6.271895885467529,31.95290184020996 106.88015747070312,-6.271615982055664,29.44405746459961 106.88074493408203,-6.271369934082031,27.669322967529297 106.8814468383789,-6.271048069000244,26.530731201171875 106.88212585449219,-6.2707085609436035,26.785490036010742 106.88269805908203,-6.270423889160156,26.62087631225586 106.88322448730469,-6.270157337188721,26.538198471069336 106.8838882446289,-6.269820213317871,26.427202224731445 106.884521484375,-6.269504547119141,26.365449905395508 106.88514709472656,-6.2692084312438965,26.503110885620117 106.88565063476562,-6.268972396850586,26.47967529296875 106.88627624511719,-6.26870059967041,25.918848037719727 106.88690948486328,-6.268446445465088,25.499618530273438 106.88751220703125,-6.268199920654297,25.497722625732422 106.88813018798828,-6.267950057983398,25.501771926879883 106.88871002197266,-6.267709255218506,25.51011085510254 106.88929748535156,-6.267461776733398,25.505422592163086 106.88986206054688,-6.267220973968506,25.497589111328125 106.89041137695312,-6.266978740692139,25.700395584106445 106.89094543457031,-6.266738414764404,25.545368194580078 106.89148712158203,-6.266489505767822,25.408466339111328 106.89199829101562,-6.266244888305664,25.70481300354004 106.89251708984375,-6.265997886657715,26.033615112304688 106.89303588867188,-6.265742301940918,26.338525772094727 106.89352416992188,-6.265506267547607,26.641313552856445 106.89400482177734,-6.265284538269043,26.928739547729492 106.89437103271484,-6.26512336730957,27.145849227905273 106.89481353759766,-6.2649312019348145,27.413002014160156 106.89521789550781,-6.264750957489014,27.373258590698242 106.8956069946289,-6.264571189880371,27.263628005981445 106.8959732055664,-6.2643961906433105,27.146520614624023 106.89630889892578,-6.26423454284668,27.322452545166016 106.89662170410156,-6.264084339141846,27.501087188720703 106.89691162109375,-6.263946056365967,27.66305923461914 106.89712524414062,-6.2638468742370605,27.79561424255371 106.89738464355469,-6.263733386993408,27.749576568603516 106.89761352539062,-6.263632297515869,27.692588806152344 106.89781951904297,-6.263540744781494,27.63329315185547 106.89800262451172,-6.263452529907227,27.58429718017578 106.89817810058594,-6.263366222381592,27.52744483947754 106.89832305908203,-6.263293743133545,27.512710571289062 106.89845275878906,-6.263242721557617,27.52099609375 106.89856719970703,-6.2632060050964355,27.527868270874023 106.8986587524414,-6.2631707191467285,27.52713966369629 106.89871978759766,-6.263139247894287,27.516202926635742 106.89876556396484,-6.263116359710693,27.499847412109375 106.89878845214844,-6.2631049156188965,27.49629783630371 106.89879608154297,-6.2631001472473145,27.489513397216797 106.89879608154297,-6.263099670410156,27.486419677734375 106.89879608154297,-6.263099670410156,27.487924575805664 106.89879608154297,-6.263099670410156,27.488367080688477 106.89879608154297,-6.263099670410156,27.48862648010254 106.89879608154297,-6.263099670410156,27.4886474609375 106.89879608154297,-6.263099670410156,27.488645553588867 106.89879608154297,-6.263099670410156,27.4886474609375 106.89879608154297,-6.263099670410156,27.488649368286133 106.89879608154297,-6.263099670410156,27.488649368286133 106.89879608154297,-6.263099670410156,27.488649368286133 106.89879608154297,-6.263099670410156,27.488649368286133 106.89879608154297,-6.263099670410156,27.488649368286133 106.89879608154297,-6.263099670410156,27.488649368286133 106.89879608154297,-6.263099670410156,27.488649368286133 106.89879608154297,-6.263099670410156,27.488649368286133 106.89879608154297,-6.263099670410156,27.488649368286133 106.89879608154297,-6.263099670410156,27.488649368286133 106.89879608154297,-6.263099670410156,27.488649368286133 106.89879608154297,-6.263099670410156,27.488649368286133</coordinates>
            </LineString>
        </Placemark>
    </Document>
</kml>
