<?xml version="1.0" encoding="UTF-8"?>
<kml xmlns="http://www.opengis.net/kml/2.2" xmlns:gx="http://www.google.com/kml/ext/2.2">
    <Document id="1">
        <Style id="4">
            <LineStyle id="5">
                <color>ffffff00</color>
                <colorMode>normal</colorMode>
                <width>4</width>
            </LineStyle>
        </Style>
        <name>Log 20251127_165047</name>
        <Placemark id="3">
            <name>Flight Path</name>
            <styleUrl>#4</styleUrl>
            <LineString id="2">
                <extrude>1</extrude>
                <altitudeMode>absolute</altitudeMode>
                <coordinates>106.64386749267578,-6.142455101013184,11.906572341918945 106.64386749267578,-6.142455101013184,11.90660572052002 106.64386749267578,-6.142455101013184,11.886200904846191 106.64388275146484,-6.142448425292969,11.873390197753906 106.6439208984375,-6.142435073852539,11.873239517211914 106.64395904541016,-6.142418384552002,11.868121147155762 106.64401245117188,-6.142396450042725,11.865814208984375 106.64408111572266,-6.142369270324707,11.870593070983887 106.64415740966797,-6.142337322235107,11.870586395263672 106.64424896240234,-6.142299175262451,11.870556831359863 106.64437866210938,-6.142247676849365,11.868293762207031 106.64449310302734,-6.142201900482178,11.857396125793457 106.64464569091797,-6.142142295837402,11.864593505859375 106.64482879638672,-6.142074108123779,11.85965633392334 106.64501190185547,-6.142003059387207,11.862691879272461 106.64522552490234,-6.1419219970703125,11.856584548950195 106.64545440673828,-6.1418328285217285,11.858856201171875 106.64569091796875,-6.141742706298828,11.859861373901367 106.6458969116211,-6.141662120819092,11.862963676452637 106.6461181640625,-6.141573905944824,11.85738468170166 106.64635467529297,-6.141482353210449,11.856086730957031 106.64659118652344,-6.141386032104492,11.85690689086914 106.64689636230469,-6.141265392303467,11.862683296203613 106.64722442626953,-6.1411356925964355,11.848997116088867 106.64749908447266,-6.1410231590271,11.851753234863281 106.6478500366211,-6.140882968902588,11.84771728515625 106.64820861816406,-6.140735626220703,11.85370922088623 106.64857482910156,-6.140587329864502,11.862841606140137 106.64896392822266,-6.14042854309082,11.880194664001465 106.64935302734375,-6.140270233154297,11.885663032531738 106.64969635009766,-6.140130043029785,11.882353782653809 106.6501235961914,-6.139952182769775,11.914129257202148 106.65055847167969,-6.139773845672607,11.972979545593262 106.65099334716797,-6.1395955085754395,12.003832817077637 106.65143585205078,-6.139411449432373,12.039695739746094 106.65191650390625,-6.139212131500244,12.107616424560547 106.65242004394531,-6.139003753662109,12.490543365478516 106.6528549194336,-6.138823986053467,13.212944030761719 106.65326690673828,-6.13865327835083,14.357295036315918 106.6537857055664,-6.138438701629639,16.634946823120117 106.6543197631836,-6.138217449188232,19.489526748657227 106.65476989746094,-6.138034343719482,22.265493392944336 106.65531921386719,-6.137811660766602,26.103124618530273 106.65577697753906,-6.137627124786377,29.34900665283203 106.65631866455078,-6.137414932250977,33.09683609008789 106.65676879882812,-6.137239933013916,36.10346984863281 106.6573257446289,-6.137024402618408,39.64223861694336 106.65788269042969,-6.136812210083008,42.83084487915039 106.6584701538086,-6.136592864990234,45.77192687988281 106.65895080566406,-6.136408805847168,47.68788146972656 106.6595687866211,-6.136178016662598,49.74327850341797 106.66016387939453,-6.135958671569824,51.4349479675293 106.66075897216797,-6.135740280151367,53.014461517333984 106.66139221191406,-6.135510444641113,54.74260711669922 106.66201782226562,-6.135280609130859,56.68947982788086 106.66265106201172,-6.135047435760498,59.01654815673828 106.66326141357422,-6.134819030761719,61.63174057006836 106.66387939453125,-6.134588241577148,64.50751495361328 106.66451263427734,-6.134349822998047,67.72611236572266 106.66504669189453,-6.134146213531494,70.5552978515625 106.6656723022461,-6.133909702301025,74.36337280273438 106.66632080078125,-6.133674144744873,79.25768280029297 106.66695404052734,-6.133458137512207,85.00175476074219 106.66759490966797,-6.1332621574401855,91.47808837890625 106.66816711425781,-6.133113384246826,97.61875915527344 106.6688461303711,-6.132972240447998,104.86946868896484 106.6695327758789,-6.132876873016357,111.61046600341797 106.67023468017578,-6.13283109664917,117.70553588867188 106.67092895507812,-6.132834434509277,122.7690200805664 106.67162322998047,-6.132869243621826,126.37547302246094 106.67231750488281,-6.132899761199951,129.99996948242188 106.67293548583984,-6.132917881011963,133.4218292236328 106.67366790771484,-6.132928371429443,137.70101928710938 106.67437744140625,-6.132930278778076,142.290283203125 106.67509460449219,-6.1329264640808105,147.573486328125 106.67583465576172,-6.132917881011963,153.71005249023438 106.67642211914062,-6.132908344268799,158.7346954345703 106.6770248413086,-6.132897853851318,164.04434204101562 106.6776351928711,-6.1328864097595215,169.5909881591797 106.6783676147461,-6.132874011993408,176.43951416015625 106.67910766601562,-6.132863521575928,183.7787322998047 106.67981719970703,-6.132855415344238,191.0494384765625 106.68054962158203,-6.132848739624023,198.00453186035156 106.68126678466797,-6.132843971252441,204.23086547851562 106.68202209472656,-6.132841110229492,210.06895446777344 106.68274688720703,-6.132840633392334,215.37217712402344 106.6834945678711,-6.132842063903809,220.5590362548828 106.68423461914062,-6.132846355438232,225.55899047851562 106.68486785888672,-6.132852077484131,229.80508422851562 106.68551635742188,-6.13286018371582,233.99835205078125 106.68629455566406,-6.132871627807617,238.8311004638672 106.68706512451172,-6.132884979248047,243.50112915039062 106.6878662109375,-6.132900714874268,248.3365020751953 106.68867492675781,-6.132917404174805,253.3131866455078 106.68948364257812,-6.1329345703125,258.266357421875 106.6902847290039,-6.1329522132873535,263.23785400390625 106.69110870361328,-6.132970809936523,268.8622131347656 106.69192504882812,-6.132990837097168,274.76910400390625 106.6927490234375,-6.133012294769287,281.23736572265625 106.69345092773438,-6.133031368255615,286.7610168457031 106.69427490234375,-6.133055210113525,292.61669921875 106.69510650634766,-6.133080959320068,297.52288818359375 106.69584655761719,-6.133103847503662,301.4858703613281 106.69657135009766,-6.133127212524414,305.59039306640625 106.69727325439453,-6.133149147033691,310.1020202636719 106.69815826416016,-6.133175373077393,316.2718811035156 106.69901275634766,-6.133199214935303,322.57513427734375 106.69988250732422,-6.133221626281738,329.1312561035156 106.70075225830078,-6.133243083953857,336.3185729980469 106.70146942138672,-6.133259296417236,342.6832580566406 106.70218658447266,-6.133274078369141,349.3059387207031 106.70307159423828,-6.133290767669678,357.4741516113281 106.70379638671875,-6.133303165435791,364.1070861816406 106.7046890258789,-6.1333160400390625,372.0904235839844 106.70561981201172,-6.133327007293701,380.21826171875 106.70654296875,-6.133335590362549,388.1495056152344 106.70743560791016,-6.133340835571289,395.7662353515625 106.70832824707031,-6.133343696594238,403.08111572265625 106.7092056274414,-6.133343696594238,410.1767578125 106.70994567871094,-6.133341312408447,416.0481262207031 106.7107162475586,-6.133337497711182,422.07843017578125 106.71165466308594,-6.133329391479492,429.2450256347656 106.71258544921875,-6.133319854736328,435.8420104980469 106.71336364746094,-6.133309364318848,441.0079040527344 106.71414184570312,-6.133297443389893,446.28179931640625 106.7150650024414,-6.1332807540893555,452.39337158203125 106.71601104736328,-6.133261203765869,457.7619323730469 106.7169418334961,-6.13323974609375,462.0445861816406 106.7179183959961,-6.133214950561523,465.58416748046875 106.71870422363281,-6.133193016052246,467.9317321777344 106.71947479248047,-6.1331706047058105,469.9174499511719 106.7204818725586,-6.133138656616211,472.5625305175781 106.72142028808594,-6.133107662200928,475.9093322753906 106.72238159179688,-6.133074760437012,479.65045166015625 106.72333526611328,-6.133041858673096,483.42578125 106.72428894042969,-6.1330084800720215,487.24835205078125 106.72508239746094,-6.132980823516846,490.12994384765625 106.72608184814453,-6.132944583892822,493.1663513183594 106.72688293457031,-6.132915019989014,494.4816589355469 106.72792053222656,-6.132874488830566,493.9217834472656 106.7289047241211,-6.132833480834961,493.1351623535156 106.72991180419922,-6.1327900886535645,492.8514709472656 106.73094940185547,-6.132745742797852,493.23614501953125 106.73177337646484,-6.132712364196777,493.8545837402344 106.7328109741211,-6.132672309875488,494.60491943359375 106.73381805419922,-6.132635593414307,495.239013671875 106.73465728759766,-6.132606506347656,496.221435546875 106.73550415039062,-6.132577419281006,497.33642578125 106.73655700683594,-6.132543087005615,498.3811340332031 106.7374267578125,-6.132514953613281,498.421142578125 106.73846435546875,-6.132482528686523,498.0335693359375 106.7394790649414,-6.132452011108398,497.3545227050781 106.74049377441406,-6.132421970367432,496.80230712890625 106.74153137207031,-6.1323933601379395,496.99591064453125 106.7425765991211,-6.132365703582764,497.6320495605469 106.7434310913086,-6.132344722747803,498.1954040527344 106.74434661865234,-6.132322311401367,498.9492492675781 106.74544525146484,-6.132297039031982,500.259765625 106.74650573730469,-6.132273197174072,501.5644226074219 106.74755859375,-6.13224983215332,501.7544250488281 106.74861907958984,-6.132227420806885,501.0025939941406 106.74967956542969,-6.132205486297607,500.1940612792969 106.75077819824219,-6.132183074951172,499.4332580566406 106.75184631347656,-6.132162094116211,499.43450927734375 106.7529296875,-6.132140636444092,501.5752868652344 106.75399780273438,-6.1321187019348145,504.9172668457031 106.75511169433594,-6.132094860076904,507.6331787109375 106.75617218017578,-6.132070064544678,509.8189697265625 106.75727081298828,-6.1320414543151855,512.3203735351562 106.75834655761719,-6.132011890411377,515.031494140625 106.75923919677734,-6.13198709487915,518.1333618164062 106.76032257080078,-6.131955623626709,521.41748046875 106.76141357421875,-6.13192081451416,523.870849609375 106.76249694824219,-6.131884574890137,526.1948852539062 106.76359558105469,-6.131845951080322,529.776611328125 106.76448822021484,-6.131814956665039,533.4576416015625 106.76561737060547,-6.131774425506592,537.1273193359375 106.76651763916016,-6.131742477416992,538.5192260742188 106.7674331665039,-6.131710529327393,537.4855346679688 106.7685775756836,-6.131673336029053,534.6571655273438 106.7696762084961,-6.131641387939453,532.5135498046875 106.77059936523438,-6.131616115570068,531.13818359375 106.77152252197266,-6.131593704223633,530.0870971679688 106.77263641357422,-6.131568908691406,529.4602661132812 106.7735824584961,-6.131549835205078,529.5131225585938 106.77473449707031,-6.131528377532959,530.2941284179688 106.77568054199219,-6.131511688232422,531.2836303710938 106.77680206298828,-6.131493091583252,532.332763671875 106.77791595458984,-6.131475448608398,532.808837890625 106.77903747558594,-6.1314592361450195,532.9248046875 106.77996063232422,-6.131447792053223,533.2805786132812 106.78111267089844,-6.131435871124268,534.319091796875 106.78223419189453,-6.131428241729736,536.3507080078125 106.78338623046875,-6.131422996520996,538.5986328125 106.78453063964844,-6.131420612335205,540.5223388671875 106.7856674194336,-6.131420135498047,542.128173828125 106.78683471679688,-6.131421089172363,544.419189453125 106.78777313232422,-6.131422996520996,547.0518188476562 106.78901672363281,-6.131425380706787,550.4190673828125 106.79014587402344,-6.131427764892578,552.7469482421875 106.79124450683594,-6.131430149078369,554.656982421875 106.79240417480469,-6.13143253326416,556.2500610351562 106.79351043701172,-6.131434917449951,557.2803344726562 106.79463958740234,-6.131437301635742,557.5006713867188 106.79559326171875,-6.131440162658691,557.1065673828125 106.7967529296875,-6.131444454193115,556.1657104492188 106.79766845703125,-6.131448745727539,555.618408203125 106.79881286621094,-6.131455421447754,555.2678833007812 106.79976654052734,-6.1314616203308105,555.5675048828125 106.80074310302734,-6.131469249725342,557.3212280273438 106.8019027709961,-6.1314802169799805,560.0953979492188 106.8030776977539,-6.131492614746094,561.8524780273438 106.80400848388672,-6.131502628326416,563.2948608398438 106.80522918701172,-6.131515026092529,564.6411743164062 106.8061752319336,-6.131523609161377,564.8703002929688 106.80748748779297,-6.131535530090332,564.6084594726562 106.80847930908203,-6.131543159484863,564.5548095703125 106.80963134765625,-6.131550312042236,564.609619140625 106.81058502197266,-6.131555080413818,564.8095703125 106.81170654296875,-6.1315598487854,565.2208862304688 106.81288146972656,-6.131563186645508,565.8131103515625 106.8138198852539,-6.131565093994141,566.3590698242188 106.8150405883789,-6.131567478179932,566.9986572265625 106.8161849975586,-6.131568908691406,567.3728637695312 106.81732940673828,-6.131569862365723,567.9185180664062 106.81828308105469,-6.131570339202881,568.6763916015625 106.8194580078125,-6.131570816040039,569.61328125 106.82061004638672,-6.1315717697143555,570.5275268554688 106.8218002319336,-6.131572723388672,571.8984375 106.82278442382812,-6.131574630737305,572.748291015625 106.82396697998047,-6.131577491760254,573.2800903320312 106.8251724243164,-6.1315813064575195,574.2871704101562 106.82630920410156,-6.131584644317627,574.8904418945312 106.82746887207031,-6.131587982177734,572.9815063476562 106.82862091064453,-6.131590366363525,570.6011352539062 106.8298110961914,-6.131591320037842,569.9660034179688 106.83104705810547,-6.131591320037842,570.6588745117188 106.83221435546875,-6.131590843200684,571.1328125 106.83336639404297,-6.131588459014893,571.4608764648438 106.83432006835938,-6.131586074829102,571.591552734375 106.83547973632812,-6.1315813064575195,571.32861328125 106.8366470336914,-6.131575584411621,570.994873046875 106.83780670166016,-6.1315693855285645,570.7564697265625 106.8387680053711,-6.131564140319824,570.4763793945312 106.83991241455078,-6.131557464599609,569.9384155273438 106.841064453125,-6.1315507888793945,568.9959106445312 106.84225463867188,-6.131544589996338,567.6356811523438 106.84342956542969,-6.131539344787598,566.4522705078125 106.8445816040039,-6.131534576416016,565.7359008789062 106.84577941894531,-6.131529331207275,565.31640625 106.84673309326172,-6.13152551651001,565.6416625976562 106.84788513183594,-6.131521224975586,566.1456298828125 106.84907531738281,-6.131515979766846,566.6171264648438 106.8502426147461,-6.1315107345581055,567.3448486328125 106.85144805908203,-6.131504535675049,568.280029296875 106.85263061523438,-6.131497383117676,569.3914794921875 106.85383605957031,-6.13148832321167,570.6376342773438 106.85496520996094,-6.131478309631348,571.8460693359375 106.85591888427734,-6.131467819213867,573.01123046875 106.85709381103516,-6.131453037261963,574.5673828125 106.85804748535156,-6.131439685821533,575.3963623046875 106.8590087890625,-6.131424903869629,575.8980712890625 106.86019134521484,-6.131406784057617,576.3724365234375 106.86138916015625,-6.131388187408447,578.7686157226562 106.86260223388672,-6.131368637084961,581.4348754882812 106.86386108398438,-6.131346225738525,583.4762573242188 106.86499786376953,-6.131324768066406,584.7052001953125 106.86614990234375,-6.131302833557129,585.0313110351562 106.8673095703125,-6.131280899047852,584.8824462890625 106.86845397949219,-6.131259918212891,586.4613037109375 106.86959838867188,-6.131239414215088,588.8189697265625 106.87080383300781,-6.1312174797058105,590.7113647460938 106.8719482421875,-6.131195545196533,592.1644897460938 106.87310791015625,-6.1311726570129395,593.5543823242188 106.87435913085938,-6.131147384643555,594.7411499023438 106.87554931640625,-6.13112211227417,595.7171630859375 106.87669372558594,-6.131096839904785,597.552490234375 106.8779296875,-6.131067752838135,599.736328125 106.8788833618164,-6.131043910980225,601.3562622070312 106.8801040649414,-6.13101053237915,603.5034790039062 106.88104248046875,-6.130983352661133,604.508056640625 106.88204193115234,-6.13095235824585,605.2011108398438 106.8832015991211,-6.130914211273193,605.6817016601562 106.88435363769531,-6.130873680114746,606.0859985351562 106.88531494140625,-6.130837917327881,606.4591064453125 106.88646697998047,-6.130791187286377,607.029296875 106.88761901855469,-6.130741596221924,608.109130859375 106.88856506347656,-6.1306986808776855,609.04931640625 106.88973236083984,-6.130644798278809,609.8740844726562 106.89093017578125,-6.130588054656982,610.6072387695312 106.89207458496094,-6.1305317878723145,611.9940795898438 106.89327239990234,-6.130471706390381,614.2206420898438 106.89423370361328,-6.130420684814453,617.0011596679688 106.89539337158203,-6.130357265472412,620.7633056640625 106.8963394165039,-6.130303382873535,623.7145385742188 106.89753723144531,-6.1302313804626465,627.90087890625 106.89871215820312,-6.130162239074707,632.516357421875 106.89984893798828,-6.1301350593566895,639.830078125 106.90100860595703,-6.130214691162109,653.5458374023438 106.90213775634766,-6.13047456741333,670.9727172851562 106.90298461914062,-6.1308112144470215,682.67431640625 106.90396118164062,-6.131375789642334,691.037841796875 106.9046630859375,-6.131906509399414,692.7935180664062 106.90545654296875,-6.132678985595703,691.4359741210938 106.90602111816406,-6.133388042449951,689.2963256835938 106.90660858154297,-6.134303569793701,687.3722534179688 106.90711212158203,-6.13529109954834,688.6981811523438 106.90755462646484,-6.136327266693115,693.9048461914062 106.90791320800781,-6.13734769821167,700.3787231445312 106.90821838378906,-6.138381481170654,705.4996337890625 106.90846252441406,-6.139405727386475,707.9125366210938 106.90863800048828,-6.140218734741211,707.37109375 106.90885162353516,-6.14160680770874,702.2354125976562 106.9089584350586,-6.1424665451049805,696.048095703125 106.9090576171875,-6.143507480621338,685.8003540039062 106.90911865234375,-6.144353866577148,675.6093139648438 106.9091567993164,-6.145263195037842,665.2984619140625 106.90914154052734,-6.146361351013184,654.6035766601562 106.90910339355469,-6.147420406341553,645.9923095703125 106.9090347290039,-6.148578643798828,638.0968627929688 106.90896606445312,-6.149646282196045,633.0881958007812 106.90889739990234,-6.1507248878479,630.2235717773438 106.90882873535156,-6.151848793029785,628.754638671875 106.90876007080078,-6.1529951095581055,628.6077880859375 106.90869140625,-6.154138565063477,629.7754516601562 106.90863037109375,-6.15524959564209,631.3748168945312 106.90859985351562,-6.155877113342285,632.241455078125 106.90853118896484,-6.157343864440918,632.9462890625 106.90848541259766,-6.1582770347595215,632.9974975585938 106.90843963623047,-6.15941858291626,632.573486328125 106.90839385986328,-6.16054105758667,632.1034545898438 106.90836334228516,-6.161495685577393,632.4674072265625 106.9083251953125,-6.162623405456543,634.0191650390625 106.90829467773438,-6.163541316986084,635.0037231445312 106.90826416015625,-6.164478778839111,635.6997680664062 106.90823364257812,-6.165625095367432,636.0570068359375 106.90819549560547,-6.166757583618164,635.8516235351562 106.90816497802734,-6.167884826660156,635.0588989257812 106.90813446044922,-6.168997287750244,633.387939453125 106.90809631347656,-6.170107841491699,630.9584350585938 106.90807342529297,-6.171035289764404,629.078857421875 106.90804290771484,-6.172025203704834,626.5084228515625 106.90802001953125,-6.172947406768799,623.7095947265625 106.9079818725586,-6.174137115478516,620.4554443359375 106.90794372558594,-6.175265789031982,619.5503540039062 106.90791320800781,-6.176209926605225,619.1712646484375 106.90787506103516,-6.177136421203613,618.542236328125 106.90784454345703,-6.1780853271484375,618.0560302734375 106.90780639648438,-6.179025650024414,617.8580322265625 106.90776824951172,-6.179988861083984,617.3475952148438 106.90772247314453,-6.181157112121582,615.4038696289062 106.90768432617188,-6.182285308837891,615.8331909179688 106.90764617919922,-6.183437347412109,619.9715576171875 106.9076156616211,-6.184528350830078,624.8697509765625 106.9075927734375,-6.185459613800049,628.0702514648438 106.90757751464844,-6.186618804931641,630.106201171875 106.90756225585938,-6.187737941741943,630.8422241210938 106.90754699707031,-6.188947677612305,629.96728515625 106.90753173828125,-6.190123558044434,627.3213500976562 106.90752410888672,-6.191252708435059,622.9927978515625 106.90751647949219,-6.1921820640563965,618.8168334960938 106.90750122070312,-6.1933722496032715,614.1742553710938 106.9074935913086,-6.1945319175720215,610.1563110351562 106.90748596191406,-6.19567346572876,606.0320434570312 106.90747833251953,-6.196849822998047,601.8878173828125 106.907470703125,-6.197781085968018,599.412841796875 106.907470703125,-6.198970794677734,597.2728271484375 106.907470703125,-6.199941635131836,595.81005859375 106.90747833251953,-6.201086044311523,593.691650390625 106.90747833251953,-6.202310085296631,589.4918823242188 106.90748596191406,-6.203251361846924,584.1591186523438 106.90748596191406,-6.204418182373047,576.5494384765625 106.90747833251953,-6.20556640625,569.0728759765625 106.907470703125,-6.206701278686523,561.377197265625 106.90745544433594,-6.207844257354736,554.1824340820312 106.90744018554688,-6.2089948654174805,548.2263793945312 106.90742492675781,-6.21014928817749,543.4215087890625 106.90740966796875,-6.211287975311279,538.798095703125 106.90739440917969,-6.212442874908447,530.844482421875 106.90738677978516,-6.213380336761475,522.602783203125 106.90737915039062,-6.21462345123291,509.2355651855469 106.90737915039062,-6.215539455413818,498.73199462890625 106.90737915039062,-6.216692924499512,485.5025329589844 106.90738677978516,-6.217636585235596,473.92681884765625 106.90739440917969,-6.218761920928955,458.13409423828125 106.90740966796875,-6.2198357582092285,442.1359558105469 106.90742492675781,-6.220919609069824,427.6609802246094 106.9074478149414,-6.222049713134766,413.8488464355469 106.90746307373047,-6.2229437828063965,403.0541076660156 106.90747833251953,-6.224052906036377,389.2807312011719 106.9074935913086,-6.225147724151611,374.82861328125 106.90750885009766,-6.22622013092041,360.21234130859375 106.90752410888672,-6.227319240570068,343.7687072753906 106.90753936767578,-6.2283430099487305,326.8545227050781 106.90754699707031,-6.229157447814941,312.74639892578125 106.90755462646484,-6.229973316192627,301.0101013183594 106.90756225585938,-6.2308197021484375,291.86236572265625 106.90758514404297,-6.231790065765381,284.10186767578125 106.9076156616211,-6.232771873474121,277.12017822265625 106.90764617919922,-6.233535289764404,271.24505615234375 106.9076919555664,-6.234461307525635,264.2303466796875 106.90774536132812,-6.235376358032227,256.94378662109375 106.90779876708984,-6.236259460449219,250.19239807128906 106.90785217285156,-6.237121105194092,242.7751007080078 106.90790557861328,-6.238020896911621,235.4796905517578 106.90796661376953,-6.238884449005127,227.92626953125 106.90802764892578,-6.239737510681152,220.6399383544922 106.90807342529297,-6.240451812744141,214.7898712158203 106.90812683105469,-6.241295337677002,207.02230834960938 106.90817260742188,-6.242095947265625,199.1658172607422 106.9082260131836,-6.242897033691406,191.4025115966797 106.90827178955078,-6.2436933517456055,183.09474182128906 106.90830993652344,-6.244480133056641,174.5943145751953 106.90834045410156,-6.2451300621032715,167.96475219726562 106.90836334228516,-6.245942115783691,161.7870635986328 106.90836334228516,-6.246574401855469,158.82521057128906 106.90831756591797,-6.247336387634277,157.3286590576172 106.90821075439453,-6.248073577880859,157.49839782714844 106.90809631347656,-6.248651504516602,157.65673828125 106.90792083740234,-6.249358177185059,157.61337280273438 106.90773010253906,-6.2500386238098145,156.95309448242188 106.90752410888672,-6.250718593597412,155.0884246826172 106.90730285644531,-6.251399040222168,151.12939453125 106.9071273803711,-6.251935005187988,147.14476013183594 106.90691375732422,-6.252575397491455,141.52023315429688 106.90670013427734,-6.253209590911865,135.883544921875 106.90647888183594,-6.253835201263428,131.00399780273438 106.90625,-6.254452705383301,126.45571899414062 106.90602111816406,-6.255073547363281,121.7156753540039 106.90582275390625,-6.2555742263793945,117.59951782226562 106.90557861328125,-6.256185054779053,112.15567016601562 106.90533447265625,-6.256781578063965,106.40252685546875 106.90508270263672,-6.257353782653809,100.88699340820312 106.9048080444336,-6.257917404174805,95.64940643310547 106.9045181274414,-6.258453845977783,90.68977355957031 106.90419006347656,-6.258981704711914,85.56611633300781 106.90380859375,-6.259507656097412,80.61985778808594 106.90347290039062,-6.259876251220703,76.59652709960938 106.90303802490234,-6.260294437408447,70.52578735351562 106.90258026123047,-6.260691165924072,63.326263427734375 106.9021987915039,-6.260990619659424,56.64152526855469 106.90180206298828,-6.261287689208984,49.170318603515625 106.90131378173828,-6.261626720428467,40.40057373046875 106.90079498291016,-6.26196813583374,32.78142547607422 106.90028381347656,-6.262274742126465,28.730039596557617 106.89987182617188,-6.262499809265137,27.87883186340332 106.89936065673828,-6.262746334075928,27.664281845092773 106.89893341064453,-6.262938022613525,27.636430740356445 106.89849853515625,-6.26313591003418,27.539424896240234 106.89798736572266,-6.263368606567383,27.527320861816406 106.89750671386719,-6.263587474822998,27.6306095123291 106.89710235595703,-6.26377010345459,27.761587142944336 106.89662170410156,-6.263990879058838,27.484390258789062 106.89616394042969,-6.264204025268555,27.20656394958496 106.8957290649414,-6.264407634735107,27.16745948791504 106.89539337158203,-6.264566421508789,27.259525299072266 106.89500427246094,-6.2647504806518555,27.38043785095215 106.89459991455078,-6.264943599700928,27.284170150756836 106.89427947998047,-6.26509428024292,27.08611297607422 106.89397430419922,-6.265242099761963,26.905935287475586 106.8936767578125,-6.265391826629639,26.722503662109375 106.8934555053711,-6.265498161315918,26.58963394165039 106.89324951171875,-6.265594482421875,26.474855422973633 106.89300537109375,-6.265697479248047,26.327486038208008 106.89282989501953,-6.2657694816589355,26.221044540405273 106.89262390136719,-6.265857696533203,26.096179962158203 106.89244842529297,-6.265944004058838,25.990882873535156 106.89231872558594,-6.266006946563721,25.910654067993164 106.8921890258789,-6.266068458557129,25.84083366394043 106.89208984375,-6.266109466552734,25.777368545532227 106.89200592041016,-6.266149520874023,25.73137664794922 106.89192199707031,-6.266191482543945,25.66301918029785 106.8918685913086,-6.2662248611450195,25.63726806640625 106.89183044433594,-6.2662529945373535,25.6124210357666 106.89180755615234,-6.266268253326416,25.59870147705078 106.89179992675781,-6.266272068023682,25.58880615234375 106.89179992675781,-6.266271591186523,25.579055786132812 106.89179992675781,-6.266271591186523,25.579113006591797 106.89179992675781,-6.266271591186523,25.579113006591797 106.89179992675781,-6.266271591186523,25.579113006591797 106.89179992675781,-6.266271591186523,25.579113006591797 106.89179992675781,-6.266271591186523,25.579113006591797 106.89179992675781,-6.266271591186523,25.579113006591797 106.89179992675781,-6.266271591186523,25.579113006591797 106.89179992675781,-6.266271591186523,25.579113006591797 106.89179992675781,-6.266271591186523,25.579113006591797 106.89179992675781,-6.266271591186523,25.579113006591797</coordinates>
            </LineString>
        </Placemark>
    </Document>
</kml>
